<?xml version="1.0" encoding="UTF-8"?><kml xmlns="http://www.opengis.net/kml/2.2"><Document><name>rogue_applegate Historical sites</name><Style id="s0"><IconStyle><color>ff000000</color><scale>1.0</scale><Icon><href>http://maps.google.com/mapfiles/kml/shapes/placemark_circle.png</href></Icon></IconStyle></Style><Folder><name>Historical sites</name><Placemark><name>Placer - Humbug Creek Placers</name><description>6 source record(s) merged within 75m | src: MILO, USMIN</description><styleUrl>#s0</styleUrl><Point><coordinates>-123.142703,42.268933,0</coordinates></Point></Placemark><Placemark><name>Placer - Glendale</name><description>4 source record(s) merged within 75m | src: MILO, USMIN</description><styleUrl>#s0</styleUrl><Point><coordinates>-123.439916,42.649110,0</coordinates></Point></Placemark><Placemark><name>Placer - Old Channel</name><description>3 source record(s) merged within 75m | src: MILO, USMIN</description><styleUrl>#s0</styleUrl><Point><coordinates>-123.609650,42.572392,0</coordinates></Point></Placemark><Placemark><name>Placer - California Oregon</name><description>3 source record(s) merged within 75m | src: MILO, USMIN</description><styleUrl>#s0</styleUrl><Point><coordinates>-123.624092,42.560059,0</coordinates></Point></Placemark><Placemark><name>Placer - Old Channel placers</name><description>3 source record(s) merged within 75m | src: MILO, USMIN</description><styleUrl>#s0</styleUrl><Point><coordinates>-123.634443,42.549017,0</coordinates></Point></Placemark><Placemark><name>Placer - Dean and Dean placer</name><description>3 source record(s) merged within 75m | src: MILO, USMIN</description><styleUrl>#s0</styleUrl><Point><coordinates>-123.590720,42.586411,0</coordinates></Point></Placemark><Placemark><name>Placer - Old Channel placers</name><description>3 source record(s) merged within 75m | src: MILO, USMIN</description><styleUrl>#s0</styleUrl><Point><coordinates>-123.635383,42.545609,0</coordinates></Point></Placemark><Placemark><name>Placer - Carnegie Place</name><description>3 source record(s) merged within 75m | src: MILO, USMIN</description><styleUrl>#s0</styleUrl><Point><coordinates>-123.630571,42.556886,0</coordinates></Point></Placemark><Placemark><name>Placer - Last Chance placer</name><description>3 source record(s) merged within 75m | src: MILO, USMIN</description><styleUrl>#s0</styleUrl><Point><coordinates>-123.603841,42.580354,0</coordinates></Point></Placemark><Placemark><name>Placer - Glendale</name><description>3 source record(s) merged within 75m | src: USMIN</description><styleUrl>#s0</styleUrl><Point><coordinates>-123.449547,42.642198,0</coordinates></Point></Placemark><Placemark><name>Placer - Glendale</name><description>3 source record(s) merged within 75m | src: MILO, MRDS, USMIN</description><styleUrl>#s0</styleUrl><Point><coordinates>-123.467368,42.671787,0</coordinates></Point></Placemark><Placemark><name>Placer - Dixie Placer</name><description>3 source record(s) merged within 75m | src: MILO, USMIN</description><styleUrl>#s0</styleUrl><Point><coordinates>-123.129223,42.376073,0</coordinates></Point></Placemark><Placemark><name>Placer - Golden</name><description>3 source record(s) merged within 75m | src: MILO, USMIN</description><styleUrl>#s0</styleUrl><Point><coordinates>-123.258601,42.646573,0</coordinates></Point></Placemark><Placemark><name>Placer - Wolf Creek placers</name><description>3 source record(s) merged within 75m | src: MILO, MRDS, USMIN</description><styleUrl>#s0</styleUrl><Point><coordinates>-123.383985,42.685890,0</coordinates></Point></Placemark><Placemark><name>Placer - Klum placer Mine</name><description>3 source record(s) merged within 75m | src: MILO, USMIN</description><styleUrl>#s0</styleUrl><Point><coordinates>-123.474033,42.649817,0</coordinates></Point></Placemark><Placemark><name>Placer - Iverson and Pohlmam placer</name><description>3 source record(s) merged within 75m | src: MILO, MRDS</description><styleUrl>#s0</styleUrl><Point><coordinates>-123.444777,42.626221,0</coordinates></Point></Placemark><Placemark><name>Placer - Liepold placer</name><description>3 source record(s) merged within 75m | src: MILO, MRDS</description><styleUrl>#s0</styleUrl><Point><coordinates>-123.625351,42.551506,0</coordinates></Point></Placemark><Placemark><name>Placer - Texas Oregon Power and placer</name><description>3 source record(s) merged within 75m | src: MILO, MRDS</description><styleUrl>#s0</styleUrl><Point><coordinates>-123.564492,42.550399,0</coordinates></Point></Placemark><Placemark><name>Placer - Lindh and Webber</name><description>3 source record(s) merged within 75m | src: MILO, MRDS</description><styleUrl>#s0</styleUrl><Point><coordinates>-123.489776,42.509827,0</coordinates></Point></Placemark><Placemark><name>Placer - Old Channel</name><description>2 source record(s) merged within 75m | src: MILO, USMIN</description><styleUrl>#s0</styleUrl><Point><coordinates>-123.605886,42.575476,0</coordinates></Point></Placemark><Placemark><name>Placer - McNair Flat placer</name><description>2 source record(s) merged within 75m | src: MILO, USMIN</description><styleUrl>#s0</styleUrl><Point><coordinates>-123.544014,42.653297,0</coordinates></Point></Placemark><Placemark><name>Placer - gold placer</name><description>2 source record(s) merged within 75m | src: MILO, USMIN</description><styleUrl>#s0</styleUrl><Point><coordinates>-123.511835,42.644347,0</coordinates></Point></Placemark><Placemark><name>Placer - Yankee Chief placer</name><description>2 source record(s) merged within 75m | src: MILO, USMIN</description><styleUrl>#s0</styleUrl><Point><coordinates>-123.642289,42.531634,0</coordinates></Point></Placemark><Placemark><name>Placer - Vindicator placer</name><description>2 source record(s) merged within 75m | src: MILO, USMIN</description><styleUrl>#s0</styleUrl><Point><coordinates>-123.522358,42.657561,0</coordinates></Point></Placemark><Placemark><name>Placer - Three L's placer (Yokum)</name><description>2 source record(s) merged within 75m | src: MILO, USMIN</description><styleUrl>#s0</styleUrl><Point><coordinates>-123.508700,42.643991,0</coordinates></Point></Placemark><Placemark><name>Placer - gold placer prospect</name><description>2 source record(s) merged within 75m | src: MILO, USMIN</description><styleUrl>#s0</styleUrl><Point><coordinates>-123.639827,42.595295,0</coordinates></Point></Placemark><Placemark><name>Placer - Glendale</name><description>2 source record(s) merged within 75m | src: MILO, USMIN</description><styleUrl>#s0</styleUrl><Point><coordinates>-123.486731,42.640055,0</coordinates></Point></Placemark><Placemark><name>Placer - Archer placer mine</name><description>2 source record(s) merged within 75m | src: MILO, USMIN</description><styleUrl>#s0</styleUrl><Point><coordinates>-123.511578,42.646491,0</coordinates></Point></Placemark><Placemark><name>Placer - Glendale</name><description>2 source record(s) merged within 75m | src: MILO, USMIN</description><styleUrl>#s0</styleUrl><Point><coordinates>-123.474351,42.661385,0</coordinates></Point></Placemark><Placemark><name>Placer - Glendale</name><description>2 source record(s) merged within 75m | src: MILO, USMIN</description><styleUrl>#s0</styleUrl><Point><coordinates>-123.460681,42.674901,0</coordinates></Point></Placemark><Placemark><name>Placer - Glendale</name><description>2 source record(s) merged within 75m | src: MRDS, USMIN</description><styleUrl>#s0</styleUrl><Point><coordinates>-123.474063,42.660131,0</coordinates></Point></Placemark><Placemark><name>Placer - Glendale</name><description>2 source record(s) merged within 75m | src: MRDS, USMIN</description><styleUrl>#s0</styleUrl><Point><coordinates>-123.434301,42.630960,0</coordinates></Point></Placemark><Placemark><name>Placer - Sterling Creek placers</name><description>2 source record(s) merged within 75m | src: MILO, USMIN</description><styleUrl>#s0</styleUrl><Point><coordinates>-122.943581,42.215944,0</coordinates></Point></Placemark><Placemark><name>Placer - prospect</name><description>2 source record(s) merged within 75m | src: MILO, USMIN</description><styleUrl>#s0</styleUrl><Point><coordinates>-123.218692,42.354672,0</coordinates></Point></Placemark><Placemark><name>Placer - prospect</name><description>2 source record(s) merged within 75m | src: MILO, USMIN</description><styleUrl>#s0</styleUrl><Point><coordinates>-123.217809,42.347225,0</coordinates></Point></Placemark><Placemark><name>Placer - prospect</name><description>2 source record(s) merged within 75m | src: MILO, USMIN</description><styleUrl>#s0</styleUrl><Point><coordinates>-123.219260,42.346771,0</coordinates></Point></Placemark><Placemark><name>Placer - prospect</name><description>2 source record(s) merged within 75m | src: MILO, USMIN</description><styleUrl>#s0</styleUrl><Point><coordinates>-123.219749,42.354488,0</coordinates></Point></Placemark><Placemark><name>Placer - Wimer</name><description>2 source record(s) merged within 75m | src: MILO, USMIN</description><styleUrl>#s0</styleUrl><Point><coordinates>-123.239096,42.606936,0</coordinates></Point></Placemark><Placemark><name>Placer - King Mountain</name><description>2 source record(s) merged within 75m | src: MILO, USMIN</description><styleUrl>#s0</styleUrl><Point><coordinates>-123.199943,42.659076,0</coordinates></Point></Placemark><Placemark><name>Placer - Pleasant Creek placers</name><description>2 source record(s) merged within 75m | src: MILO, MRDS</description><styleUrl>#s0</styleUrl><Point><coordinates>-123.159769,42.616229,0</coordinates></Point></Placemark><Placemark><name>Placer - Telkamp placer</name><description>2 source record(s) merged within 75m | src: MILO, MRDS</description><styleUrl>#s0</styleUrl><Point><coordinates>-123.171981,42.594546,0</coordinates></Point></Placemark><Placemark><name>Placer - Williams</name><description>2 source record(s) merged within 75m | src: MILO, MRDS</description><styleUrl>#s0</styleUrl><Point><coordinates>-123.197273,42.575939,0</coordinates></Point></Placemark><Placemark><name>Placer - Mansfield</name><description>2 source record(s) merged within 75m | src: MILO, MRDS</description><styleUrl>#s0</styleUrl><Point><coordinates>-122.982260,42.413158,0</coordinates></Point></Placemark><Placemark><name>Placer - Winchester-Housten</name><description>2 source record(s) merged within 75m | src: MILO, MRDS</description><styleUrl>#s0</styleUrl><Point><coordinates>-122.981444,42.385947,0</coordinates></Point></Placemark><Placemark><name>Placer - Mee placer</name><description>2 source record(s) merged within 75m | src: MILO, MRDS</description><styleUrl>#s0</styleUrl><Point><coordinates>-123.173658,42.242629,0</coordinates></Point></Placemark><Placemark><name>Placer - Hamilton-Taylor Ranch placer</name><description>2 source record(s) merged within 75m | src: MILO, MRDS</description><styleUrl>#s0</styleUrl><Point><coordinates>-123.065049,42.221236,0</coordinates></Point></Placemark><Placemark><name>Placer - Leland (SBK) placer</name><description>2 source record(s) merged within 75m | src: MILO, MRDS</description><styleUrl>#s0</styleUrl><Point><coordinates>-123.415884,42.636515,0</coordinates></Point></Placemark><Placemark><name>Placer - Rocky Gulch placer</name><description>2 source record(s) merged within 75m | src: MILO, MRDS</description><styleUrl>#s0</styleUrl><Point><coordinates>-123.593390,42.581226,0</coordinates></Point></Placemark><Placemark><name>Placer - Spradlinge</name><description>2 source record(s) merged within 75m | src: MILO, MRDS</description><styleUrl>#s0</styleUrl><Point><coordinates>-123.407275,42.530939,0</coordinates></Point></Placemark><Placemark><name>Placer - Little Marvel</name><description>2 source record(s) merged within 75m | src: MILO, MRDS</description><styleUrl>#s0</styleUrl><Point><coordinates>-123.278378,42.560121,0</coordinates></Point></Placemark><Placemark><name>Placer - placer mine</name><description>2 source record(s) merged within 75m | src: MILO, MRDS</description><styleUrl>#s0</styleUrl><Point><coordinates>-123.240063,42.606756,0</coordinates></Point></Placemark><Placemark><name>Placer - Dry Diggins</name><description>2 source record(s) merged within 75m | src: MILO, MRDS</description><styleUrl>#s0</styleUrl><Point><coordinates>-123.263090,42.439017,0</coordinates></Point></Placemark><Placemark><name>Placer - The B-H Co.</name><description>2 source record(s) merged within 75m | src: MILO, MRDS</description><styleUrl>#s0</styleUrl><Point><coordinates>-123.197559,42.300634,0</coordinates></Point></Placemark><Placemark><name>Placer - Bishop and Sturtevant Dredge</name><description>2 source record(s) merged within 75m | src: MILO, MRDS</description><styleUrl>#s0</styleUrl><Point><coordinates>-123.002254,42.278141,0</coordinates></Point></Placemark><Placemark><name>Placer - Glendale</name><description>1 source record(s) merged within 75m | src: USMIN</description><styleUrl>#s0</styleUrl><Point><coordinates>-123.435481,42.630739,0</coordinates></Point></Placemark><Placemark><name>Placer - Glendale</name><description>1 source record(s) merged within 75m | src: USMIN</description><styleUrl>#s0</styleUrl><Point><coordinates>-123.487654,42.640087,0</coordinates></Point></Placemark><Placemark><name>Placer - Glendale</name><description>1 source record(s) merged within 75m | src: USMIN</description><styleUrl>#s0</styleUrl><Point><coordinates>-123.351159,42.685669,0</coordinates></Point></Placemark><Placemark><name>Placer - King Mountain</name><description>1 source record(s) merged within 75m | src: USMIN</description><styleUrl>#s0</styleUrl><Point><coordinates>-123.203969,42.667753,0</coordinates></Point></Placemark><Placemark><name>Placer - Neathamer</name><description>1 source record(s) merged within 75m | src: MILO</description><styleUrl>#s0</styleUrl><Point><coordinates>-123.203864,42.668453,0</coordinates></Point></Placemark><Placemark><name>Placer - Porcupine placer</name><description>1 source record(s) merged within 75m | src: MILO</description><styleUrl>#s0</styleUrl><Point><coordinates>-123.164236,42.609013,0</coordinates></Point></Placemark><Placemark><name>Placer - West Evans Creek copper</name><description>1 source record(s) merged within 75m | src: MILO</description><styleUrl>#s0</styleUrl><Point><coordinates>-123.042011,42.622626,0</coordinates></Point></Placemark><Placemark><name>Placer - Lenhert placer</name><description>1 source record(s) merged within 75m | src: MILO</description><styleUrl>#s0</styleUrl><Point><coordinates>-123.095621,42.539850,0</coordinates></Point></Placemark><Placemark><name>Placer - Iron Mountain placer</name><description>1 source record(s) merged within 75m | src: MILO</description><styleUrl>#s0</styleUrl><Point><coordinates>-122.999510,42.511516,0</coordinates></Point></Placemark><Placemark><name>Placer - Bullfrog placer</name><description>1 source record(s) merged within 75m | src: MILO</description><styleUrl>#s0</styleUrl><Point><coordinates>-123.163101,42.421541,0</coordinates></Point></Placemark><Placemark><name>Placer - Ward Creek placers</name><description>1 source record(s) merged within 75m | src: MILO</description><styleUrl>#s0</styleUrl><Point><coordinates>-123.117443,42.478737,0</coordinates></Point></Placemark><Placemark><name>Placer - Sardine Creek placers</name><description>1 source record(s) merged within 75m | src: MILO</description><styleUrl>#s0</styleUrl><Point><coordinates>-123.074783,42.463183,0</coordinates></Point></Placemark><Placemark><name>Placer - Vroman placer</name><description>1 source record(s) merged within 75m | src: MILO</description><styleUrl>#s0</styleUrl><Point><coordinates>-123.071476,42.470125,0</coordinates></Point></Placemark><Placemark><name>Placer - GC and E placer claim</name><description>1 source record(s) merged within 75m | src: MILO</description><styleUrl>#s0</styleUrl><Point><coordinates>-123.003601,42.453709,0</coordinates></Point></Placemark><Placemark><name>Placer - Gold Hill placer</name><description>1 source record(s) merged within 75m | src: MILO</description><styleUrl>#s0</styleUrl><Point><coordinates>-123.078671,42.438295,0</coordinates></Point></Placemark><Placemark><name>Placer - Kane Creek placers</name><description>1 source record(s) merged within 75m | src: MILO</description><styleUrl>#s0</styleUrl><Point><coordinates>-123.022556,42.398739,0</coordinates></Point></Placemark><Placemark><name>Placer - Schmidt prospect</name><description>1 source record(s) merged within 75m | src: MILO</description><styleUrl>#s0</styleUrl><Point><coordinates>-123.083396,42.387629,0</coordinates></Point></Placemark><Placemark><name>Placer - Galls Creek placers</name><description>1 source record(s) merged within 75m | src: MILO</description><styleUrl>#s0</styleUrl><Point><coordinates>-123.057004,42.384848,0</coordinates></Point></Placemark><Placemark><name>Placer - Old Fort Lane</name><description>1 source record(s) merged within 75m | src: MILO</description><styleUrl>#s0</styleUrl><Point><coordinates>-122.982562,42.429016,0</coordinates></Point></Placemark><Placemark><name>Placer - Bailey gold Pocket</name><description>1 source record(s) merged within 75m | src: MILO</description><styleUrl>#s0</styleUrl><Point><coordinates>-122.992006,42.375409,0</coordinates></Point></Placemark><Placemark><name>Placer - Hancock claims</name><description>1 source record(s) merged within 75m | src: MILO</description><styleUrl>#s0</styleUrl><Point><coordinates>-123.176180,42.366238,0</coordinates></Point></Placemark><Placemark><name>Placer - Lance placer</name><description>1 source record(s) merged within 75m | src: MILO</description><styleUrl>#s0</styleUrl><Point><coordinates>-123.154229,42.338740,0</coordinates></Point></Placemark><Placemark><name>Placer - Glen Ditch placer</name><description>1 source record(s) merged within 75m | src: MILO</description><styleUrl>#s0</styleUrl><Point><coordinates>-123.162011,42.317072,0</coordinates></Point></Placemark><Placemark><name>Placer - Swacker Flat</name><description>1 source record(s) merged within 75m | src: MILO</description><styleUrl>#s0</styleUrl><Point><coordinates>-123.122350,42.370980,0</coordinates></Point></Placemark><Placemark><name>Placer - Gold Dust placer</name><description>1 source record(s) merged within 75m | src: MILO</description><styleUrl>#s0</styleUrl><Point><coordinates>-123.103950,42.314575,0</coordinates></Point></Placemark><Placemark><name>Placer - Foots Creek placers</name><description>1 source record(s) merged within 75m | src: MILO</description><styleUrl>#s0</styleUrl><Point><coordinates>-123.078114,42.315406,0</coordinates></Point></Placemark><Placemark><name>Placer - Black's placer</name><description>1 source record(s) merged within 75m | src: MILO</description><styleUrl>#s0</styleUrl><Point><coordinates>-123.081731,42.297352,0</coordinates></Point></Placemark><Placemark><name>Placer - Davies placer</name><description>1 source record(s) merged within 75m | src: MILO</description><styleUrl>#s0</styleUrl><Point><coordinates>-123.068394,42.294574,0</coordinates></Point></Placemark><Placemark><name>Placer - Forest Creek placers</name><description>1 source record(s) merged within 75m | src: MILO</description><styleUrl>#s0</styleUrl><Point><coordinates>-123.031415,42.265923,0</coordinates></Point></Placemark><Placemark><name>Placer - Jacksonville placer 5</name><description>1 source record(s) merged within 75m | src: MILO</description><styleUrl>#s0</styleUrl><Point><coordinates>-122.976898,42.316476,0</coordinates></Point></Placemark><Placemark><name>Placer - Layton Mine</name><description>1 source record(s) merged within 75m | src: MILO</description><styleUrl>#s0</styleUrl><Point><coordinates>-123.208956,42.248739,0</coordinates></Point></Placemark><Placemark><name>Placer - Thompson Creek placers</name><description>1 source record(s) merged within 75m | src: MILO</description><styleUrl>#s0</styleUrl><Point><coordinates>-123.182840,42.235681,0</coordinates></Point></Placemark><Placemark><name>Placer - Williams Dredge</name><description>1 source record(s) merged within 75m | src: MILO</description><styleUrl>#s0</styleUrl><Point><coordinates>-122.987830,42.236521,0</coordinates></Point></Placemark><Placemark><name>Placer - Little Applegate placers</name><description>1 source record(s) merged within 75m | src: MILO</description><styleUrl>#s0</styleUrl><Point><coordinates>-122.974501,42.155968,0</coordinates></Point></Placemark><Placemark><name>Placer - Max claim</name><description>1 source record(s) merged within 75m | src: MILO</description><styleUrl>#s0</styleUrl><Point><coordinates>-122.951444,42.166244,0</coordinates></Point></Placemark><Placemark><name>Placer - Goff placer</name><description>1 source record(s) merged within 75m | src: MILO</description><styleUrl>#s0</styleUrl><Point><coordinates>-123.527687,42.660435,0</coordinates></Point></Placemark><Placemark><name>Placer - Meathead</name><description>1 source record(s) merged within 75m | src: MILO</description><styleUrl>#s0</styleUrl><Point><coordinates>-123.257245,42.679646,0</coordinates></Point></Placemark><Placemark><name>Placer - Lower Grave Creek placers</name><description>1 source record(s) merged within 75m | src: MILO</description><styleUrl>#s0</styleUrl><Point><coordinates>-123.503136,42.642066,0</coordinates></Point></Placemark><Placemark><name>Placer - Scandinavian-American placer</name><description>1 source record(s) merged within 75m | src: MILO</description><styleUrl>#s0</styleUrl><Point><coordinates>-123.597029,42.626231,0</coordinates></Point></Placemark><Placemark><name>Placer - Lewis placer</name><description>1 source record(s) merged within 75m | src: MILO</description><styleUrl>#s0</styleUrl><Point><coordinates>-123.456729,42.649951,0</coordinates></Point></Placemark><Placemark><name>Placer - Grave Creek placer</name><description>1 source record(s) merged within 75m | src: MILO</description><styleUrl>#s0</styleUrl><Point><coordinates>-123.407859,42.635679,0</coordinates></Point></Placemark><Placemark><name>Placer - Columbia</name><description>1 source record(s) merged within 75m | src: MILO</description><styleUrl>#s0</styleUrl><Point><coordinates>-123.316188,42.644291,0</coordinates></Point></Placemark><Placemark><name>Placer - gold placer</name><description>1 source record(s) merged within 75m | src: MILO</description><styleUrl>#s0</styleUrl><Point><coordinates>-123.648288,42.591133,0</coordinates></Point></Placemark><Placemark><name>Placer - Fowler Group</name><description>1 source record(s) merged within 75m | src: MILO</description><styleUrl>#s0</styleUrl><Point><coordinates>-123.635084,42.540674,0</coordinates></Point></Placemark><Placemark><name>Placer - Rand placer</name><description>1 source record(s) merged within 75m | src: MILO</description><styleUrl>#s0</styleUrl><Point><coordinates>-123.580365,42.604841,0</coordinates></Point></Placemark><Placemark><name>Placer - gold prospect</name><description>1 source record(s) merged within 75m | src: MILO</description><styleUrl>#s0</styleUrl><Point><coordinates>-123.606749,42.586786,0</coordinates></Point></Placemark><Placemark><name>Placer - Sordy placer</name><description>1 source record(s) merged within 75m | src: MILO</description><styleUrl>#s0</styleUrl><Point><coordinates>-123.598699,42.571786,0</coordinates></Point></Placemark><Placemark><name>Placer - J D placer</name><description>1 source record(s) merged within 75m | src: MILO</description><styleUrl>#s0</styleUrl><Point><coordinates>-123.604529,42.564008,0</coordinates></Point></Placemark><Placemark><name>Placer - Stratton Creek placer</name><description>1 source record(s) merged within 75m | src: MILO</description><styleUrl>#s0</styleUrl><Point><coordinates>-123.542582,42.555952,0</coordinates></Point></Placemark><Placemark><name>Placer - Hellgate placer</name><description>1 source record(s) merged within 75m | src: MILO</description><styleUrl>#s0</styleUrl><Point><coordinates>-123.506471,42.539565,0</coordinates></Point></Placemark><Placemark><name>Placer - Stovepipe Mine</name><description>1 source record(s) merged within 75m | src: MILO</description><styleUrl>#s0</styleUrl><Point><coordinates>-123.440078,42.619843,0</coordinates></Point></Placemark><Placemark><name>Placer - Chapin</name><description>1 source record(s) merged within 75m | src: MILO</description><styleUrl>#s0</styleUrl><Point><coordinates>-123.253961,42.595681,0</coordinates></Point></Placemark><Placemark><name>Placer - Swastika Mining Co.</name><description>1 source record(s) merged within 75m | src: MILO</description><styleUrl>#s0</styleUrl><Point><coordinates>-123.319797,42.572623,0</coordinates></Point></Placemark><Placemark><name>Placer - Big Four placer</name><description>1 source record(s) merged within 75m | src: MILO</description><styleUrl>#s0</styleUrl><Point><coordinates>-123.489100,42.497403,0</coordinates></Point></Placemark><Placemark><name>Placer - Flanagan</name><description>1 source record(s) merged within 75m | src: MILO</description><styleUrl>#s0</styleUrl><Point><coordinates>-123.500885,42.477727,0</coordinates></Point></Placemark><Placemark><name>Placer - Granite Hill placer</name><description>1 source record(s) merged within 75m | src: MILO</description><styleUrl>#s0</styleUrl><Point><coordinates>-123.270054,42.484576,0</coordinates></Point></Placemark><Placemark><name>Placer - Red Jacket Mine</name><description>1 source record(s) merged within 75m | src: MILO</description><styleUrl>#s0</styleUrl><Point><coordinates>-123.271463,42.488181,0</coordinates></Point></Placemark><Placemark><name>Placer - Oscar Creek placer</name><description>1 source record(s) merged within 75m | src: MILO</description><styleUrl>#s0</styleUrl><Point><coordinates>-123.280348,42.336791,0</coordinates></Point></Placemark><Placemark><name>Placer - Murphy placer</name><description>1 source record(s) merged within 75m | src: MILO</description><styleUrl>#s0</styleUrl><Point><coordinates>-123.243954,42.319015,0</coordinates></Point></Placemark><Placemark><name>Placer - Horsehead placer</name><description>1 source record(s) merged within 75m | src: MILO</description><styleUrl>#s0</styleUrl><Point><coordinates>-123.291181,42.245681,0</coordinates></Point></Placemark><Placemark><name>Placer - gold prospect</name><description>1 source record(s) merged within 75m | src: MILO</description><styleUrl>#s0</styleUrl><Point><coordinates>-123.634807,42.578451,0</coordinates></Point></Placemark><Placemark><name>Placer - Bishop and Sturtevant Dredge</name><description>1 source record(s) merged within 75m | src: MILO</description><styleUrl>#s0</styleUrl><Point><coordinates>-123.140375,42.382049,0</coordinates></Point></Placemark><Placemark><name>Placer - Rogue River gold Mining Co.</name><description>1 source record(s) merged within 75m | src: MILO</description><styleUrl>#s0</styleUrl><Point><coordinates>-123.140376,42.379849,0</coordinates></Point></Placemark><Placemark><name>Placer - Duncan and Williams Washing Plant</name><description>1 source record(s) merged within 75m | src: MILO</description><styleUrl>#s0</styleUrl><Point><coordinates>-123.119476,42.453749,0</coordinates></Point></Placemark><Placemark><name>Placer - Orth Placer</name><description>1 source record(s) merged within 75m | src: MILO</description><styleUrl>#s0</styleUrl><Point><coordinates>-123.197277,42.310148,0</coordinates></Point></Placemark><Placemark><name>Placer - Kubli Ranch</name><description>1 source record(s) merged within 75m | src: MILO</description><styleUrl>#s0</styleUrl><Point><coordinates>-123.155575,42.252650,0</coordinates></Point></Placemark><Placemark><name>Placer - Norling</name><description>1 source record(s) merged within 75m | src: MILO</description><styleUrl>#s0</styleUrl><Point><coordinates>-123.029500,42.332072,0</coordinates></Point></Placemark><Placemark><name>Placer - Christine-Dobbins Placer</name><description>1 source record(s) merged within 75m | src: MILO</description><styleUrl>#s0</styleUrl><Point><coordinates>-123.046769,42.283452,0</coordinates></Point></Placemark><Placemark><name>Placer - Pearce Mine</name><description>1 source record(s) merged within 75m | src: MILO</description><styleUrl>#s0</styleUrl><Point><coordinates>-123.017568,42.274252,0</coordinates></Point></Placemark><Placemark><name>Placer - Forest Creek Placers</name><description>1 source record(s) merged within 75m | src: MILO</description><styleUrl>#s0</styleUrl><Point><coordinates>-123.032569,42.281552,0</coordinates></Point></Placemark><Placemark><name>Placer - Sprague Placer</name><description>1 source record(s) merged within 75m | src: MILO</description><styleUrl>#s0</styleUrl><Point><coordinates>-122.988967,42.302052,0</coordinates></Point></Placemark><Placemark><name>Placer - Merrick Mine</name><description>1 source record(s) merged within 75m | src: MILO</description><styleUrl>#s0</styleUrl><Point><coordinates>-122.888663,42.161556,0</coordinates></Point></Placemark><Placemark><name>Placer - Iron Mine</name><description>1 source record(s) merged within 75m | src: MILO</description><styleUrl>#s0</styleUrl><Point><coordinates>-123.346782,42.152946,0</coordinates></Point></Placemark><Placemark><name>Adit - Gold Hill</name><description>13 source record(s) merged within 75m | src: MILO, USMIN</description><styleUrl>#s0</styleUrl><Point><coordinates>-123.010287,42.447629,0</coordinates></Point></Placemark><Placemark><name>Shaft - King Mountain</name><description>13 source record(s) merged within 75m | src: MILO, USMIN</description><styleUrl>#s0</styleUrl><Point><coordinates>-123.229145,42.672600,0</coordinates></Point></Placemark><Placemark><name>Adit - Mt. Isabelle</name><description>10 source record(s) merged within 75m | src: MILO, USMIN</description><styleUrl>#s0</styleUrl><Point><coordinates>-123.101575,42.355361,0</coordinates></Point></Placemark><Placemark><name>Shaft - King Mountain</name><description>9 source record(s) merged within 75m | src: MILO, USMIN</description><styleUrl>#s0</styleUrl><Point><coordinates>-123.203944,42.696253,0</coordinates></Point></Placemark><Placemark><name>Adit - Bunker Creek</name><description>9 source record(s) merged within 75m | src: MILO, USMIN</description><styleUrl>#s0</styleUrl><Point><coordinates>-123.638975,42.664730,0</coordinates></Point></Placemark><Placemark><name>Shaft - Applegate</name><description>9 source record(s) merged within 75m | src: MILO, USMIN</description><styleUrl>#s0</styleUrl><Point><coordinates>-123.153074,42.273802,0</coordinates></Point></Placemark><Placemark><name>Adit - Merlin</name><description>9 source record(s) merged within 75m | src: MILO, USMIN</description><styleUrl>#s0</styleUrl><Point><coordinates>-123.395361,42.619786,0</coordinates></Point></Placemark><Placemark><name>Adit - Applegate</name><description>8 source record(s) merged within 75m | src: MILO, USMIN</description><styleUrl>#s0</styleUrl><Point><coordinates>-123.214208,42.351953,0</coordinates></Point></Placemark><Placemark><name>Adit - Mt. Isabelle</name><description>8 source record(s) merged within 75m | src: MILO, USMIN</description><styleUrl>#s0</styleUrl><Point><coordinates>-123.098268,42.291074,0</coordinates></Point></Placemark><Placemark><name>Shaft - Golden</name><description>7 source record(s) merged within 75m | src: MILO, USMIN</description><styleUrl>#s0</styleUrl><Point><coordinates>-123.304908,42.678941,0</coordinates></Point></Placemark><Placemark><name>Adit - Golden</name><description>7 source record(s) merged within 75m | src: MILO, USMIN</description><styleUrl>#s0</styleUrl><Point><coordinates>-123.278420,42.699500,0</coordinates></Point></Placemark><Placemark><name>Adit - King Mountain</name><description>6 source record(s) merged within 75m | src: MILO, USMIN</description><styleUrl>#s0</styleUrl><Point><coordinates>-123.205159,42.696195,0</coordinates></Point></Placemark><Placemark><name>Adit - Mount Reuben</name><description>6 source record(s) merged within 75m | src: MILO, USMIN</description><styleUrl>#s0</styleUrl><Point><coordinates>-123.612178,42.676692,0</coordinates></Point></Placemark><Placemark><name>Adit - Mount Peavine</name><description>6 source record(s) merged within 75m | src: MILO, USMIN</description><styleUrl>#s0</styleUrl><Point><coordinates>-123.640474,42.559959,0</coordinates></Point></Placemark><Placemark><name>Shaft - Mc Conville Peak</name><description>6 source record(s) merged within 75m | src: MILO, USMIN</description><styleUrl>#s0</styleUrl><Point><coordinates>-123.090187,42.501149,0</coordinates></Point></Placemark><Placemark><name>Shaft - Gold Hill</name><description>6 source record(s) merged within 75m | src: MILO, USMIN</description><styleUrl>#s0</styleUrl><Point><coordinates>-123.084660,42.381332,0</coordinates></Point></Placemark><Placemark><name>Adit - Golden</name><description>6 source record(s) merged within 75m | src: MILO, USMIN</description><styleUrl>#s0</styleUrl><Point><coordinates>-123.273825,42.693914,0</coordinates></Point></Placemark><Placemark><name>Adit - Golden</name><description>6 source record(s) merged within 75m | src: MILO, USMIN</description><styleUrl>#s0</styleUrl><Point><coordinates>-123.312658,42.645000,0</coordinates></Point></Placemark><Placemark><name>Adit - Golden</name><description>6 source record(s) merged within 75m | src: MILO, MRDS, USMIN</description><styleUrl>#s0</styleUrl><Point><coordinates>-123.302974,42.675585,0</coordinates></Point></Placemark><Placemark><name>Adit - Glendale</name><description>6 source record(s) merged within 75m | src: MILO, USMIN</description><styleUrl>#s0</styleUrl><Point><coordinates>-123.394004,42.620325,0</coordinates></Point></Placemark><Placemark><name>Adit - Mount Reuben</name><description>5 source record(s) merged within 75m | src: MILO, USMIN</description><styleUrl>#s0</styleUrl><Point><coordinates>-123.606663,42.691078,0</coordinates></Point></Placemark><Placemark><name>Shaft - Sams Valley</name><description>5 source record(s) merged within 75m | src: MILO, USMIN</description><styleUrl>#s0</styleUrl><Point><coordinates>-122.989474,42.426083,0</coordinates></Point></Placemark><Placemark><name>Shaft - Sams Valley</name><description>5 source record(s) merged within 75m | src: MILO, USMIN</description><styleUrl>#s0</styleUrl><Point><coordinates>-122.996247,42.403204,0</coordinates></Point></Placemark></Folder></Document></kml>