<?xml version="1.0" encoding="UTF-8"?><kml xmlns="http://www.opengis.net/kml/2.2"><Document><name>rogue_applegate Scout candidates</name><Style id="s0"><IconStyle><color>ff0033ff</color><scale>1.0</scale><Icon><href>http://maps.google.com/mapfiles/kml/shapes/placemark_circle.png</href></Icon></IconStyle></Style><Folder><name>Scout candidates</name><Placemark><name>SCOUT 1 - Placer bench</name><description>prospect (placer (heuristic: surface workings)) | agency: BLM | 51m to stream | cluster: 6 nearby | src: MILO</description><styleUrl>#s0</styleUrl><Point><coordinates>-123.219756,42.354490,0</coordinates></Point></Placemark><Placemark><name>SCOUT 2 - Placer bench</name><description>prospect (placer (heuristic: surface workings)) | agency: BLM | 0m to stream | cluster: 3 nearby | src: MILO</description><styleUrl>#s0</styleUrl><Point><coordinates>-123.217816,42.347228,0</coordinates></Point></Placemark><Placemark><name>SCOUT 3 - Placer bench</name><description>Liepold placer (placer) | agency: BLM | 8m to stream | cluster: 2 nearby | src: MILO</description><styleUrl>#s0</styleUrl><Point><coordinates>-123.625364,42.551507,0</coordinates></Point></Placemark><Placemark><name>SCOUT 4 - Placer bench</name><description>Scandinavian-American placer (placer) | agency: BLM | 19m to stream | cluster: 1 nearby | src: MILO</description><styleUrl>#s0</styleUrl><Point><coordinates>-123.597029,42.626231,0</coordinates></Point></Placemark><Placemark><name>SCOUT 5 - Placer bench</name><description>Vindicator placer (placer) | agency: BLM | 30m to stream | cluster: 1 nearby | src: MILO</description><styleUrl>#s0</styleUrl><Point><coordinates>-123.522343,42.657513,0</coordinates></Point></Placemark><Placemark><name>SCOUT 6 - Placer bench</name><description>Sordy placer (placer) | agency: BLM | 2m to stream | cluster: 0 nearby | src: MILO</description><styleUrl>#s0</styleUrl><Point><coordinates>-123.598699,42.571786,0</coordinates></Point></Placemark><Placemark><name>SCOUT 7 - Placer bench</name><description>Hellgate placer (placer) | agency: BLM | 34m to stream | cluster: 0 nearby | src: MILO</description><styleUrl>#s0</styleUrl><Point><coordinates>-123.506471,42.539565,0</coordinates></Point></Placemark><Placemark><name>SCOUT 8 - Placer bench</name><description>Hancock claims (placer (heuristic: surface workings)) | agency: BLM | 45m to stream | cluster: 0 nearby | src: MILO</description><styleUrl>#s0</styleUrl><Point><coordinates>-123.176180,42.366238,0</coordinates></Point></Placemark><Placemark><name>SCOUT 9 - Placer bench</name><description>Chapin (placer (heuristic: surface workings)) | agency: BLM | 46m to stream | cluster: 0 nearby | src: MILO</description><styleUrl>#s0</styleUrl><Point><coordinates>-123.253961,42.595681,0</coordinates></Point></Placemark><Placemark><name>SCOUT 10 - Placer bench</name><description>Stratton Creek placer (placer) | agency: BLM | 59m to stream | cluster: 0 nearby | src: MILO</description><styleUrl>#s0</styleUrl><Point><coordinates>-123.542582,42.555952,0</coordinates></Point></Placemark></Folder></Document></kml>