<?xml version="1.0" encoding="UTF-8"?>
<gpx xmlns:xsi="http://www.w3.org/2001/XMLSchema-instance" xmlns="http://www.topografix.com/GPX/1/1" xmlns:onx="http://www.onxmaps.com" xsi:schemaLocation="http://www.topografix.com/GPX/1/1 http://www.topografix.com/GPX/1/1/gpx.xsd" version="1.1" creator="onXmaps hunt ios"><wpt lat="42.268933" lon="-123.142703"><name>Placer - Humbug Creek Placers</name><desc>6 source record(s) merged within 75m | src: MILO, USMIN</desc><extensions><onx:icon>Mineral Site</onx:icon><onx:color>rgba(0, 0, 0, 1)</onx:color></extensions></wpt><wpt lat="42.649110" lon="-123.439916"><name>Placer - Glendale</name><desc>4 source record(s) merged within 75m | src: MILO, USMIN</desc><extensions><onx:icon>Mineral Site</onx:icon><onx:color>rgba(0, 0, 0, 1)</onx:color></extensions></wpt><wpt lat="42.572392" lon="-123.609650"><name>Placer - Old Channel</name><desc>3 source record(s) merged within 75m | src: MILO, USMIN</desc><extensions><onx:icon>Mineral Site</onx:icon><onx:color>rgba(0, 0, 0, 1)</onx:color></extensions></wpt><wpt lat="42.560059" lon="-123.624092"><name>Placer - California Oregon</name><desc>3 source record(s) merged within 75m | src: MILO, USMIN</desc><extensions><onx:icon>Mineral Site</onx:icon><onx:color>rgba(0, 0, 0, 1)</onx:color></extensions></wpt><wpt lat="42.549017" lon="-123.634443"><name>Placer - Old Channel placers</name><desc>3 source record(s) merged within 75m | src: MILO, USMIN</desc><extensions><onx:icon>Mineral Site</onx:icon><onx:color>rgba(0, 0, 0, 1)</onx:color></extensions></wpt><wpt lat="42.586411" lon="-123.590720"><name>Placer - Dean and Dean placer</name><desc>3 source record(s) merged within 75m | src: MILO, USMIN</desc><extensions><onx:icon>Mineral Site</onx:icon><onx:color>rgba(0, 0, 0, 1)</onx:color></extensions></wpt><wpt lat="42.545609" lon="-123.635383"><name>Placer - Old Channel placers</name><desc>3 source record(s) merged within 75m | src: MILO, USMIN</desc><extensions><onx:icon>Mineral Site</onx:icon><onx:color>rgba(0, 0, 0, 1)</onx:color></extensions></wpt><wpt lat="42.556886" lon="-123.630571"><name>Placer - Carnegie Place</name><desc>3 source record(s) merged within 75m | src: MILO, USMIN</desc><extensions><onx:icon>Mineral Site</onx:icon><onx:color>rgba(0, 0, 0, 1)</onx:color></extensions></wpt><wpt lat="42.580354" lon="-123.603841"><name>Placer - Last Chance placer</name><desc>3 source record(s) merged within 75m | src: MILO, USMIN</desc><extensions><onx:icon>Mineral Site</onx:icon><onx:color>rgba(0, 0, 0, 1)</onx:color></extensions></wpt><wpt lat="42.642198" lon="-123.449547"><name>Placer - Glendale</name><desc>3 source record(s) merged within 75m | src: USMIN</desc><extensions><onx:icon>Mineral Site</onx:icon><onx:color>rgba(0, 0, 0, 1)</onx:color></extensions></wpt><wpt lat="42.671787" lon="-123.467368"><name>Placer - Glendale</name><desc>3 source record(s) merged within 75m | src: MILO, MRDS, USMIN</desc><extensions><onx:icon>Mineral Site</onx:icon><onx:color>rgba(0, 0, 0, 1)</onx:color></extensions></wpt><wpt lat="42.376073" lon="-123.129223"><name>Placer - Dixie Placer</name><desc>3 source record(s) merged within 75m | src: MILO, USMIN</desc><extensions><onx:icon>Mineral Site</onx:icon><onx:color>rgba(0, 0, 0, 1)</onx:color></extensions></wpt><wpt lat="42.646573" lon="-123.258601"><name>Placer - Golden</name><desc>3 source record(s) merged within 75m | src: MILO, USMIN</desc><extensions><onx:icon>Mineral Site</onx:icon><onx:color>rgba(0, 0, 0, 1)</onx:color></extensions></wpt><wpt lat="42.685890" lon="-123.383985"><name>Placer - Wolf Creek placers</name><desc>3 source record(s) merged within 75m | src: MILO, MRDS, USMIN</desc><extensions><onx:icon>Mineral Site</onx:icon><onx:color>rgba(0, 0, 0, 1)</onx:color></extensions></wpt><wpt lat="42.649817" lon="-123.474033"><name>Placer - Klum placer Mine</name><desc>3 source record(s) merged within 75m | src: MILO, USMIN</desc><extensions><onx:icon>Mineral Site</onx:icon><onx:color>rgba(0, 0, 0, 1)</onx:color></extensions></wpt><wpt lat="42.626221" lon="-123.444777"><name>Placer - Iverson and Pohlmam pl…</name><desc>3 source record(s) merged within 75m | src: MILO, MRDS</desc><extensions><onx:icon>Mineral Site</onx:icon><onx:color>rgba(0, 0, 0, 1)</onx:color></extensions></wpt><wpt lat="42.551506" lon="-123.625351"><name>Placer - Liepold placer</name><desc>3 source record(s) merged within 75m | src: MILO, MRDS</desc><extensions><onx:icon>Mineral Site</onx:icon><onx:color>rgba(0, 0, 0, 1)</onx:color></extensions></wpt><wpt lat="42.550399" lon="-123.564492"><name>Placer - Texas Oregon Power and…</name><desc>3 source record(s) merged within 75m | src: MILO, MRDS</desc><extensions><onx:icon>Mineral Site</onx:icon><onx:color>rgba(0, 0, 0, 1)</onx:color></extensions></wpt><wpt lat="42.509827" lon="-123.489776"><name>Placer - Lindh and Webber</name><desc>3 source record(s) merged within 75m | src: MILO, MRDS</desc><extensions><onx:icon>Mineral Site</onx:icon><onx:color>rgba(0, 0, 0, 1)</onx:color></extensions></wpt><wpt lat="42.575476" lon="-123.605886"><name>Placer - Old Channel</name><desc>2 source record(s) merged within 75m | src: MILO, USMIN</desc><extensions><onx:icon>Mineral Site</onx:icon><onx:color>rgba(0, 0, 0, 1)</onx:color></extensions></wpt><wpt lat="42.653297" lon="-123.544014"><name>Placer - McNair Flat placer</name><desc>2 source record(s) merged within 75m | src: MILO, USMIN</desc><extensions><onx:icon>Mineral Site</onx:icon><onx:color>rgba(0, 0, 0, 1)</onx:color></extensions></wpt><wpt lat="42.644347" lon="-123.511835"><name>Placer - gold placer</name><desc>2 source record(s) merged within 75m | src: MILO, USMIN</desc><extensions><onx:icon>Mineral Site</onx:icon><onx:color>rgba(0, 0, 0, 1)</onx:color></extensions></wpt><wpt lat="42.531634" lon="-123.642289"><name>Placer - Yankee Chief placer</name><desc>2 source record(s) merged within 75m | src: MILO, USMIN</desc><extensions><onx:icon>Mineral Site</onx:icon><onx:color>rgba(0, 0, 0, 1)</onx:color></extensions></wpt><wpt lat="42.657561" lon="-123.522358"><name>Placer - Vindicator placer</name><desc>2 source record(s) merged within 75m | src: MILO, USMIN</desc><extensions><onx:icon>Mineral Site</onx:icon><onx:color>rgba(0, 0, 0, 1)</onx:color></extensions></wpt><wpt lat="42.643991" lon="-123.508700"><name>Placer - Three L's placer (Yoku…</name><desc>2 source record(s) merged within 75m | src: MILO, USMIN</desc><extensions><onx:icon>Mineral Site</onx:icon><onx:color>rgba(0, 0, 0, 1)</onx:color></extensions></wpt><wpt lat="42.595295" lon="-123.639827"><name>Placer - gold placer prospect</name><desc>2 source record(s) merged within 75m | src: MILO, USMIN</desc><extensions><onx:icon>Mineral Site</onx:icon><onx:color>rgba(0, 0, 0, 1)</onx:color></extensions></wpt><wpt lat="42.640055" lon="-123.486731"><name>Placer - Glendale</name><desc>2 source record(s) merged within 75m | src: MILO, USMIN</desc><extensions><onx:icon>Mineral Site</onx:icon><onx:color>rgba(0, 0, 0, 1)</onx:color></extensions></wpt><wpt lat="42.646491" lon="-123.511578"><name>Placer - Archer placer mine</name><desc>2 source record(s) merged within 75m | src: MILO, USMIN</desc><extensions><onx:icon>Mineral Site</onx:icon><onx:color>rgba(0, 0, 0, 1)</onx:color></extensions></wpt><wpt lat="42.661385" lon="-123.474351"><name>Placer - Glendale</name><desc>2 source record(s) merged within 75m | src: MILO, USMIN</desc><extensions><onx:icon>Mineral Site</onx:icon><onx:color>rgba(0, 0, 0, 1)</onx:color></extensions></wpt><wpt lat="42.674901" lon="-123.460681"><name>Placer - Glendale</name><desc>2 source record(s) merged within 75m | src: MILO, USMIN</desc><extensions><onx:icon>Mineral Site</onx:icon><onx:color>rgba(0, 0, 0, 1)</onx:color></extensions></wpt><wpt lat="42.660131" lon="-123.474063"><name>Placer - Glendale</name><desc>2 source record(s) merged within 75m | src: MRDS, USMIN</desc><extensions><onx:icon>Mineral Site</onx:icon><onx:color>rgba(0, 0, 0, 1)</onx:color></extensions></wpt><wpt lat="42.630960" lon="-123.434301"><name>Placer - Glendale</name><desc>2 source record(s) merged within 75m | src: MRDS, USMIN</desc><extensions><onx:icon>Mineral Site</onx:icon><onx:color>rgba(0, 0, 0, 1)</onx:color></extensions></wpt><wpt lat="42.215944" lon="-122.943581"><name>Placer - Sterling Creek placers</name><desc>2 source record(s) merged within 75m | src: MILO, USMIN</desc><extensions><onx:icon>Mineral Site</onx:icon><onx:color>rgba(0, 0, 0, 1)</onx:color></extensions></wpt><wpt lat="42.354672" lon="-123.218692"><name>Placer - prospect</name><desc>2 source record(s) merged within 75m | src: MILO, USMIN</desc><extensions><onx:icon>Mineral Site</onx:icon><onx:color>rgba(0, 0, 0, 1)</onx:color></extensions></wpt><wpt lat="42.347225" lon="-123.217809"><name>Placer - prospect</name><desc>2 source record(s) merged within 75m | src: MILO, USMIN</desc><extensions><onx:icon>Mineral Site</onx:icon><onx:color>rgba(0, 0, 0, 1)</onx:color></extensions></wpt><wpt lat="42.346771" lon="-123.219260"><name>Placer - prospect</name><desc>2 source record(s) merged within 75m | src: MILO, USMIN</desc><extensions><onx:icon>Mineral Site</onx:icon><onx:color>rgba(0, 0, 0, 1)</onx:color></extensions></wpt><wpt lat="42.354488" lon="-123.219749"><name>Placer - prospect</name><desc>2 source record(s) merged within 75m | src: MILO, USMIN</desc><extensions><onx:icon>Mineral Site</onx:icon><onx:color>rgba(0, 0, 0, 1)</onx:color></extensions></wpt><wpt lat="42.606936" lon="-123.239096"><name>Placer - Wimer</name><desc>2 source record(s) merged within 75m | src: MILO, USMIN</desc><extensions><onx:icon>Mineral Site</onx:icon><onx:color>rgba(0, 0, 0, 1)</onx:color></extensions></wpt><wpt lat="42.659076" lon="-123.199943"><name>Placer - King Mountain</name><desc>2 source record(s) merged within 75m | src: MILO, USMIN</desc><extensions><onx:icon>Mineral Site</onx:icon><onx:color>rgba(0, 0, 0, 1)</onx:color></extensions></wpt><wpt lat="42.616229" lon="-123.159769"><name>Placer - Pleasant Creek placers</name><desc>2 source record(s) merged within 75m | src: MILO, MRDS</desc><extensions><onx:icon>Mineral Site</onx:icon><onx:color>rgba(0, 0, 0, 1)</onx:color></extensions></wpt><wpt lat="42.594546" lon="-123.171981"><name>Placer - Telkamp placer</name><desc>2 source record(s) merged within 75m | src: MILO, MRDS</desc><extensions><onx:icon>Mineral Site</onx:icon><onx:color>rgba(0, 0, 0, 1)</onx:color></extensions></wpt><wpt lat="42.575939" lon="-123.197273"><name>Placer - Williams</name><desc>2 source record(s) merged within 75m | src: MILO, MRDS</desc><extensions><onx:icon>Mineral Site</onx:icon><onx:color>rgba(0, 0, 0, 1)</onx:color></extensions></wpt><wpt lat="42.413158" lon="-122.982260"><name>Placer - Mansfield</name><desc>2 source record(s) merged within 75m | src: MILO, MRDS</desc><extensions><onx:icon>Mineral Site</onx:icon><onx:color>rgba(0, 0, 0, 1)</onx:color></extensions></wpt><wpt lat="42.385947" lon="-122.981444"><name>Placer - Winchester-Housten</name><desc>2 source record(s) merged within 75m | src: MILO, MRDS</desc><extensions><onx:icon>Mineral Site</onx:icon><onx:color>rgba(0, 0, 0, 1)</onx:color></extensions></wpt><wpt lat="42.242629" lon="-123.173658"><name>Placer - Mee placer</name><desc>2 source record(s) merged within 75m | src: MILO, MRDS</desc><extensions><onx:icon>Mineral Site</onx:icon><onx:color>rgba(0, 0, 0, 1)</onx:color></extensions></wpt><wpt lat="42.221236" lon="-123.065049"><name>Placer - Hamilton-Taylor Ranch…</name><desc>2 source record(s) merged within 75m | src: MILO, MRDS</desc><extensions><onx:icon>Mineral Site</onx:icon><onx:color>rgba(0, 0, 0, 1)</onx:color></extensions></wpt><wpt lat="42.636515" lon="-123.415884"><name>Placer - Leland (SBK) placer</name><desc>2 source record(s) merged within 75m | src: MILO, MRDS</desc><extensions><onx:icon>Mineral Site</onx:icon><onx:color>rgba(0, 0, 0, 1)</onx:color></extensions></wpt><wpt lat="42.581226" lon="-123.593390"><name>Placer - Rocky Gulch placer</name><desc>2 source record(s) merged within 75m | src: MILO, MRDS</desc><extensions><onx:icon>Mineral Site</onx:icon><onx:color>rgba(0, 0, 0, 1)</onx:color></extensions></wpt><wpt lat="42.530939" lon="-123.407275"><name>Placer - Spradlinge</name><desc>2 source record(s) merged within 75m | src: MILO, MRDS</desc><extensions><onx:icon>Mineral Site</onx:icon><onx:color>rgba(0, 0, 0, 1)</onx:color></extensions></wpt><wpt lat="42.560121" lon="-123.278378"><name>Placer - Little Marvel</name><desc>2 source record(s) merged within 75m | src: MILO, MRDS</desc><extensions><onx:icon>Mineral Site</onx:icon><onx:color>rgba(0, 0, 0, 1)</onx:color></extensions></wpt><wpt lat="42.606756" lon="-123.240063"><name>Placer - placer mine</name><desc>2 source record(s) merged within 75m | src: MILO, MRDS</desc><extensions><onx:icon>Mineral Site</onx:icon><onx:color>rgba(0, 0, 0, 1)</onx:color></extensions></wpt><wpt lat="42.439017" lon="-123.263090"><name>Placer - Dry Diggins</name><desc>2 source record(s) merged within 75m | src: MILO, MRDS</desc><extensions><onx:icon>Mineral Site</onx:icon><onx:color>rgba(0, 0, 0, 1)</onx:color></extensions></wpt><wpt lat="42.300634" lon="-123.197559"><name>Placer - The B-H Co.</name><desc>2 source record(s) merged within 75m | src: MILO, MRDS</desc><extensions><onx:icon>Mineral Site</onx:icon><onx:color>rgba(0, 0, 0, 1)</onx:color></extensions></wpt><wpt lat="42.278141" lon="-123.002254"><name>Placer - Bishop and Sturtevant…</name><desc>2 source record(s) merged within 75m | src: MILO, MRDS</desc><extensions><onx:icon>Mineral Site</onx:icon><onx:color>rgba(0, 0, 0, 1)</onx:color></extensions></wpt><wpt lat="42.630739" lon="-123.435481"><name>Placer - Glendale</name><desc>1 source record(s) merged within 75m | src: USMIN</desc><extensions><onx:icon>Mineral Site</onx:icon><onx:color>rgba(0, 0, 0, 1)</onx:color></extensions></wpt><wpt lat="42.640087" lon="-123.487654"><name>Placer - Glendale</name><desc>1 source record(s) merged within 75m | src: USMIN</desc><extensions><onx:icon>Mineral Site</onx:icon><onx:color>rgba(0, 0, 0, 1)</onx:color></extensions></wpt><wpt lat="42.685669" lon="-123.351159"><name>Placer - Glendale</name><desc>1 source record(s) merged within 75m | src: USMIN</desc><extensions><onx:icon>Mineral Site</onx:icon><onx:color>rgba(0, 0, 0, 1)</onx:color></extensions></wpt><wpt lat="42.667753" lon="-123.203969"><name>Placer - King Mountain</name><desc>1 source record(s) merged within 75m | src: USMIN</desc><extensions><onx:icon>Mineral Site</onx:icon><onx:color>rgba(0, 0, 0, 1)</onx:color></extensions></wpt><wpt lat="42.668453" lon="-123.203864"><name>Placer - Neathamer</name><desc>1 source record(s) merged within 75m | src: MILO</desc><extensions><onx:icon>Mineral Site</onx:icon><onx:color>rgba(0, 0, 0, 1)</onx:color></extensions></wpt><wpt lat="42.609013" lon="-123.164236"><name>Placer - Porcupine placer</name><desc>1 source record(s) merged within 75m | src: MILO</desc><extensions><onx:icon>Mineral Site</onx:icon><onx:color>rgba(0, 0, 0, 1)</onx:color></extensions></wpt><wpt lat="42.622626" lon="-123.042011"><name>Placer - West Evans Creek copper</name><desc>1 source record(s) merged within 75m | src: MILO</desc><extensions><onx:icon>Mineral Site</onx:icon><onx:color>rgba(0, 0, 0, 1)</onx:color></extensions></wpt><wpt lat="42.539850" lon="-123.095621"><name>Placer - Lenhert placer</name><desc>1 source record(s) merged within 75m | src: MILO</desc><extensions><onx:icon>Mineral Site</onx:icon><onx:color>rgba(0, 0, 0, 1)</onx:color></extensions></wpt><wpt lat="42.511516" lon="-122.999510"><name>Placer - Iron Mountain placer</name><desc>1 source record(s) merged within 75m | src: MILO</desc><extensions><onx:icon>Mineral Site</onx:icon><onx:color>rgba(0, 0, 0, 1)</onx:color></extensions></wpt><wpt lat="42.421541" lon="-123.163101"><name>Placer - Bullfrog placer</name><desc>1 source record(s) merged within 75m | src: MILO</desc><extensions><onx:icon>Mineral Site</onx:icon><onx:color>rgba(0, 0, 0, 1)</onx:color></extensions></wpt><wpt lat="42.478737" lon="-123.117443"><name>Placer - Ward Creek placers</name><desc>1 source record(s) merged within 75m | src: MILO</desc><extensions><onx:icon>Mineral Site</onx:icon><onx:color>rgba(0, 0, 0, 1)</onx:color></extensions></wpt><wpt lat="42.463183" lon="-123.074783"><name>Placer - Sardine Creek placers</name><desc>1 source record(s) merged within 75m | src: MILO</desc><extensions><onx:icon>Mineral Site</onx:icon><onx:color>rgba(0, 0, 0, 1)</onx:color></extensions></wpt><wpt lat="42.470125" lon="-123.071476"><name>Placer - Vroman placer</name><desc>1 source record(s) merged within 75m | src: MILO</desc><extensions><onx:icon>Mineral Site</onx:icon><onx:color>rgba(0, 0, 0, 1)</onx:color></extensions></wpt><wpt lat="42.453709" lon="-123.003601"><name>Placer - GC and E placer claim</name><desc>1 source record(s) merged within 75m | src: MILO</desc><extensions><onx:icon>Mineral Site</onx:icon><onx:color>rgba(0, 0, 0, 1)</onx:color></extensions></wpt><wpt lat="42.438295" lon="-123.078671"><name>Placer - Gold Hill placer</name><desc>1 source record(s) merged within 75m | src: MILO</desc><extensions><onx:icon>Mineral Site</onx:icon><onx:color>rgba(0, 0, 0, 1)</onx:color></extensions></wpt><wpt lat="42.398739" lon="-123.022556"><name>Placer - Kane Creek placers</name><desc>1 source record(s) merged within 75m | src: MILO</desc><extensions><onx:icon>Mineral Site</onx:icon><onx:color>rgba(0, 0, 0, 1)</onx:color></extensions></wpt><wpt lat="42.387629" lon="-123.083396"><name>Placer - Schmidt prospect</name><desc>1 source record(s) merged within 75m | src: MILO</desc><extensions><onx:icon>Mineral Site</onx:icon><onx:color>rgba(0, 0, 0, 1)</onx:color></extensions></wpt><wpt lat="42.384848" lon="-123.057004"><name>Placer - Galls Creek placers</name><desc>1 source record(s) merged within 75m | src: MILO</desc><extensions><onx:icon>Mineral Site</onx:icon><onx:color>rgba(0, 0, 0, 1)</onx:color></extensions></wpt><wpt lat="42.429016" lon="-122.982562"><name>Placer - Old Fort Lane</name><desc>1 source record(s) merged within 75m | src: MILO</desc><extensions><onx:icon>Mineral Site</onx:icon><onx:color>rgba(0, 0, 0, 1)</onx:color></extensions></wpt><wpt lat="42.375409" lon="-122.992006"><name>Placer - Bailey gold Pocket</name><desc>1 source record(s) merged within 75m | src: MILO</desc><extensions><onx:icon>Mineral Site</onx:icon><onx:color>rgba(0, 0, 0, 1)</onx:color></extensions></wpt><wpt lat="42.366238" lon="-123.176180"><name>Placer - Hancock claims</name><desc>1 source record(s) merged within 75m | src: MILO</desc><extensions><onx:icon>Mineral Site</onx:icon><onx:color>rgba(0, 0, 0, 1)</onx:color></extensions></wpt><wpt lat="42.338740" lon="-123.154229"><name>Placer - Lance placer</name><desc>1 source record(s) merged within 75m | src: MILO</desc><extensions><onx:icon>Mineral Site</onx:icon><onx:color>rgba(0, 0, 0, 1)</onx:color></extensions></wpt><wpt lat="42.317072" lon="-123.162011"><name>Placer - Glen Ditch placer</name><desc>1 source record(s) merged within 75m | src: MILO</desc><extensions><onx:icon>Mineral Site</onx:icon><onx:color>rgba(0, 0, 0, 1)</onx:color></extensions></wpt><wpt lat="42.370980" lon="-123.122350"><name>Placer - Swacker Flat</name><desc>1 source record(s) merged within 75m | src: MILO</desc><extensions><onx:icon>Mineral Site</onx:icon><onx:color>rgba(0, 0, 0, 1)</onx:color></extensions></wpt><wpt lat="42.314575" lon="-123.103950"><name>Placer - Gold Dust placer</name><desc>1 source record(s) merged within 75m | src: MILO</desc><extensions><onx:icon>Mineral Site</onx:icon><onx:color>rgba(0, 0, 0, 1)</onx:color></extensions></wpt><wpt lat="42.315406" lon="-123.078114"><name>Placer - Foots Creek placers</name><desc>1 source record(s) merged within 75m | src: MILO</desc><extensions><onx:icon>Mineral Site</onx:icon><onx:color>rgba(0, 0, 0, 1)</onx:color></extensions></wpt><wpt lat="42.297352" lon="-123.081731"><name>Placer - Black's placer</name><desc>1 source record(s) merged within 75m | src: MILO</desc><extensions><onx:icon>Mineral Site</onx:icon><onx:color>rgba(0, 0, 0, 1)</onx:color></extensions></wpt><wpt lat="42.294574" lon="-123.068394"><name>Placer - Davies placer</name><desc>1 source record(s) merged within 75m | src: MILO</desc><extensions><onx:icon>Mineral Site</onx:icon><onx:color>rgba(0, 0, 0, 1)</onx:color></extensions></wpt><wpt lat="42.265923" lon="-123.031415"><name>Placer - Forest Creek placers</name><desc>1 source record(s) merged within 75m | src: MILO</desc><extensions><onx:icon>Mineral Site</onx:icon><onx:color>rgba(0, 0, 0, 1)</onx:color></extensions></wpt><wpt lat="42.316476" lon="-122.976898"><name>Placer - Jacksonville placer 5</name><desc>1 source record(s) merged within 75m | src: MILO</desc><extensions><onx:icon>Mineral Site</onx:icon><onx:color>rgba(0, 0, 0, 1)</onx:color></extensions></wpt><wpt lat="42.248739" lon="-123.208956"><name>Placer - Layton Mine</name><desc>1 source record(s) merged within 75m | src: MILO</desc><extensions><onx:icon>Mineral Site</onx:icon><onx:color>rgba(0, 0, 0, 1)</onx:color></extensions></wpt><wpt lat="42.235681" lon="-123.182840"><name>Placer - Thompson Creek placers</name><desc>1 source record(s) merged within 75m | src: MILO</desc><extensions><onx:icon>Mineral Site</onx:icon><onx:color>rgba(0, 0, 0, 1)</onx:color></extensions></wpt><wpt lat="42.236521" lon="-122.987830"><name>Placer - Williams Dredge</name><desc>1 source record(s) merged within 75m | src: MILO</desc><extensions><onx:icon>Mineral Site</onx:icon><onx:color>rgba(0, 0, 0, 1)</onx:color></extensions></wpt><wpt lat="42.155968" lon="-122.974501"><name>Placer - Little Applegate place…</name><desc>1 source record(s) merged within 75m | src: MILO</desc><extensions><onx:icon>Mineral Site</onx:icon><onx:color>rgba(0, 0, 0, 1)</onx:color></extensions></wpt><wpt lat="42.166244" lon="-122.951444"><name>Placer - Max claim</name><desc>1 source record(s) merged within 75m | src: MILO</desc><extensions><onx:icon>Mineral Site</onx:icon><onx:color>rgba(0, 0, 0, 1)</onx:color></extensions></wpt><wpt lat="42.660435" lon="-123.527687"><name>Placer - Goff placer</name><desc>1 source record(s) merged within 75m | src: MILO</desc><extensions><onx:icon>Mineral Site</onx:icon><onx:color>rgba(0, 0, 0, 1)</onx:color></extensions></wpt><wpt lat="42.679646" lon="-123.257245"><name>Placer - Meathead</name><desc>1 source record(s) merged within 75m | src: MILO</desc><extensions><onx:icon>Mineral Site</onx:icon><onx:color>rgba(0, 0, 0, 1)</onx:color></extensions></wpt><wpt lat="42.642066" lon="-123.503136"><name>Placer - Lower Grave Creek plac…</name><desc>1 source record(s) merged within 75m | src: MILO</desc><extensions><onx:icon>Mineral Site</onx:icon><onx:color>rgba(0, 0, 0, 1)</onx:color></extensions></wpt><wpt lat="42.626231" lon="-123.597029"><name>Placer - Scandinavian-American…</name><desc>1 source record(s) merged within 75m | src: MILO</desc><extensions><onx:icon>Mineral Site</onx:icon><onx:color>rgba(0, 0, 0, 1)</onx:color></extensions></wpt><wpt lat="42.649951" lon="-123.456729"><name>Placer - Lewis placer</name><desc>1 source record(s) merged within 75m | src: MILO</desc><extensions><onx:icon>Mineral Site</onx:icon><onx:color>rgba(0, 0, 0, 1)</onx:color></extensions></wpt><wpt lat="42.635679" lon="-123.407859"><name>Placer - Grave Creek placer</name><desc>1 source record(s) merged within 75m | src: MILO</desc><extensions><onx:icon>Mineral Site</onx:icon><onx:color>rgba(0, 0, 0, 1)</onx:color></extensions></wpt><wpt lat="42.644291" lon="-123.316188"><name>Placer - Columbia</name><desc>1 source record(s) merged within 75m | src: MILO</desc><extensions><onx:icon>Mineral Site</onx:icon><onx:color>rgba(0, 0, 0, 1)</onx:color></extensions></wpt><wpt lat="42.591133" lon="-123.648288"><name>Placer - gold placer</name><desc>1 source record(s) merged within 75m | src: MILO</desc><extensions><onx:icon>Mineral Site</onx:icon><onx:color>rgba(0, 0, 0, 1)</onx:color></extensions></wpt><wpt lat="42.540674" lon="-123.635084"><name>Placer - Fowler Group</name><desc>1 source record(s) merged within 75m | src: MILO</desc><extensions><onx:icon>Mineral Site</onx:icon><onx:color>rgba(0, 0, 0, 1)</onx:color></extensions></wpt><wpt lat="42.604841" lon="-123.580365"><name>Placer - Rand placer</name><desc>1 source record(s) merged within 75m | src: MILO</desc><extensions><onx:icon>Mineral Site</onx:icon><onx:color>rgba(0, 0, 0, 1)</onx:color></extensions></wpt><wpt lat="42.586786" lon="-123.606749"><name>Placer - gold prospect</name><desc>1 source record(s) merged within 75m | src: MILO</desc><extensions><onx:icon>Mineral Site</onx:icon><onx:color>rgba(0, 0, 0, 1)</onx:color></extensions></wpt><wpt lat="42.571786" lon="-123.598699"><name>Placer - Sordy placer</name><desc>1 source record(s) merged within 75m | src: MILO</desc><extensions><onx:icon>Mineral Site</onx:icon><onx:color>rgba(0, 0, 0, 1)</onx:color></extensions></wpt><wpt lat="42.564008" lon="-123.604529"><name>Placer - J D placer</name><desc>1 source record(s) merged within 75m | src: MILO</desc><extensions><onx:icon>Mineral Site</onx:icon><onx:color>rgba(0, 0, 0, 1)</onx:color></extensions></wpt><wpt lat="42.555952" lon="-123.542582"><name>Placer - Stratton Creek placer</name><desc>1 source record(s) merged within 75m | src: MILO</desc><extensions><onx:icon>Mineral Site</onx:icon><onx:color>rgba(0, 0, 0, 1)</onx:color></extensions></wpt><wpt lat="42.539565" lon="-123.506471"><name>Placer - Hellgate placer</name><desc>1 source record(s) merged within 75m | src: MILO</desc><extensions><onx:icon>Mineral Site</onx:icon><onx:color>rgba(0, 0, 0, 1)</onx:color></extensions></wpt><wpt lat="42.619843" lon="-123.440078"><name>Placer - Stovepipe Mine</name><desc>1 source record(s) merged within 75m | src: MILO</desc><extensions><onx:icon>Mineral Site</onx:icon><onx:color>rgba(0, 0, 0, 1)</onx:color></extensions></wpt><wpt lat="42.595681" lon="-123.253961"><name>Placer - Chapin</name><desc>1 source record(s) merged within 75m | src: MILO</desc><extensions><onx:icon>Mineral Site</onx:icon><onx:color>rgba(0, 0, 0, 1)</onx:color></extensions></wpt><wpt lat="42.572623" lon="-123.319797"><name>Placer - Swastika Mining Co.</name><desc>1 source record(s) merged within 75m | src: MILO</desc><extensions><onx:icon>Mineral Site</onx:icon><onx:color>rgba(0, 0, 0, 1)</onx:color></extensions></wpt><wpt lat="42.497403" lon="-123.489100"><name>Placer - Big Four placer</name><desc>1 source record(s) merged within 75m | src: MILO</desc><extensions><onx:icon>Mineral Site</onx:icon><onx:color>rgba(0, 0, 0, 1)</onx:color></extensions></wpt><wpt lat="42.477727" lon="-123.500885"><name>Placer - Flanagan</name><desc>1 source record(s) merged within 75m | src: MILO</desc><extensions><onx:icon>Mineral Site</onx:icon><onx:color>rgba(0, 0, 0, 1)</onx:color></extensions></wpt><wpt lat="42.484576" lon="-123.270054"><name>Placer - Granite Hill placer</name><desc>1 source record(s) merged within 75m | src: MILO</desc><extensions><onx:icon>Mineral Site</onx:icon><onx:color>rgba(0, 0, 0, 1)</onx:color></extensions></wpt><wpt lat="42.488181" lon="-123.271463"><name>Placer - Red Jacket Mine</name><desc>1 source record(s) merged within 75m | src: MILO</desc><extensions><onx:icon>Mineral Site</onx:icon><onx:color>rgba(0, 0, 0, 1)</onx:color></extensions></wpt><wpt lat="42.336791" lon="-123.280348"><name>Placer - Oscar Creek placer</name><desc>1 source record(s) merged within 75m | src: MILO</desc><extensions><onx:icon>Mineral Site</onx:icon><onx:color>rgba(0, 0, 0, 1)</onx:color></extensions></wpt><wpt lat="42.319015" lon="-123.243954"><name>Placer - Murphy placer</name><desc>1 source record(s) merged within 75m | src: MILO</desc><extensions><onx:icon>Mineral Site</onx:icon><onx:color>rgba(0, 0, 0, 1)</onx:color></extensions></wpt><wpt lat="42.245681" lon="-123.291181"><name>Placer - Horsehead placer</name><desc>1 source record(s) merged within 75m | src: MILO</desc><extensions><onx:icon>Mineral Site</onx:icon><onx:color>rgba(0, 0, 0, 1)</onx:color></extensions></wpt><wpt lat="42.578451" lon="-123.634807"><name>Placer - gold prospect</name><desc>1 source record(s) merged within 75m | src: MILO</desc><extensions><onx:icon>Mineral Site</onx:icon><onx:color>rgba(0, 0, 0, 1)</onx:color></extensions></wpt><wpt lat="42.382049" lon="-123.140375"><name>Placer - Bishop and Sturtevant…</name><desc>1 source record(s) merged within 75m | src: MILO</desc><extensions><onx:icon>Mineral Site</onx:icon><onx:color>rgba(0, 0, 0, 1)</onx:color></extensions></wpt><wpt lat="42.379849" lon="-123.140376"><name>Placer - Rogue River gold Minin…</name><desc>1 source record(s) merged within 75m | src: MILO</desc><extensions><onx:icon>Mineral Site</onx:icon><onx:color>rgba(0, 0, 0, 1)</onx:color></extensions></wpt><wpt lat="42.453749" lon="-123.119476"><name>Placer - Duncan and Williams Wa…</name><desc>1 source record(s) merged within 75m | src: MILO</desc><extensions><onx:icon>Mineral Site</onx:icon><onx:color>rgba(0, 0, 0, 1)</onx:color></extensions></wpt><wpt lat="42.310148" lon="-123.197277"><name>Placer - Orth Placer</name><desc>1 source record(s) merged within 75m | src: MILO</desc><extensions><onx:icon>Mineral Site</onx:icon><onx:color>rgba(0, 0, 0, 1)</onx:color></extensions></wpt><wpt lat="42.252650" lon="-123.155575"><name>Placer - Kubli Ranch</name><desc>1 source record(s) merged within 75m | src: MILO</desc><extensions><onx:icon>Mineral Site</onx:icon><onx:color>rgba(0, 0, 0, 1)</onx:color></extensions></wpt><wpt lat="42.332072" lon="-123.029500"><name>Placer - Norling</name><desc>1 source record(s) merged within 75m | src: MILO</desc><extensions><onx:icon>Mineral Site</onx:icon><onx:color>rgba(0, 0, 0, 1)</onx:color></extensions></wpt><wpt lat="42.283452" lon="-123.046769"><name>Placer - Christine-Dobbins Plac…</name><desc>1 source record(s) merged within 75m | src: MILO</desc><extensions><onx:icon>Mineral Site</onx:icon><onx:color>rgba(0, 0, 0, 1)</onx:color></extensions></wpt><wpt lat="42.274252" lon="-123.017568"><name>Placer - Pearce Mine</name><desc>1 source record(s) merged within 75m | src: MILO</desc><extensions><onx:icon>Mineral Site</onx:icon><onx:color>rgba(0, 0, 0, 1)</onx:color></extensions></wpt><wpt lat="42.281552" lon="-123.032569"><name>Placer - Forest Creek Placers</name><desc>1 source record(s) merged within 75m | src: MILO</desc><extensions><onx:icon>Mineral Site</onx:icon><onx:color>rgba(0, 0, 0, 1)</onx:color></extensions></wpt><wpt lat="42.302052" lon="-122.988967"><name>Placer - Sprague Placer</name><desc>1 source record(s) merged within 75m | src: MILO</desc><extensions><onx:icon>Mineral Site</onx:icon><onx:color>rgba(0, 0, 0, 1)</onx:color></extensions></wpt><wpt lat="42.161556" lon="-122.888663"><name>Placer - Merrick Mine</name><desc>1 source record(s) merged within 75m | src: MILO</desc><extensions><onx:icon>Mineral Site</onx:icon><onx:color>rgba(0, 0, 0, 1)</onx:color></extensions></wpt><wpt lat="42.152946" lon="-123.346782"><name>Placer - Iron Mine</name><desc>1 source record(s) merged within 75m | src: MILO</desc><extensions><onx:icon>Mineral Site</onx:icon><onx:color>rgba(0, 0, 0, 1)</onx:color></extensions></wpt><wpt lat="42.447629" lon="-123.010287"><name>Adit - Gold Hill</name><desc>13 source record(s) merged within 75m | src: MILO, USMIN</desc><extensions><onx:icon>Location</onx:icon><onx:color>rgba(0, 0, 0, 1)</onx:color></extensions></wpt><wpt lat="42.672600" lon="-123.229145"><name>Shaft - King Mountain</name><desc>13 source record(s) merged within 75m | src: MILO, USMIN</desc><extensions><onx:icon>Location</onx:icon><onx:color>rgba(0, 0, 0, 1)</onx:color></extensions></wpt><wpt lat="42.355361" lon="-123.101575"><name>Adit - Mt. Isabelle</name><desc>10 source record(s) merged within 75m | src: MILO, USMIN</desc><extensions><onx:icon>Location</onx:icon><onx:color>rgba(0, 0, 0, 1)</onx:color></extensions></wpt><wpt lat="42.696253" lon="-123.203944"><name>Shaft - King Mountain</name><desc>9 source record(s) merged within 75m | src: MILO, USMIN</desc><extensions><onx:icon>Location</onx:icon><onx:color>rgba(0, 0, 0, 1)</onx:color></extensions></wpt><wpt lat="42.664730" lon="-123.638975"><name>Adit - Bunker Creek</name><desc>9 source record(s) merged within 75m | src: MILO, USMIN</desc><extensions><onx:icon>Location</onx:icon><onx:color>rgba(0, 0, 0, 1)</onx:color></extensions></wpt><wpt lat="42.273802" lon="-123.153074"><name>Shaft - Applegate</name><desc>9 source record(s) merged within 75m | src: MILO, USMIN</desc><extensions><onx:icon>Location</onx:icon><onx:color>rgba(0, 0, 0, 1)</onx:color></extensions></wpt><wpt lat="42.619786" lon="-123.395361"><name>Adit - Merlin</name><desc>9 source record(s) merged within 75m | src: MILO, USMIN</desc><extensions><onx:icon>Location</onx:icon><onx:color>rgba(0, 0, 0, 1)</onx:color></extensions></wpt><wpt lat="42.351953" lon="-123.214208"><name>Adit - Applegate</name><desc>8 source record(s) merged within 75m | src: MILO, USMIN</desc><extensions><onx:icon>Location</onx:icon><onx:color>rgba(0, 0, 0, 1)</onx:color></extensions></wpt><wpt lat="42.291074" lon="-123.098268"><name>Adit - Mt. Isabelle</name><desc>8 source record(s) merged within 75m | src: MILO, USMIN</desc><extensions><onx:icon>Location</onx:icon><onx:color>rgba(0, 0, 0, 1)</onx:color></extensions></wpt><wpt lat="42.678941" lon="-123.304908"><name>Shaft - Golden</name><desc>7 source record(s) merged within 75m | src: MILO, USMIN</desc><extensions><onx:icon>Location</onx:icon><onx:color>rgba(0, 0, 0, 1)</onx:color></extensions></wpt><wpt lat="42.699500" lon="-123.278420"><name>Adit - Golden</name><desc>7 source record(s) merged within 75m | src: MILO, USMIN</desc><extensions><onx:icon>Location</onx:icon><onx:color>rgba(0, 0, 0, 1)</onx:color></extensions></wpt><wpt lat="42.696195" lon="-123.205159"><name>Adit - King Mountain</name><desc>6 source record(s) merged within 75m | src: MILO, USMIN</desc><extensions><onx:icon>Location</onx:icon><onx:color>rgba(0, 0, 0, 1)</onx:color></extensions></wpt><wpt lat="42.676692" lon="-123.612178"><name>Adit - Mount Reuben</name><desc>6 source record(s) merged within 75m | src: MILO, USMIN</desc><extensions><onx:icon>Location</onx:icon><onx:color>rgba(0, 0, 0, 1)</onx:color></extensions></wpt><wpt lat="42.559959" lon="-123.640474"><name>Adit - Mount Peavine</name><desc>6 source record(s) merged within 75m | src: MILO, USMIN</desc><extensions><onx:icon>Location</onx:icon><onx:color>rgba(0, 0, 0, 1)</onx:color></extensions></wpt><wpt lat="42.501149" lon="-123.090187"><name>Shaft - Mc Conville Peak</name><desc>6 source record(s) merged within 75m | src: MILO, USMIN</desc><extensions><onx:icon>Location</onx:icon><onx:color>rgba(0, 0, 0, 1)</onx:color></extensions></wpt><wpt lat="42.381332" lon="-123.084660"><name>Shaft - Gold Hill</name><desc>6 source record(s) merged within 75m | src: MILO, USMIN</desc><extensions><onx:icon>Location</onx:icon><onx:color>rgba(0, 0, 0, 1)</onx:color></extensions></wpt><wpt lat="42.693914" lon="-123.273825"><name>Adit - Golden</name><desc>6 source record(s) merged within 75m | src: MILO, USMIN</desc><extensions><onx:icon>Location</onx:icon><onx:color>rgba(0, 0, 0, 1)</onx:color></extensions></wpt><wpt lat="42.645000" lon="-123.312658"><name>Adit - Golden</name><desc>6 source record(s) merged within 75m | src: MILO, USMIN</desc><extensions><onx:icon>Location</onx:icon><onx:color>rgba(0, 0, 0, 1)</onx:color></extensions></wpt><wpt lat="42.675585" lon="-123.302974"><name>Adit - Golden</name><desc>6 source record(s) merged within 75m | src: MILO, MRDS, USMIN</desc><extensions><onx:icon>Location</onx:icon><onx:color>rgba(0, 0, 0, 1)</onx:color></extensions></wpt><wpt lat="42.620325" lon="-123.394004"><name>Adit - Glendale</name><desc>6 source record(s) merged within 75m | src: MILO, USMIN</desc><extensions><onx:icon>Location</onx:icon><onx:color>rgba(0, 0, 0, 1)</onx:color></extensions></wpt><wpt lat="42.691078" lon="-123.606663"><name>Adit - Mount Reuben</name><desc>5 source record(s) merged within 75m | src: MILO, USMIN</desc><extensions><onx:icon>Location</onx:icon><onx:color>rgba(0, 0, 0, 1)</onx:color></extensions></wpt><wpt lat="42.426083" lon="-122.989474"><name>Shaft - Sams Valley</name><desc>5 source record(s) merged within 75m | src: MILO, USMIN</desc><extensions><onx:icon>Location</onx:icon><onx:color>rgba(0, 0, 0, 1)</onx:color></extensions></wpt><wpt lat="42.403204" lon="-122.996247"><name>Shaft - Sams Valley</name><desc>5 source record(s) merged within 75m | src: MILO, USMIN</desc><extensions><onx:icon>Location</onx:icon><onx:color>rgba(0, 0, 0, 1)</onx:color></extensions></wpt></gpx>