<?xml version="1.0" encoding="UTF-8"?>
<gpx xmlns:xsi="http://www.w3.org/2001/XMLSchema-instance" xmlns="http://www.topografix.com/GPX/1/1" xmlns:onx="http://www.onxmaps.com" xsi:schemaLocation="http://www.topografix.com/GPX/1/1 http://www.topografix.com/GPX/1/1/gpx.xsd" version="1.1" creator="onXmaps hunt ios"><wpt lat="42.354490" lon="-123.219756"><name>SCOUT 1 - Placer bench</name><desc>prospect (placer (heuristic: surface workings)) | agency: BLM | 51m to stream | cluster: 6 nearby | src: MILO</desc><extensions><onx:icon>Location</onx:icon><onx:color>rgba(255, 51, 0, 1)</onx:color></extensions></wpt><wpt lat="42.347228" lon="-123.217816"><name>SCOUT 2 - Placer bench</name><desc>prospect (placer (heuristic: surface workings)) | agency: BLM | 0m to stream | cluster: 3 nearby | src: MILO</desc><extensions><onx:icon>Location</onx:icon><onx:color>rgba(255, 51, 0, 1)</onx:color></extensions></wpt><wpt lat="42.551507" lon="-123.625364"><name>SCOUT 3 - Placer bench</name><desc>Liepold placer (placer) | agency: BLM | 8m to stream | cluster: 2 nearby | src: MILO</desc><extensions><onx:icon>Location</onx:icon><onx:color>rgba(255, 51, 0, 1)</onx:color></extensions></wpt><wpt lat="42.626231" lon="-123.597029"><name>SCOUT 4 - Placer bench</name><desc>Scandinavian-American placer (placer) | agency: BLM | 19m to stream | cluster: 1 nearby | src: MILO</desc><extensions><onx:icon>Location</onx:icon><onx:color>rgba(255, 51, 0, 1)</onx:color></extensions></wpt><wpt lat="42.657513" lon="-123.522343"><name>SCOUT 5 - Placer bench</name><desc>Vindicator placer (placer) | agency: BLM | 30m to stream | cluster: 1 nearby | src: MILO</desc><extensions><onx:icon>Location</onx:icon><onx:color>rgba(255, 51, 0, 1)</onx:color></extensions></wpt><wpt lat="42.571786" lon="-123.598699"><name>SCOUT 6 - Placer bench</name><desc>Sordy placer (placer) | agency: BLM | 2m to stream | cluster: 0 nearby | src: MILO</desc><extensions><onx:icon>Location</onx:icon><onx:color>rgba(255, 51, 0, 1)</onx:color></extensions></wpt><wpt lat="42.539565" lon="-123.506471"><name>SCOUT 7 - Placer bench</name><desc>Hellgate placer (placer) | agency: BLM | 34m to stream | cluster: 0 nearby | src: MILO</desc><extensions><onx:icon>Location</onx:icon><onx:color>rgba(255, 51, 0, 1)</onx:color></extensions></wpt><wpt lat="42.366238" lon="-123.176180"><name>SCOUT 8 - Placer bench</name><desc>Hancock claims (placer (heuristic: surface workings)) | agency: BLM | 45m to stream | cluster: 0 nearby | src: MILO</desc><extensions><onx:icon>Location</onx:icon><onx:color>rgba(255, 51, 0, 1)</onx:color></extensions></wpt><wpt lat="42.595681" lon="-123.253961"><name>SCOUT 9 - Placer bench</name><desc>Chapin (placer (heuristic: surface workings)) | agency: BLM | 46m to stream | cluster: 0 nearby | src: MILO</desc><extensions><onx:icon>Location</onx:icon><onx:color>rgba(255, 51, 0, 1)</onx:color></extensions></wpt><wpt lat="42.555952" lon="-123.542582"><name>SCOUT 10 - Placer bench</name><desc>Stratton Creek placer (placer) | agency: BLM | 59m to stream | cluster: 0 nearby | src: MILO</desc><extensions><onx:icon>Location</onx:icon><onx:color>rgba(255, 51, 0, 1)</onx:color></extensions></wpt></gpx>