{"type": "FeatureCollection", "features": [{"type": "Feature", "geometry": {"type": "Point", "coordinates": [-124.3127, 42.805]}, "properties": {"title": "Sixes River Campground (rec mining)", "description": "public panning site | precision: published | status: unconfirmed-green, using black (no confirmed onX green)", "marker-color": "#000000", "marker-symbol": "circle"}}, {"type": "Feature", "geometry": {"type": "Polygon", "coordinates": [[[-124.23694397893713, 42.76197979461779], [-124.23688437454797, 42.76558075384092], [-124.23682477115898, 42.76918171206402], [-124.23684702978218, 42.77278413827956], [-124.23685864822015, 42.775318779431494], [-124.2368612334057, 42.77639441049626], [-124.23196096270276, 42.77640838095496], [-124.22706069099961, 42.77642235141366], [-124.22705719837774, 42.77281240519581], [-124.22705370575595, 42.76920245897797], [-124.22708511314012, 42.76559691275707], [-124.22711649852444, 42.76199136753618], [-124.23203025023085, 42.761985592076975], [-124.23694397893713, 42.76197979461779]]]}, "properties": {"title": "BLUE JAY", "description": "lode | serial ORMC152162 | 20.66 ac | Active | qtr-sec OR 33 0320S 0130W 022 A SW|OR 33 0320S 0130W 027 A NW | recorded~2021 (DB date, not legal located date) | src: BLM MLRS Not Closed | boundary approx (BLM quarter-section) | do not dig here (active claim)", "stroke": "#ff3300", "stroke-width": 2, "fill": "#ff3300", "fill-opacity": 0.05, "stroke-dasharray": "1,6"}}, {"type": "Feature", "geometry": {"type": "Polygon", "coordinates": [[[-124.20740731416647, 42.77640898824897], [-124.20738798978864, 42.78003881847035], [-124.20736871241093, 42.78366862469167], [-124.20734941103345, 42.78729843191295], [-124.20734247325693, 42.78860153799243], [-124.20391080476412, 42.78861148031373], [-124.20246983955712, 42.78861564844868], [-124.2, 42.78862279677094], [-124.2, 42.776377827845145], [-124.20250948845712, 42.77638840670529], [-124.20740731416647, 42.77640898824897]]]}, "properties": {"title": "TATTOOED COYOTE", "description": "lode | serial ORMC158982 | 20.66 ac | Active | qtr-sec OR 33 0320S 0130W 023 A NE | recorded~2021 (DB date, not legal located date) | src: BLM MLRS Not Closed | boundary approx (BLM quarter-section) | do not dig here (active claim)", "stroke": "#ff3300", "stroke-width": 2, "fill": "#ff3300", "fill-opacity": 0.05, "stroke-dasharray": "1,6"}}, {"type": "Feature", "geometry": {"type": "Polygon", "coordinates": [[[-124.22227548406876, 42.76920739542457], [-124.2221526200511, 42.76920739543604], [-124.21725225534621, 42.76921261089409], [-124.21728210373023, 42.765607367673205], [-124.21731192911446, 42.762002101452346], [-124.22221422481955, 42.76199674599424], [-124.22711649852444, 42.76199136753618], [-124.22708511314012, 42.76559691275707], [-124.22705370575595, 42.76920245897797], [-124.22227548406876, 42.76920739542457]]]}, "properties": {"title": "RUSTY NUGGET", "description": "lode | serial ORMC159457 | 20.66 ac | Active | qtr-sec OR 33 0320S 0130W 022 A SW|OR 33 0320S 0130W 027 A NE | recorded~2021 (DB date, not legal located date) | src: BLM MLRS Not Closed | boundary approx (BLM quarter-section) | do not dig here (active claim)", "stroke": "#ff3300", "stroke-width": 2, "fill": "#ff3300", "fill-opacity": 0.05, "stroke-dasharray": "1,6"}}, {"type": "Feature", "geometry": {"type": "Polygon", "coordinates": [[[-124.25610501915426, 42.805282942439106], [-124.26101837586378, 42.80529903098041], [-124.26593175457323, 42.805315095521664], [-124.26589589918862, 42.80891046674136], [-124.26586002080413, 42.812505860961046], [-124.26093621109554, 42.81250346342174], [-124.25601240038678, 42.81250106488241], [-124.25605870977043, 42.80889200366074], [-124.25610501915426, 42.805282942439106]]]}, "properties": {"title": "RM Sixes", "description": "placer | serial OR105222736 | 20.0 ac | Active | qtr-sec OR 33 0320S 0130W 008 A NENE|OR 33 0320S 0130W 008 A SENE|OR 33 0320S 0130W 008 A NWNE|OR 33 0320S 0130W 008 A SWNE | recorded~2021 (DB date, not legal located date) | src: BLM MLRS Not Closed | boundary approx (BLM quarter-section) | do not dig here (active claim)", "stroke": "#ff3300", "stroke-width": 2, "fill": "#ff3300", "fill-opacity": 0.05, "stroke-dasharray": "1,6"}}, {"type": "Feature", "geometry": {"type": "Polygon", "coordinates": [[[-124.25634320147356, 42.78373695611851], [-124.26124291417811, 42.78373604766051], [-124.26509772873233, 42.78373527930011], [-124.26614253288251, 42.78373506920244], [-124.26610753850215, 42.78736038242409], [-124.26607252212199, 42.790985718645715], [-124.2611573964115, 42.79096439210407], [-124.25624224770087, 42.79094306556236], [-124.25629272508714, 42.787340010340515], [-124.25634320147356, 42.78373695611851]]]}, "properties": {"title": "Hankie 2", "description": "placer | serial OR105789379 | 20.0 ac | Active | qtr-sec OR 33 0320S 0130W 017 A SE|OR 33 0320S 0130W 017 A SWSE|OR 33 0320S 0130W 017 A NESE|OR 33 0320S 0130W 017 A SESE|OR 33 0320S 0130W 017 A NWSE | recorded~2022 (DB date, not legal located date) | src: BLM MLRS Not Closed | boundary approx (BLM quarter-section) | do not dig here (active claim)", "stroke": "#ff3300", "stroke-width": 2, "fill": "#ff3300", "fill-opacity": 0.05, "stroke-dasharray": "1,6"}}, {"type": "Feature", "geometry": {"type": "Polygon", "coordinates": [[[-124.27504925866211, 42.769213257495025], [-124.27506758415939, 42.78369909636591], [-124.26614253288251, 42.78373506920244], [-124.26509772873233, 42.78373527930011], [-124.26124291417811, 42.78373604766051], [-124.25634320147356, 42.78373695611851], [-124.25586546715404, 42.776475107725304], [-124.25588532915694, 42.776475087723426], [-124.25538773183526, 42.7692132593319], [-124.27504925866211, 42.769213257495025]]]}, "properties": {"title": "Jak 3", "description": "placer | serial OR105789380 | 20.0 ac | Active | qtr-sec OR 33 0320S 0130W 020 A NE|OR 33 0320S 0130W 020 A Unsurveyed Protracted PB40 | recorded~2022 (DB date, not legal located date) | src: BLM MLRS Not Closed | boundary approx (BLM quarter-section) | do not dig here (active claim)", "stroke": "#ff3300", "stroke-width": 2, "fill": "#ff3300", "fill-opacity": 0.05, "stroke-dasharray": "1,6"}}, {"type": "Feature", "geometry": {"type": "Polygon", "coordinates": [[[-124.21731192911446, 42.762002101452346], [-124.21241696640764, 42.761991950908765], [-124.20752200470073, 42.76198179936516], [-124.20754540308486, 42.758380468144956], [-124.20756880146918, 42.75477913692469], [-124.21247021317637, 42.75478537646757], [-124.21737160188336, 42.75479159201046], [-124.21734175349883, 42.758396858231386], [-124.21731192911446, 42.762002101452346]]]}, "properties": {"title": "Big Trigger Dog", "description": "placer | serial OR105824636 | 60.0 ac | Filed | qtr-sec OR 33 0320S 0130W 026 A SW | recorded~2023 (DB date, not legal located date) | src: BLM MLRS Not Closed | boundary approx (BLM quarter-section) | do not dig here (active claim)", "stroke": "#ff3300", "stroke-width": 2, "fill": "#ff3300", "fill-opacity": 0.05, "stroke-dasharray": "1,6"}}, {"type": "Feature", "geometry": {"type": "Polygon", "coordinates": [[[-124.2463654227804, 42.776434767610596], [-124.24662445306346, 42.78366810902284], [-124.23690570465294, 42.78359926192707], [-124.2368612334057, 42.77639441049626], [-124.2463654227804, 42.776434767610596]]]}, "properties": {"title": "2 SVINOR", "description": "placer | serial ORMC155518 | 20.0 ac | Active | qtr-sec OR 33 0320S 0130W 021 A NE | recorded~2021 (DB date, not legal located date) | src: BLM MLRS Not Closed | boundary approx (BLM quarter-section) | do not dig here (active claim)", "stroke": "#ff3300", "stroke-width": 2, "fill": "#ff3300", "fill-opacity": 0.05, "stroke-dasharray": "1,6"}}, {"type": "Feature", "geometry": {"type": "Polygon", "coordinates": [[[-124.2463654227804, 42.776434767610596], [-124.24662445306346, 42.78366810902284], [-124.23690570465294, 42.78359926192707], [-124.2368612334057, 42.77639441049626], [-124.2463654227804, 42.776434767610596]]]}, "properties": {"title": "3 JAR L", "description": "placer | serial ORMC155519 | 20.0 ac | Active | qtr-sec OR 33 0320S 0130W 021 A NE | recorded~2021 (DB date, not legal located date) | src: BLM MLRS Not Closed | boundary approx (BLM quarter-section) | do not dig here (active claim)", "stroke": "#ff3300", "stroke-width": 2, "fill": "#ff3300", "fill-opacity": 0.05, "stroke-dasharray": "1,6"}}, {"type": "Feature", "geometry": {"type": "Polygon", "coordinates": [[[-124.22221422481955, 42.76199674599424], [-124.22711649852444, 42.76199136753618], [-124.22708511314012, 42.76559691275707], [-124.22705370575595, 42.76920245897797], [-124.22705719837774, 42.77281240519581], [-124.22706069099961, 42.77642235141366], [-124.2221449602941, 42.776435948873704], [-124.21722922958845, 42.77644954633382], [-124.21724075396723, 42.77283107911395], [-124.21725225534621, 42.76921261089409], [-124.21728210373023, 42.765607367673205], [-124.21731192911446, 42.762002101452346], [-124.22221422481955, 42.76199674599424]]]}, "properties": {"title": "JDL", "description": "placer | serial ORMC155572 | 50.0 ac | Active | qtr-sec OR 33 0320S 0130W 022 A SE|OR 33 0320S 0130W 027 A NE | recorded~2021 (DB date, not legal located date) | src: BLM MLRS Not Closed | boundary approx (BLM quarter-section) | do not dig here (active claim)", "stroke": "#ff3300", "stroke-width": 2, "fill": "#ff3300", "fill-opacity": 0.05, "stroke-dasharray": "1,6"}}, {"type": "Feature", "geometry": {"type": "Polygon", "coordinates": [[[-124.22221422481955, 42.76199674599424], [-124.22711649852444, 42.76199136753618], [-124.22708511314012, 42.76559691275707], [-124.22705370575595, 42.76920245897797], [-124.22705719837774, 42.77281240519581], [-124.22706069099961, 42.77642235141366], [-124.2221449602941, 42.776435948873704], [-124.21722922958845, 42.77644954633382], [-124.21724075396723, 42.77283107911395], [-124.21725225534621, 42.76921261089409], [-124.21728210373023, 42.765607367673205], [-124.21731192911446, 42.762002101452346], [-124.22221422481955, 42.76199674599424]]]}, "properties": {"title": "POVERTY PASS", "description": "placer | serial ORMC155648 | 40.0 ac | Active | qtr-sec OR 33 0320S 0130W 022 A SE|OR 33 0320S 0130W 027 A NE | recorded~2021 (DB date, not legal located date) | src: BLM MLRS Not Closed | boundary approx (BLM quarter-section) | do not dig here (active claim)", "stroke": "#ff3300", "stroke-width": 2, "fill": "#ff3300", "fill-opacity": 0.05, "stroke-dasharray": "1,6"}}, {"type": "Feature", "geometry": {"type": "Polygon", "coordinates": [[[-124.22227548158793, 42.75478202255208], [-124.22717936129233, 42.75477245209376], [-124.22714792990831, 42.75838191031501], [-124.22711649852444, 42.76199136753618], [-124.22708511314012, 42.76559691275707], [-124.22705370575595, 42.76920245897797], [-124.22227548406876, 42.76920739542457], [-124.2221526200511, 42.76920739543604], [-124.21725225534621, 42.76921261089409], [-124.21728210373023, 42.765607367673205], [-124.21731192911446, 42.762002101452346], [-124.21734175349883, 42.758396858231386], [-124.21737160188336, 42.75479159201046], [-124.22227548158793, 42.75478202255208]]]}, "properties": {"title": "CONFEDERATE", "description": "placer | serial ORMC160783 | 80.0 ac | Active | qtr-sec OR 33 0320S 0130W 027 A NE|OR 33 0320S 0130W 027 A SE | recorded~2021 (DB date, not legal located date) | src: BLM MLRS Not Closed | boundary approx (BLM quarter-section) | do not dig here (active claim)", "stroke": "#ff3300", "stroke-width": 2, "fill": "#ff3300", "fill-opacity": 0.05, "stroke-dasharray": "1,6"}}, {"type": "Feature", "geometry": {"type": "Polygon", "coordinates": [[[-124.2463654227804, 42.776434767610596], [-124.24662445306346, 42.78366810902284], [-124.23690570465294, 42.78359926192707], [-124.2368612334057, 42.77639441049626], [-124.2463654227804, 42.776434767610596]]]}, "properties": {"title": "2 MONA", "description": "placer | serial ORMC164503 | 20.0 ac | Active | qtr-sec OR 33 0320S 0130W 021 A NE | recorded~2021 (DB date, not legal located date) | src: BLM MLRS Not Closed | boundary approx (BLM quarter-section) | do not dig here (active claim)", "stroke": "#ff3300", "stroke-width": 2, "fill": "#ff3300", "fill-opacity": 0.05, "stroke-dasharray": "1,6"}}, {"type": "Feature", "geometry": {"type": "Polygon", "coordinates": [[[-124.2463654227804, 42.776434767610596], [-124.24662445306346, 42.78366810902284], [-124.23690570465294, 42.78359926192707], [-124.2368612334057, 42.77639441049626], [-124.2463654227804, 42.776434767610596]]]}, "properties": {"title": "5 NORGE", "description": "placer | serial ORMC164504 | 20.0 ac | Active | qtr-sec OR 33 0320S 0130W 021 A NE | recorded~2021 (DB date, not legal located date) | src: BLM MLRS Not Closed | boundary approx (BLM quarter-section) | do not dig here (active claim)", "stroke": "#ff3300", "stroke-width": 2, "fill": "#ff3300", "fill-opacity": 0.05, "stroke-dasharray": "1,6"}}, {"type": "Feature", "geometry": {"type": "Polygon", "coordinates": [[[-124.27572377560914, 42.80895349282429], [-124.27569267022741, 42.81256059804413], [-124.27077633351581, 42.8125332175026], [-124.26586002080413, 42.812505860961046], [-124.26589589918862, 42.80891046674136], [-124.26593175457323, 42.805315095521664], [-124.27084331828223, 42.80533071806303], [-124.27575488099103, 42.80534636360443], [-124.27572377560914, 42.80895349282429]]]}, "properties": {"title": "DOUGLAS BONANZA", "description": "placer | serial ORMC165199 | 60.0 ac | Active | qtr-sec OR 33 0320S 0130W 008 A NW | recorded~2021 (DB date, not legal located date) | src: BLM MLRS Not Closed | boundary approx (BLM quarter-section) | do not dig here (active claim)", "stroke": "#ff3300", "stroke-width": 2, "fill": "#ff3300", "fill-opacity": 0.05, "stroke-dasharray": "1,6"}}, {"type": "Feature", "geometry": {"type": "Polygon", "coordinates": [[[-124.27572377560914, 42.80895349282429], [-124.27569267022741, 42.81256059804413], [-124.27077633351581, 42.8125332175026], [-124.26586002080413, 42.812505860961046], [-124.26589589918862, 42.80891046674136], [-124.26593175457323, 42.805315095521664], [-124.27084331828223, 42.80533071806303], [-124.27575488099103, 42.80534636360443], [-124.27572377560914, 42.80895349282429]]]}, "properties": {"title": "JENNIFER", "description": "placer | serial ORMC167882 | 20.0 ac | Active | qtr-sec OR 33 0320S 0130W 008 A NW | recorded~2021 (DB date, not legal located date) | src: BLM MLRS Not Closed | boundary approx (BLM quarter-section) | do not dig here (active claim)", "stroke": "#ff3300", "stroke-width": 2, "fill": "#ff3300", "fill-opacity": 0.05, "stroke-dasharray": "1,6"}}, {"type": "Feature", "geometry": {"type": "Polygon", "coordinates": [[[-124.22705370575595, 42.76920245897797], [-124.23193923845751, 42.769192073521005], [-124.23682477115898, 42.76918171206402], [-124.24610625149732, 42.76919748619797], [-124.2463654227804, 42.776434767610596], [-124.24662445306346, 42.78366810902284], [-124.23690570465294, 42.78359926192707], [-124.23691804526909, 42.787165436141144], [-124.23691823227765, 42.787214889144096], [-124.23692267949876, 42.78849396822091], [-124.23321326796719, 42.78850833356851], [-124.23199756579298, 42.78851301368244], [-124.22837150727331, 42.78852703102227], [-124.22707240508723, 42.78853285114402], [-124.22707114786274, 42.78723128106558], [-124.22706765424161, 42.783628296848256], [-124.22706418462052, 42.78002533563099], [-124.22706069099961, 42.77642235141366], [-124.22705719837774, 42.77281240519581], [-124.22705370575595, 42.76920245897797]]]}, "properties": {"title": "BEAR PAN FLAT", "description": "placer | serial ORMC168903 | 40.0 ac | Active | qtr-sec OR 33 0320S 0130W 022 A NW|OR 33 0320S 0130W 022 A SW|OR 33 0320S 0130W 021 A NE|OR 33 0320S 0130W 021 A SE | recorded~2021 (DB date, not legal located date) | src: BLM MLRS Not Closed | boundary approx (BLM quarter-section) | do not dig here (active claim)", "stroke": "#ff3300", "stroke-width": 2, "fill": "#ff3300", "fill-opacity": 0.05, "stroke-dasharray": "1,6"}}, {"type": "Feature", "geometry": {"type": "Polygon", "coordinates": [[[-124.23685864822015, 42.775318779431494], [-124.2368612334057, 42.77639441049626], [-124.23196096270276, 42.77640838095496], [-124.22706069099961, 42.77642235141366], [-124.22705719837774, 42.77281240519581], [-124.22705370575595, 42.76920245897797], [-124.23193923845751, 42.769192073521005], [-124.23682477115898, 42.76918171206402], [-124.23684702978218, 42.77278413827956], [-124.23685864822015, 42.775318779431494]]]}, "properties": {"title": "HUMMINGBIRD", "description": "placer | serial ORMC168904 | 20.0 ac | Active | qtr-sec OR 33 0320S 0130W 022 A SW | recorded~2021 (DB date, not legal located date) | src: BLM MLRS Not Closed | boundary approx (BLM quarter-section) | do not dig here (active claim)", "stroke": "#ff3300", "stroke-width": 2, "fill": "#ff3300", "fill-opacity": 0.05, "stroke-dasharray": "1,6"}}, {"type": "Feature", "geometry": {"type": "Polygon", "coordinates": [[[-124.20746044493076, 42.76918420680688], [-124.21235640863854, 42.769198420350435], [-124.21725225534621, 42.76921261089409], [-124.21724075396723, 42.77283107911395], [-124.21722922958845, 42.77644954633382], [-124.21231827187752, 42.7764292677914], [-124.20740731416647, 42.77640898824897], [-124.20250948845712, 42.77638840670529], [-124.2, 42.776377827845145], [-124.2, 42.76916192275756], [-124.2025423162196, 42.76916988826531], [-124.20258657722597, 42.769170051261185], [-124.20746044493076, 42.76918420680688]]]}, "properties": {"title": "RSM", "description": "placer | serial ORMC176614 | 40.0 ac | Active | qtr-sec OR 33 0320S 0130W 023 A SW|OR 33 0320S 0130W 023 A SE | recorded~2021 (DB date, not legal located date) | src: BLM MLRS Not Closed | boundary approx (BLM quarter-section) | do not dig here (active claim)", "stroke": "#ff3300", "stroke-width": 2, "fill": "#ff3300", "fill-opacity": 0.05, "stroke-dasharray": "1,6"}}, {"type": "Feature", "geometry": {"type": "Polygon", "coordinates": [[[-124.25586546715404, 42.776475107725304], [-124.25634320147356, 42.78373695611851], [-124.24662445306346, 42.78366810902284], [-124.2463654227804, 42.776434767610596], [-124.25586546715404, 42.776475107725304]]]}, "properties": {"title": "GOLDEN DRAGON", "description": "placer | serial ORMC177068 | 20.0 ac | Active | qtr-sec OR 33 0320S 0130W 021 A NW | recorded~2021 (DB date, not legal located date) | src: BLM MLRS Not Closed | boundary approx (BLM quarter-section) | do not dig here (active claim)", "stroke": "#ff3300", "stroke-width": 2, "fill": "#ff3300", "fill-opacity": 0.05, "stroke-dasharray": "1,6"}}, {"type": "Feature", "geometry": {"type": "Polygon", "coordinates": [[[-124.23193923845751, 42.769192073521005], [-124.23682477115898, 42.76918171206402], [-124.23684702978218, 42.77278413827956], [-124.23685864822015, 42.775318779431494], [-124.2368612334057, 42.77639441049626], [-124.23196096270276, 42.77640838095496], [-124.22706069099961, 42.77642235141366], [-124.22705719837774, 42.77281240519581], [-124.22705370575595, 42.76920245897797], [-124.23193923845751, 42.769192073521005]]]}, "properties": {"title": "LAURINA 1", "description": "placer | serial ORMC177069 | 20.0 ac | Active | qtr-sec OR 33 0320S 0130W 022 A SW | recorded~2021 (DB date, not legal located date) | src: BLM MLRS Not Closed | boundary approx (BLM quarter-section) | do not dig here (active claim)", "stroke": "#ff3300", "stroke-width": 2, "fill": "#ff3300", "fill-opacity": 0.05, "stroke-dasharray": "1,6"}}, {"type": "Feature", "geometry": {"type": "Polygon", "coordinates": [[[-124.23193923845751, 42.769192073521005], [-124.23682477115898, 42.76918171206402], [-124.23684702978218, 42.77278413827956], [-124.23685864822015, 42.775318779431494], [-124.2368612334057, 42.77639441049626], [-124.23196096270276, 42.77640838095496], [-124.22706069099961, 42.77642235141366], [-124.22705719837774, 42.77281240519581], [-124.22705370575595, 42.76920245897797], [-124.23193923845751, 42.769192073521005]]]}, "properties": {"title": "LAURINA 2", "description": "placer | serial ORMC177070 | 20.0 ac | Active | qtr-sec OR 33 0320S 0130W 022 A SW | recorded~2021 (DB date, not legal located date) | src: BLM MLRS Not Closed | boundary approx (BLM quarter-section) | do not dig here (active claim)", "stroke": "#ff3300", "stroke-width": 2, "fill": "#ff3300", "fill-opacity": 0.05, "stroke-dasharray": "1,6"}}, {"type": "Feature", "geometry": {"type": "Polygon", "coordinates": [[[-124.26607252212199, 42.790985718645715], [-124.2611573964115, 42.79096439210407], [-124.25624224770087, 42.79094306556236], [-124.25629272508714, 42.787340010340515], [-124.25634320147356, 42.78373695611851], [-124.26124291417811, 42.78373604766051], [-124.26509772873233, 42.78373527930011], [-124.26614253288251, 42.78373506920244], [-124.26610753850215, 42.78736038242409], [-124.26607252212199, 42.790985718645715]]]}, "properties": {"title": "LUCKY NUGGET", "description": "placer | serial ORMC177071 | 20.0 ac | Active | qtr-sec OR 33 0320S 0130W 017 A SE|OR 33 0320S 0130W 020 A NE | recorded~2021 (DB date, not legal located date) | src: BLM MLRS Not Closed | boundary approx (BLM quarter-section) | do not dig here (active claim)", "stroke": "#ff3300", "stroke-width": 2, "fill": "#ff3300", "fill-opacity": 0.05, "stroke-dasharray": "1,6"}}, {"type": "Feature", "geometry": {"type": "Polygon", "coordinates": [[[-124.25586546715404, 42.776475107725304], [-124.2654619445325, 42.77646564282791], [-124.26570539281671, 42.783718026242255], [-124.25634320147356, 42.78373695611851], [-124.24662445306346, 42.78366810902284], [-124.2463654227804, 42.776434767610596], [-124.25586546715404, 42.776475107725304]]]}, "properties": {"title": "T AND M", "description": "placer | serial ORMC177072 | 20.0 ac | Active | qtr-sec OR 33 0320S 0130W 020 A NE|OR 33 0320S 0130W 021 A NW | recorded~2021 (DB date, not legal located date) | src: BLM MLRS Not Closed | boundary approx (BLM quarter-section) | do not dig here (active claim)", "stroke": "#ff3300", "stroke-width": 2, "fill": "#ff3300", "fill-opacity": 0.05, "stroke-dasharray": "1,6"}}, {"type": "Feature", "geometry": {"type": "Polygon", "coordinates": [[[-124.22705370575595, 42.76920245897797], [-124.22708511314012, 42.76559691275707], [-124.22711649852444, 42.76199136753618], [-124.23203025023085, 42.761985592076975], [-124.23694397893713, 42.76197979461779], [-124.23688437454797, 42.76558075384092], [-124.23682477115898, 42.76918171206402], [-124.23193923845751, 42.769192073521005], [-124.22705370575595, 42.76920245897797]]]}, "properties": {"title": "FOUR K", "description": "placer | serial ORMC178101 | 60.0 ac | Active | qtr-sec OR 33 0320S 0130W 027 A NW | recorded~2021 (DB date, not legal located date) | src: BLM MLRS Not Closed | boundary approx (BLM quarter-section) | do not dig here (active claim)", "stroke": "#ff3300", "stroke-width": 2, "fill": "#ff3300", "fill-opacity": 0.05, "stroke-dasharray": "1,6"}}, {"type": "Feature", "geometry": {"type": "Polygon", "coordinates": [[[-124.28551942803131, 42.80903582091253], [-124.29042584573921, 42.80905209545433], [-124.29039622036085, 42.81267733367488], [-124.28549221065522, 42.812671820133616], [-124.28551942803131, 42.80903582091253]]]}, "properties": {"title": "CLEMENTINE 1&2", "description": "placer | serial ORMC25726 | 40.0 ac | Active | qtr-sec OR 33 0320S 0130W 007 A NENW | recorded~2021 (DB date, not legal located date) | src: BLM MLRS Not Closed | boundary approx (BLM quarter-section) | do not dig here (active claim)", "stroke": "#ff3300", "stroke-width": 2, "fill": "#ff3300", "fill-opacity": 0.05, "stroke-dasharray": "1,6"}}, {"type": "Feature", "geometry": {"type": "Polygon", "coordinates": [[[-124.27504925866211, 42.769213257495025], [-124.27506758415939, 42.78369909636591], [-124.26614253288251, 42.78373506920244], [-124.26509772873233, 42.78373527930011], [-124.26124291417811, 42.78373604766051], [-124.25634320147356, 42.78373695611851], [-124.25586546715404, 42.776475107725304], [-124.25588532915694, 42.776475087723426], [-124.25538773183526, 42.7692132593319], [-124.27504925866211, 42.769213257495025]]]}, "properties": {"title": "Splash 2", "description": "placer | serial OR105789381 | 20.0 ac | Active | qtr-sec OR 33 0320S 0130W 020 A Unsurveyed Protracted PB40|OR 33 0320S 0130W 020 A NE | recorded~2023 (DB date, not legal located date) | src: BLM MLRS Not Closed | boundary approx (BLM quarter-section) | do not dig here (active claim)", "stroke": "#ff3300", "stroke-width": 2, "fill": "#ff3300", "fill-opacity": 0.05, "stroke-dasharray": "1,6"}}, {"type": "Feature", "geometry": {"type": "Polygon", "coordinates": [[[-124.29716725819831, 42.80610136264618], [-124.29715854071023, 42.80907407582556], [-124.29715669981992, 42.80971110286398], [-124.29714801233236, 42.81268598304345], [-124.29039622036085, 42.81267733367488], [-124.28549221065522, 42.812671820133616], [-124.28551942803131, 42.80903582091253], [-124.28554664540762, 42.80539984369143], [-124.29045546111757, 42.80542615323369], [-124.29716085008707, 42.8054621696084], [-124.29716725819831, 42.80610136264618]]]}, "properties": {"title": "HOPE 2", "description": "placer | serial OR106324275 | 1586.84 ac | Active | qtr-sec OR 33 0320S 0130W 007 Lot1 | OR 33 0320S 0130W 007 Lot2 | OR 33 0320S 0130W 007 A NW | recorded~2023 (DB date, not legal located date) | src: BLM MLRS Not Closed | boundary approx (BLM quarter-section) | do not dig here (active claim)", "stroke": "#ff3300", "stroke-width": 2, "fill": "#ff3300", "fill-opacity": 0.05, "stroke-dasharray": "1,6"}}, {"type": "Feature", "geometry": {"type": "Polygon", "coordinates": [[[-124.28554664540762, 42.80539984369143], [-124.28551942803131, 42.80903582091253], [-124.28549221065522, 42.812671820133616], [-124.28059242894136, 42.812616197588866], [-124.27569267022741, 42.81256059804413], [-124.27572377560914, 42.80895349282429], [-124.27575488099103, 42.80534636360443], [-124.28065075169943, 42.805373092147946], [-124.28554664540762, 42.80539984369143]]]}, "properties": {"title": "Calli Star", "description": "placer | serial OR106324276 | 160.0 ac | Active | qtr-sec OR 33 0320S 0130W 007 A NE | recorded~2023 (DB date, not legal located date) | src: BLM MLRS Not Closed | boundary approx (BLM quarter-section) | do not dig here (active claim)", "stroke": "#ff3300", "stroke-width": 2, "fill": "#ff3300", "fill-opacity": 0.05, "stroke-dasharray": "1,6"}}, {"type": "Feature", "geometry": {"type": "Polygon", "coordinates": [[[-124.28554664540762, 42.80539984369143], [-124.28551942803131, 42.80903582091253], [-124.28549221065522, 42.812671820133616], [-124.28059242894136, 42.812616197588866], [-124.27569267022741, 42.81256059804413], [-124.27572377560914, 42.80895349282429], [-124.27575488099103, 42.80534636360443], [-124.28065075169943, 42.805373092147946], [-124.28554664540762, 42.80539984369143]]]}, "properties": {"title": "NEW BEGINNINGS", "description": "placer | serial OR106324277 | 160.0 ac | Active | qtr-sec OR 33 0320S 0130W 007 A NE | recorded~2023 (DB date, not legal located date) | src: BLM MLRS Not Closed | boundary approx (BLM quarter-section) | do not dig here (active claim)", "stroke": "#ff3300", "stroke-width": 2, "fill": "#ff3300", "fill-opacity": 0.05, "stroke-dasharray": "1,6"}}, {"type": "Feature", "geometry": {"type": "Polygon", "coordinates": [[[-124.25733335833164, 42.80528696432443], [-124.25856169750907, 42.80529098620971], [-124.25855077466305, 42.80619240826505], [-124.25853985181705, 42.80709382932034], [-124.25731085863964, 42.80709065143515], [-124.25732210848567, 42.8061888073798], [-124.25733335833164, 42.80528696432443]]]}, "properties": {"title": "JANNY-D", "description": "placer | serial OR106707112 | 120.0 ac | Filed | qtr-sec OR 33 0320S 0130W 008 E2SESWNE | OR 33 0320S 0130W 008 SWSENE | OR 33 0320S 0130W 008 W2SESENE | recorded~2024 (DB date, not legal located date) | src: BLM MLRS Not Closed | boundary approx (BLM quarter-section) | do not dig here (active claim)", "stroke": "#ff3300", "stroke-width": 2, "fill": "#ff3300", "fill-opacity": 0.05, "stroke-dasharray": "1,6"}}, {"type": "Feature", "geometry": {"type": "Polygon", "coordinates": [[[-124.23198475584412, 42.76558894929903], [-124.23193923845751, 42.769192073521005], [-124.22705370575595, 42.76920245897797], [-124.22708511314012, 42.76559691275707], [-124.23198475584412, 42.76558894929903]]]}, "properties": {"title": "DB 2", "description": "placer | serial OR106712465 | 120.0 ac | Filed | qtr-sec OR 33 0320S 0130W 022 SWSE,SESW | OR 33 0320S 0130W 027 NENW | recorded~2025 (DB date, not legal located date) | src: BLM MLRS Not Closed | boundary approx (BLM quarter-section) | do not dig here (active claim)", "stroke": "#ff3300", "stroke-width": 2, "fill": "#ff3300", "fill-opacity": 0.05, "stroke-dasharray": "1,6"}}, {"type": "Feature", "geometry": {"type": "Polygon", "coordinates": [[[-124.23682477115898, 42.76918171206402], [-124.23684702978218, 42.77278413827956], [-124.23685864822015, 42.775318779431494], [-124.2368612334057, 42.77639441049626], [-124.23688346902927, 42.779996836711675], [-124.23690570465294, 42.78359926192707], [-124.23691804526909, 42.787165436141144], [-124.23691823227765, 42.787214889144096], [-124.23692267949876, 42.78849396822091], [-124.23321326796719, 42.78850833356851], [-124.23199756579298, 42.78851301368244], [-124.22837150727331, 42.78852703102227], [-124.22707240508723, 42.78853285114402], [-124.22345405356894, 42.78854896348325], [-124.22214708138169, 42.78855478460578], [-124.21853685586449, 42.7885708739442], [-124.21721393467493, 42.78857674106823], [-124.21721421445659, 42.78730939699158], [-124.21721921983377, 42.78368946277239], [-124.21722422421101, 42.78006950455313], [-124.21722922958845, 42.77644954633382], [-124.21724075396723, 42.77283107911395], [-124.21725225534621, 42.76921261089409], [-124.2221526200511, 42.76920739543604], [-124.22227548406876, 42.76920739542457], [-124.22705370575595, 42.76920245897797], [-124.23193923845751, 42.769192073521005], [-124.23682477115898, 42.76918171206402]]]}, "properties": {"title": "DB 1", "description": "placer | serial OR106712464 | 857.8 ac | Filed | qtr-sec OR 33 0320S 0130W 022 NESE1/4S1/2 | recorded~2025 (DB date, not legal located date) | src: BLM MLRS Not Closed | boundary approx (BLM quarter-section) | do not dig here (active claim)", "stroke": "#ff3300", "stroke-width": 2, "fill": "#ff3300", "fill-opacity": 0.05, "stroke-dasharray": "1,6"}}, {"type": "Feature", "geometry": {"type": "Polygon", "coordinates": [[[-124.22224484220365, 42.758389500773234], [-124.22221422481955, 42.76199674599424], [-124.21731192911446, 42.762002101452346], [-124.21734175349883, 42.758396858231386], [-124.22224484220365, 42.758389500773234]]]}, "properties": {"title": "Hell Begins", "description": "placer | serial OR106761546 | 40.0 ac | Active | qtr-sec OR 33 0320S 0130W 027 A NESE | recorded~2025 (DB date, not legal located date) | src: BLM MLRS Not Closed | boundary approx (BLM quarter-section) | do not dig here (active claim)", "stroke": "#ff3300", "stroke-width": 2, "fill": "#ff3300", "fill-opacity": 0.05, "stroke-dasharray": "1,6"}}, {"type": "Feature", "geometry": {"type": "Point", "coordinates": [-124.22966106332316, 42.774912261359574]}, "properties": {"title": "Placer - Wallace and Hanly Claimss", "description": "2 source record(s) merged within 75m | src: MILO, USMIN", "marker-color": "#000000", "marker-symbol": "circle"}}, {"type": "Feature", "geometry": {"type": "Point", "coordinates": [-124.30418607921462, 42.804515598773214]}, "properties": {"title": "Placer - Inman Mine", "description": "2 source record(s) merged within 75m | src: MILO, USMIN", "marker-color": "#000000", "marker-symbol": "circle"}}, {"type": "Feature", "geometry": {"type": "Point", "coordinates": [-124.23582749815006, 42.76803840651663]}, "properties": {"title": "Adit - Barklow Mountain", "description": "2 source record(s) merged within 75m | src: MILO, USMIN", "marker-color": "#000000", "marker-symbol": "circle"}}, {"type": "Feature", "geometry": {"type": "Point", "coordinates": [-124.39984237788323, 42.80928082173173]}, "properties": {"title": "Placer - Corbin", "description": "1 source record(s) merged within 75m | src: MILO", "marker-color": "#000000", "marker-symbol": "circle"}}, {"type": "Feature", "geometry": {"type": "Point", "coordinates": [-124.39289951060552, 42.80733550003796]}, "properties": {"title": "Placer - Divelbiss No.2", "description": "1 source record(s) merged within 75m | src: MILO", "marker-color": "#000000", "marker-symbol": "circle"}}, {"type": "Feature", "geometry": {"type": "Point", "coordinates": [-124.38677621530269, 42.80674755577612]}, "properties": {"title": "Mine - Mccormick Mining and Mineral Co.", "description": "3 source record(s) merged within 75m | src: MILO, MRDS", "marker-color": "#000000", "marker-symbol": "circle"}}, {"type": "Feature", "geometry": {"type": "Point", "coordinates": [-124.35918438217672, 42.81265546582179]}, "properties": {"title": "Mine - Sunrise gold Mining Co.", "description": "1 source record(s) merged within 75m | src: MILO", "marker-color": "#000000", "marker-symbol": "circle"}}, {"type": "Feature", "geometry": {"type": "Point", "coordinates": [-124.3178956485598, 42.80400140944217]}, "properties": {"title": "Placer - Sixes River placers", "description": "1 source record(s) merged within 75m | src: MILO", "marker-color": "#000000", "marker-symbol": "circle"}}, {"type": "Feature", "geometry": {"type": "Point", "coordinates": [-124.23817119739464, 42.77400320965988]}, "properties": {"title": "Mine - Butcher Hill Quartz", "description": "1 source record(s) merged within 75m | src: MILO", "marker-color": "#000000", "marker-symbol": "circle"}}, {"type": "Feature", "geometry": {"type": "Point", "coordinates": [-124.2280582606044, 42.77290089853804]}, "properties": {"title": "Mine - Combination", "description": "2 source record(s) merged within 75m | src: MILO", "marker-color": "#000000", "marker-symbol": "circle"}}, {"type": "Feature", "geometry": {"type": "Point", "coordinates": [-124.22733714037334, 42.77844705965801]}, "properties": {"title": "Mine - Bear Cat", "description": "1 source record(s) merged within 75m | src: MILO", "marker-color": "#000000", "marker-symbol": "circle"}}, {"type": "Feature", "geometry": {"type": "Point", "coordinates": [-124.2051119958169, 42.770948260924676]}, "properties": {"title": "Mine - Big Ben", "description": "1 source record(s) merged within 75m | src: MILO", "marker-color": "#000000", "marker-symbol": "circle"}}, {"type": "Feature", "geometry": {"type": "Point", "coordinates": [-124.21483165721438, 42.769280729334746]}, "properties": {"title": "Mine - War Baby", "description": "1 source record(s) merged within 75m | src: MILO", "marker-color": "#000000", "marker-symbol": "circle"}}, {"type": "Feature", "geometry": {"type": "Point", "coordinates": [-124.24562531048532, 42.76873650152214]}, "properties": {"title": "Placer - Wagner Claims", "description": "1 source record(s) merged within 75m | src: MILO", "marker-color": "#000000", "marker-symbol": "circle"}}, {"type": "Feature", "geometry": {"type": "Point", "coordinates": [-124.24012581271036, 42.77903663249684]}, "properties": {"title": "Placer - Way Claims", "description": "1 source record(s) merged within 75m | src: MILO", "marker-color": "#000000", "marker-symbol": "circle"}}, {"type": "Feature", "geometry": {"type": "Point", "coordinates": [-124.2468251937699, 42.776237188255024]}, "properties": {"title": "Placer - Guerin Claim", "description": "1 source record(s) merged within 75m | src: MILO", "marker-color": "#000000", "marker-symbol": "circle"}}, {"type": "Feature", "geometry": {"type": "Point", "coordinates": [-124.20812442986188, 42.777036592130365]}, "properties": {"title": "Mine - Rusty Gulch", "description": "1 source record(s) merged within 75m | src: MILO", "marker-color": "#000000", "marker-symbol": "circle"}}, {"type": "Feature", "geometry": {"type": "Point", "coordinates": [-124.22092422170346, 42.76843686130661]}, "properties": {"title": "Placer - Smith and Robinson Claims", "description": "1 source record(s) merged within 75m | src: MILO", "marker-color": "#000000", "marker-symbol": "circle"}}, {"type": "Feature", "geometry": {"type": "Point", "coordinates": [-124.28398, 42.81231]}, "properties": {"title": "Mine - Little Otter Placer", "description": "1 source record(s) merged within 75m | src: MRDS", "marker-color": "#000000", "marker-symbol": "circle"}}, {"type": "Feature", "geometry": {"type": "Point", "coordinates": [-124.28868, 42.81121]}, "properties": {"title": "Mine - Siskiyou Mining Co", "description": "1 source record(s) merged within 75m | src: MRDS", "marker-color": "#000000", "marker-symbol": "circle"}}, {"type": "Feature", "geometry": {"type": "Point", "coordinates": [-124.27118, 42.81061]}, "properties": {"title": "Mine - Hydro Sixes Mining Company", "description": "1 source record(s) merged within 75m | src: MRDS", "marker-color": "#000000", "marker-symbol": "circle"}}, {"type": "Feature", "geometry": {"type": "Point", "coordinates": [-124.22868, 42.77451]}, "properties": {"title": "Mine - Wallace & Hanly Claimss", "description": "1 source record(s) merged within 75m | src: MRDS", "marker-color": "#000000", "marker-symbol": "circle"}}, {"type": "Feature", "geometry": {"type": "Point", "coordinates": [-124.32029, 42.847328]}, "properties": {"title": "Pit - Langlois", "description": "1 source record(s) merged within 75m | src: USMIN", "marker-color": "#000000", "marker-symbol": "circle"}}, {"type": "Feature", "geometry": {"type": "Point", "coordinates": [-124.233142, 42.767766]}, "properties": {"title": "Pit - Powers", "description": "1 source record(s) merged within 75m | src: USMIN", "marker-color": "#000000", "marker-symbol": "circle"}}, {"type": "Feature", "geometry": {"type": "Point", "coordinates": [-124.30431415842925, 42.804505197546426]}, "properties": {"title": "SCOUT 1 - Placer bench", "description": "Inman Mine (placer (heuristic: surface workings)) | agency: BLM | 0m to stream | cluster: 1 nearby | src: MILO", "marker-color": "#ff3300", "marker-symbol": "circle"}}, {"type": "Feature", "geometry": {"type": "Point", "coordinates": [-124.2468251937699, 42.776237188255024]}, "properties": {"title": "SCOUT 2 - Placer bench", "description": "Guerin Claim (placer) | agency: USFS | 35m to stream | cluster: 0 nearby | NEAR ACTIVE CLAIM (<50m, approx) | src: MILO", "marker-color": "#ff3300", "marker-symbol": "circle"}}, {"type": "Feature", "geometry": {"type": "Point", "coordinates": [-124.24562531048532, 42.76873650152214]}, "properties": {"title": "SCOUT 3 - Placer bench", "description": "Wagner Claims (placer) | agency: USFS | 43m to stream | cluster: 0 nearby | src: MILO", "marker-color": "#ff3300", "marker-symbol": "circle"}}, {"type": "Feature", "geometry": {"type": "Point", "coordinates": [-124.3178956485598, 42.80400140944217]}, "properties": {"title": "SCOUT 4 - Placer bench", "description": "Sixes River placers (placer) | agency: BLM | 53m to stream | cluster: 0 nearby | src: MILO", "marker-color": "#ff3300", "marker-symbol": "circle"}}, {"type": "Feature", "geometry": {"type": "Point", "coordinates": [-124.20812442986188, 42.777036592130365]}, "properties": {"title": "SCOUT 5 - Lode/unknown outcrop", "description": "Rusty Gulch (lode) | agency: USFS | 10m to stream | cluster: 0 nearby | src: MILO", "marker-color": "#ff3300", "marker-symbol": "circle"}}]}