<?xml version="1.0" encoding="UTF-8"?><gpx version="1.1" creator="gold-overlays" xmlns="http://www.topografix.com/GPX/1/1" xmlns:xsi="http://www.w3.org/2001/XMLSchema-instance" xsi:schemaLocation="http://www.topografix.com/GPX/1/1 http://www.topografix.com/GPX/1/1/gpx.xsd"><metadata><name>Sixes River</name></metadata><wpt lat="42.805000" lon="-124.312700"><name>Sixes River Campground (rec mining)</name><desc>public | serial n/a | precision: published | published site</desc><sym>Flag, Green</sym></wpt><wpt lat="42.774945" lon="-124.229633"><name>Prospect Pit</name><desc>USMIN Prospect Pit | topo: Barklow Mountain (1986) 1:24000 | src: USGS USMIN</desc><sym>Dot</sym></wpt><wpt lat="42.804526" lon="-124.304058"><name>Open Pit Mine</name><desc>USMIN Open Pit Mine | topo: Langlois (1954) 1:62500 | src: USGS USMIN</desc><sym>Dot</sym></wpt><wpt lat="42.847328" lon="-124.320290"><name>Prospect Pit</name><desc>USMIN Prospect Pit | topo: Langlois (1954) 1:62500 | src: USGS USMIN</desc><sym>Dot</sym></wpt><wpt lat="42.767766" lon="-124.233142"><name>Prospect Pit</name><desc>USMIN Prospect Pit | topo: Powers (1954) 1:62500 | src: USGS USMIN</desc><sym>Dot</sym></wpt><wpt lat="42.768098" lon="-124.235799"><name>Adit</name><desc>USMIN Adit | topo: Barklow Mountain (1986) 1:24000 | src: USGS USMIN</desc><sym>Dot</sym></wpt><wpt lat="42.809281" lon="-124.399842"><name>Corbin</name><desc>MILO gold | gold, platinum, iridium | placer | discovered ? | prod started ? | size: small | src: DOGAMI MILO-4 ID_04889</desc><sym>Bar</sym></wpt><wpt lat="42.807336" lon="-124.392900"><name>Divelbiss No.2</name><desc>MILO gold | gold, platinum, chromium, mercury | placer | discovered ? | prod started ? | size: small | src: DOGAMI MILO-4 ID_04891</desc><sym>Bar</sym></wpt><wpt lat="42.806783" lon="-124.386789"><name>Mccormick Mining and Mineral Co.</name><desc>MILO gold | gold | unknown | discovered ? | prod started ? | size: n/a | src: DOGAMI MILO-4 ID_04892</desc><sym>Bar</sym></wpt><wpt lat="42.812655" lon="-124.359184"><name>Sunrise gold Mining Co.</name><desc>MILO gold | gold | unknown | discovered ? | prod started ? | size: n/a | src: DOGAMI MILO-4 ID_04898</desc><sym>Bar</sym></wpt><wpt lat="42.804001" lon="-124.317896"><name>Sixes River placers</name><desc>MILO gold | gold, platinum, chromium, mercury, iridium | placer | discovered ? | prod started ? | size: small | src: DOGAMI MILO-4 ID_04899</desc><sym>Bar</sym></wpt><wpt lat="42.774003" lon="-124.238171"><name>Butcher Hill Quartz</name><desc>MILO gold | gold | lode | discovered ? | prod started ? | size: n/a | src: DOGAMI MILO-4 ID_04903</desc><sym>Bar</sym></wpt><wpt lat="42.772952" lon="-124.227925"><name>Combination</name><desc>MILO gold | gold, silver, zinc, lead | lode | discovered ? | prod started ? | size: n/a | src: DOGAMI MILO-4 ID_04904</desc><sym>Bar</sym></wpt><wpt lat="42.778447" lon="-124.227337"><name>Bear Cat</name><desc>MILO gold | gold, silver | lode | discovered ? | prod started ? | size: n/a | src: DOGAMI MILO-4 ID_04905</desc><sym>Bar</sym></wpt><wpt lat="42.770948" lon="-124.205112"><name>Big Ben</name><desc>MILO gold | gold, silver, lead, copper, arsenic | lode | discovered ? | prod started ? | size: n/a | src: DOGAMI MILO-4 ID_04908</desc><sym>Bar</sym></wpt><wpt lat="42.769281" lon="-124.214832"><name>War Baby</name><desc>MILO gold | copper, gold, silver, zinc | lode | discovered ? | prod started ? | size: n/a | src: DOGAMI MILO-4 ID_04909</desc><sym>Bar</sym></wpt><wpt lat="42.767979" lon="-124.235856"><name>Section 27 gold prospect</name><desc>MILO gold | gold | lode | discovered ? | prod started ? | size: n/a | src: DOGAMI MILO-4 ID_04910</desc><sym>Bar</sym></wpt><wpt lat="42.772849" lon="-124.228192"><name>Combination</name><desc>MILO gold | gold, silver, zinc, lead | lode | discovered ? | prod started ? | size: n/a | src: DOGAMI MILO-4 ID_14804</desc><sym>Bar</sym></wpt><wpt lat="42.768737" lon="-124.245625"><name>Wagner Claims</name><desc>MILO gold | gold | placer | discovered ? | prod started ? | size: n/a | src: DOGAMI MILO-4 ID_18978</desc><sym>Bar</sym></wpt><wpt lat="42.779037" lon="-124.240126"><name>Way Claims</name><desc>MILO gold | gold | placer | discovered ? | prod started ? | size: n/a | src: DOGAMI MILO-4 ID_18980</desc><sym>Bar</sym></wpt><wpt lat="42.776237" lon="-124.246825"><name>Guerin Claim</name><desc>MILO gold | gold, chromium | placer | discovered ? | prod started ? | size: n/a | src: DOGAMI MILO-4 ID_18981</desc><sym>Bar</sym></wpt><wpt lat="42.774880" lon="-124.229689"><name>Wallace and Hanly Claimss</name><desc>MILO gold | gold | placer | discovered ? | prod started ? | size: n/a | src: DOGAMI MILO-4 ID_18982</desc><sym>Bar</sym></wpt><wpt lat="42.777037" lon="-124.208124"><name>Rusty Gulch</name><desc>MILO gold | gold, silver | lode | discovered ? | prod started ? | size: n/a | src: DOGAMI MILO-4 ID_18983</desc><sym>Bar</sym></wpt><wpt lat="42.768437" lon="-124.220924"><name>Smith and Robinson Claims</name><desc>MILO gold | gold | placer (heuristic: surface workings) | discovered ? | prod started ? | size: n/a | src: DOGAMI MILO-4 ID_18984</desc><sym>Bar</sym></wpt><wpt lat="42.804505" lon="-124.304314"><name>Inman Mine</name><desc>MILO gold | gold placer | placer (heuristic: surface workings) | discovered ? | prod started ? | size: n/a | src: DOGAMI MILO-4 ID_24675</desc><sym>Bar</sym></wpt><wpt lat="42.806710" lon="-124.386790"><name>Mccormick Mining &amp; Mineral Co</name><desc>MRDS gold occurrence | status: Unknown | commodities: AU | src: https://mrdata.usgs.gov/mrds/show-mrds.php?dep_id=10200791</desc><sym>Dot</sym></wpt><wpt lat="42.806750" lon="-124.386750"><name>Mccormick Mining &amp; Mineral Co</name><desc>MRDS gold occurrence | status: Past Producer | commodities: AU | src: https://mrdata.usgs.gov/mrds/show-mrds.php?dep_id=10099030</desc><sym>Dot</sym></wpt><wpt lat="42.812310" lon="-124.283980"><name>Little Otter Placer</name><desc>MRDS gold occurrence | status: Occurrence | commodities: AU | src: https://mrdata.usgs.gov/mrds/show-mrds.php?dep_id=10152646</desc><sym>Dot</sym></wpt><wpt lat="42.811210" lon="-124.288680"><name>Siskiyou Mining Co</name><desc>MRDS gold occurrence | status: Prospect | commodities: AU | src: https://mrdata.usgs.gov/mrds/show-mrds.php?dep_id=10250028</desc><sym>Dot</sym></wpt><wpt lat="42.810610" lon="-124.271180"><name>Hydro Sixes Mining Company</name><desc>MRDS gold occurrence | status: Prospect | commodities: AU | src: https://mrdata.usgs.gov/mrds/show-mrds.php?dep_id=10249823</desc><sym>Dot</sym></wpt><wpt lat="42.774510" lon="-124.228680"><name>Wallace &amp; Hanly Claimss</name><desc>MRDS gold occurrence | status: Prospect | commodities: AU | src: https://mrdata.usgs.gov/mrds/show-mrds.php?dep_id=10273986</desc><sym>Dot</sym></wpt><wpt lat="42.804505" lon="-124.304314"><name>OPEN-sixes-01</name><desc>Inman Mine (placer (heuristic: surface workings)) | agency: BLM | 0m to stream | cluster: 1 nearby | src: MILO</desc><sym>Star</sym></wpt><wpt lat="42.776237" lon="-124.246825"><name>OPEN-sixes-02</name><desc>Guerin Claim (placer) | agency: USFS | 35m to stream | cluster: 0 nearby | NEAR ACTIVE CLAIM (&lt;50m, approx) | src: MILO</desc><sym>Star</sym></wpt><wpt lat="42.768737" lon="-124.245625"><name>OPEN-sixes-03</name><desc>Wagner Claims (placer) | agency: USFS | 43m to stream | cluster: 0 nearby | src: MILO</desc><sym>Star</sym></wpt><wpt lat="42.804001" lon="-124.317896"><name>OPEN-sixes-04</name><desc>Sixes River placers (placer) | agency: BLM | 53m to stream | cluster: 0 nearby | src: MILO</desc><sym>Star</sym></wpt><wpt lat="42.804526" lon="-124.304058"><name>OPEN-sixes-05</name><desc>USMIN Open Pit Mine | agency: BLM | 15m to stream | cluster: 1 nearby | src: USMIN</desc><sym>Star</sym></wpt><wpt lat="42.777037" lon="-124.208124"><name>OPEN-sixes-06</name><desc>Rusty Gulch (lode) | agency: USFS | 10m to stream | cluster: 0 nearby | src: MILO</desc><sym>Star</sym></wpt><trk><name>BLUE JAY [APPROX quarter-section]</name><desc>lode | serial ORMC152162 | 20.66 ac | Active | qtr-sec OR 33 0320S 0130W 022 A SW|OR 33 0320S 0130W 027 A NW | recorded~2021 (DB date, not legal located date) | src: BLM MLRS Not Closed | APPROX (BLM quarter-section)</desc><trkseg><trkpt lat="42.761980" lon="-124.236944"></trkpt><trkpt lat="42.765581" lon="-124.236884"></trkpt><trkpt lat="42.769182" lon="-124.236825"></trkpt><trkpt lat="42.772784" lon="-124.236847"></trkpt><trkpt lat="42.775319" lon="-124.236859"></trkpt><trkpt lat="42.776394" lon="-124.236861"></trkpt><trkpt lat="42.776408" lon="-124.231961"></trkpt><trkpt lat="42.776422" lon="-124.227061"></trkpt><trkpt lat="42.772812" lon="-124.227057"></trkpt><trkpt lat="42.769202" lon="-124.227054"></trkpt><trkpt lat="42.765597" lon="-124.227085"></trkpt><trkpt lat="42.761991" lon="-124.227116"></trkpt><trkpt lat="42.761986" lon="-124.232030"></trkpt><trkpt lat="42.761980" lon="-124.236944"></trkpt></trkseg></trk><trk><name>TATTOOED COYOTE [APPROX quarter-section]</name><desc>lode | serial ORMC158982 | 20.66 ac | Active | qtr-sec OR 33 0320S 0130W 023 A NE | recorded~2021 (DB date, not legal located date) | src: BLM MLRS Not Closed | APPROX (BLM quarter-section)</desc><trkseg><trkpt lat="42.776409" lon="-124.207407"></trkpt><trkpt lat="42.780039" lon="-124.207388"></trkpt><trkpt lat="42.783669" lon="-124.207369"></trkpt><trkpt lat="42.787298" lon="-124.207349"></trkpt><trkpt lat="42.788602" lon="-124.207342"></trkpt><trkpt lat="42.788611" lon="-124.203911"></trkpt><trkpt lat="42.788616" lon="-124.202470"></trkpt><trkpt lat="42.788623" lon="-124.200000"></trkpt><trkpt lat="42.776378" lon="-124.200000"></trkpt><trkpt lat="42.776388" lon="-124.202509"></trkpt><trkpt lat="42.776409" lon="-124.207407"></trkpt></trkseg></trk><trk><name>RUSTY NUGGET [APPROX quarter-section]</name><desc>lode | serial ORMC159457 | 20.66 ac | Active | qtr-sec OR 33 0320S 0130W 022 A SW|OR 33 0320S 0130W 027 A NE | recorded~2021 (DB date, not legal located date) | src: BLM MLRS Not Closed | APPROX (BLM quarter-section)</desc><trkseg><trkpt lat="42.769207" lon="-124.222275"></trkpt><trkpt lat="42.769207" lon="-124.222153"></trkpt><trkpt lat="42.769213" lon="-124.217252"></trkpt><trkpt lat="42.765607" lon="-124.217282"></trkpt><trkpt lat="42.762002" lon="-124.217312"></trkpt><trkpt lat="42.761997" lon="-124.222214"></trkpt><trkpt lat="42.761991" lon="-124.227116"></trkpt><trkpt lat="42.765597" lon="-124.227085"></trkpt><trkpt lat="42.769202" lon="-124.227054"></trkpt><trkpt lat="42.769207" lon="-124.222275"></trkpt></trkseg></trk><trk><name>RM Sixes [APPROX quarter-section]</name><desc>placer | serial OR105222736 | 20.0 ac | Active | qtr-sec OR 33 0320S 0130W 008 A NENE|OR 33 0320S 0130W 008 A SENE|OR 33 0320S 0130W 008 A NWNE|OR 33 0320S 0130W 008 A SWNE | recorded~2021 (DB date, not legal located date) | src: BLM MLRS Not Closed | APPROX (BLM quarter-section)</desc><trkseg><trkpt lat="42.805283" lon="-124.256105"></trkpt><trkpt lat="42.805299" lon="-124.261018"></trkpt><trkpt lat="42.805315" lon="-124.265932"></trkpt><trkpt lat="42.808910" lon="-124.265896"></trkpt><trkpt lat="42.812506" lon="-124.265860"></trkpt><trkpt lat="42.812503" lon="-124.260936"></trkpt><trkpt lat="42.812501" lon="-124.256012"></trkpt><trkpt lat="42.808892" lon="-124.256059"></trkpt><trkpt lat="42.805283" lon="-124.256105"></trkpt></trkseg></trk><trk><name>Hankie #2 [APPROX quarter-section]</name><desc>placer | serial OR105789379 | 20.0 ac | Active | qtr-sec OR 33 0320S 0130W 017 A SE|OR 33 0320S 0130W 017 A SWSE|OR 33 0320S 0130W 017 A NESE|OR 33 0320S 0130W 017 A SESE|OR 33 0320S 0130W 017 A NWSE | recorded~2022 (DB date, not legal located date) | src: BLM MLRS Not Closed | APPROX (BLM quarter-…</desc><trkseg><trkpt lat="42.783737" lon="-124.256343"></trkpt><trkpt lat="42.783736" lon="-124.261243"></trkpt><trkpt lat="42.783735" lon="-124.265098"></trkpt><trkpt lat="42.783735" lon="-124.266143"></trkpt><trkpt lat="42.787360" lon="-124.266108"></trkpt><trkpt lat="42.790986" lon="-124.266073"></trkpt><trkpt lat="42.790964" lon="-124.261157"></trkpt><trkpt lat="42.790943" lon="-124.256242"></trkpt><trkpt lat="42.787340" lon="-124.256293"></trkpt><trkpt lat="42.783737" lon="-124.256343"></trkpt></trkseg></trk><trk><name>Jak #3 [APPROX quarter-section]</name><desc>placer | serial OR105789380 | 20.0 ac | Active | qtr-sec OR 33 0320S 0130W 020 A NE|OR 33 0320S 0130W 020 A Unsurveyed Protracted PB40 | recorded~2022 (DB date, not legal located date) | src: BLM MLRS Not Closed | APPROX (BLM quarter-section)</desc><trkseg><trkpt lat="42.769213" lon="-124.275049"></trkpt><trkpt lat="42.783699" lon="-124.275068"></trkpt><trkpt lat="42.783735" lon="-124.266143"></trkpt><trkpt lat="42.783735" lon="-124.265098"></trkpt><trkpt lat="42.783736" lon="-124.261243"></trkpt><trkpt lat="42.783737" lon="-124.256343"></trkpt><trkpt lat="42.776475" lon="-124.255865"></trkpt><trkpt lat="42.776475" lon="-124.255885"></trkpt><trkpt lat="42.769213" lon="-124.255388"></trkpt><trkpt lat="42.769213" lon="-124.275049"></trkpt></trkseg></trk><trk><name>Big Trigger Dog [APPROX quarter-section]</name><desc>placer | serial OR105824636 | 60.0 ac | Filed | qtr-sec OR 33 0320S 0130W 026 A SW | recorded~2023 (DB date, not legal located date) | src: BLM MLRS Not Closed | APPROX (BLM quarter-section)</desc><trkseg><trkpt lat="42.762002" lon="-124.217312"></trkpt><trkpt lat="42.761992" lon="-124.212417"></trkpt><trkpt lat="42.761982" lon="-124.207522"></trkpt><trkpt lat="42.758380" lon="-124.207545"></trkpt><trkpt lat="42.754779" lon="-124.207569"></trkpt><trkpt lat="42.754785" lon="-124.212470"></trkpt><trkpt lat="42.754792" lon="-124.217372"></trkpt><trkpt lat="42.758397" lon="-124.217342"></trkpt><trkpt lat="42.762002" lon="-124.217312"></trkpt></trkseg></trk><trk><name>#2 SVINOR [APPROX quarter-section]</name><desc>placer | serial ORMC155518 | 20.0 ac | Active | qtr-sec OR 33 0320S 0130W 021 A NE | recorded~2021 (DB date, not legal located date) | src: BLM MLRS Not Closed | APPROX (BLM quarter-section)</desc><trkseg><trkpt lat="42.776435" lon="-124.246365"></trkpt><trkpt lat="42.783668" lon="-124.246624"></trkpt><trkpt lat="42.783599" lon="-124.236906"></trkpt><trkpt lat="42.776394" lon="-124.236861"></trkpt><trkpt lat="42.776435" lon="-124.246365"></trkpt></trkseg></trk><trk><name>#3 JAR L [APPROX quarter-section]</name><desc>placer | serial ORMC155519 | 20.0 ac | Active | qtr-sec OR 33 0320S 0130W 021 A NE | recorded~2021 (DB date, not legal located date) | src: BLM MLRS Not Closed | APPROX (BLM quarter-section)</desc><trkseg><trkpt lat="42.776435" lon="-124.246365"></trkpt><trkpt lat="42.783668" lon="-124.246624"></trkpt><trkpt lat="42.783599" lon="-124.236906"></trkpt><trkpt lat="42.776394" lon="-124.236861"></trkpt><trkpt lat="42.776435" lon="-124.246365"></trkpt></trkseg></trk><trk><name>JDL [APPROX quarter-section]</name><desc>placer | serial ORMC155572 | 50.0 ac | Active | qtr-sec OR 33 0320S 0130W 022 A SE|OR 33 0320S 0130W 027 A NE | recorded~2021 (DB date, not legal located date) | src: BLM MLRS Not Closed | APPROX (BLM quarter-section)</desc><trkseg><trkpt lat="42.761997" lon="-124.222214"></trkpt><trkpt lat="42.761991" lon="-124.227116"></trkpt><trkpt lat="42.765597" lon="-124.227085"></trkpt><trkpt lat="42.769202" lon="-124.227054"></trkpt><trkpt lat="42.772812" lon="-124.227057"></trkpt><trkpt lat="42.776422" lon="-124.227061"></trkpt><trkpt lat="42.776436" lon="-124.222145"></trkpt><trkpt lat="42.776450" lon="-124.217229"></trkpt><trkpt lat="42.772831" lon="-124.217241"></trkpt><trkpt lat="42.769213" lon="-124.217252"></trkpt><trkpt lat="42.765607" lon="-124.217282"></trkpt><trkpt lat="42.762002" lon="-124.217312"></trkpt><trkpt lat="42.761997" lon="-124.222214"></trkpt></trkseg></trk><trk><name>POVERTY PASS [APPROX quarter-section]</name><desc>placer | serial ORMC155648 | 40.0 ac | Active | qtr-sec OR 33 0320S 0130W 022 A SE|OR 33 0320S 0130W 027 A NE | recorded~2021 (DB date, not legal located date) | src: BLM MLRS Not Closed | APPROX (BLM quarter-section)</desc><trkseg><trkpt lat="42.761997" lon="-124.222214"></trkpt><trkpt lat="42.761991" lon="-124.227116"></trkpt><trkpt lat="42.765597" lon="-124.227085"></trkpt><trkpt lat="42.769202" lon="-124.227054"></trkpt><trkpt lat="42.772812" lon="-124.227057"></trkpt><trkpt lat="42.776422" lon="-124.227061"></trkpt><trkpt lat="42.776436" lon="-124.222145"></trkpt><trkpt lat="42.776450" lon="-124.217229"></trkpt><trkpt lat="42.772831" lon="-124.217241"></trkpt><trkpt lat="42.769213" lon="-124.217252"></trkpt><trkpt lat="42.765607" lon="-124.217282"></trkpt><trkpt lat="42.762002" lon="-124.217312"></trkpt><trkpt lat="42.761997" lon="-124.222214"></trkpt></trkseg></trk><trk><name>CONFEDERATE [APPROX quarter-section]</name><desc>placer | serial ORMC160783 | 80.0 ac | Active | qtr-sec OR 33 0320S 0130W 027 A NE|OR 33 0320S 0130W 027 A SE | recorded~2021 (DB date, not legal located date) | src: BLM MLRS Not Closed | APPROX (BLM quarter-section)</desc><trkseg><trkpt lat="42.754782" lon="-124.222275"></trkpt><trkpt lat="42.754772" lon="-124.227179"></trkpt><trkpt lat="42.758382" lon="-124.227148"></trkpt><trkpt lat="42.761991" lon="-124.227116"></trkpt><trkpt lat="42.765597" lon="-124.227085"></trkpt><trkpt lat="42.769202" lon="-124.227054"></trkpt><trkpt lat="42.769207" lon="-124.222275"></trkpt><trkpt lat="42.769207" lon="-124.222153"></trkpt><trkpt lat="42.769213" lon="-124.217252"></trkpt><trkpt lat="42.765607" lon="-124.217282"></trkpt><trkpt lat="42.762002" lon="-124.217312"></trkpt><trkpt lat="42.758397" lon="-124.217342"></trkpt><trkpt lat="42.754792" lon="-124.217372"></trkpt><trkpt lat="42.754782" lon="-124.222275"></trkpt></trkseg></trk><trk><name>#2 MONA [APPROX quarter-section]</name><desc>placer | serial ORMC164503 | 20.0 ac | Active | qtr-sec OR 33 0320S 0130W 021 A NE | recorded~2021 (DB date, not legal located date) | src: BLM MLRS Not Closed | APPROX (BLM quarter-section)</desc><trkseg><trkpt lat="42.776435" lon="-124.246365"></trkpt><trkpt lat="42.783668" lon="-124.246624"></trkpt><trkpt lat="42.783599" lon="-124.236906"></trkpt><trkpt lat="42.776394" lon="-124.236861"></trkpt><trkpt lat="42.776435" lon="-124.246365"></trkpt></trkseg></trk><trk><name>#5 NORGE [APPROX quarter-section]</name><desc>placer | serial ORMC164504 | 20.0 ac | Active | qtr-sec OR 33 0320S 0130W 021 A NE | recorded~2021 (DB date, not legal located date) | src: BLM MLRS Not Closed | APPROX (BLM quarter-section)</desc><trkseg><trkpt lat="42.776435" lon="-124.246365"></trkpt><trkpt lat="42.783668" lon="-124.246624"></trkpt><trkpt lat="42.783599" lon="-124.236906"></trkpt><trkpt lat="42.776394" lon="-124.236861"></trkpt><trkpt lat="42.776435" lon="-124.246365"></trkpt></trkseg></trk><trk><name>DOUGLAS BONANZA [APPROX quarter-section]</name><desc>placer | serial ORMC165199 | 60.0 ac | Active | qtr-sec OR 33 0320S 0130W 008 A NW | recorded~2021 (DB date, not legal located date) | src: BLM MLRS Not Closed | APPROX (BLM quarter-section)</desc><trkseg><trkpt lat="42.808953" lon="-124.275724"></trkpt><trkpt lat="42.812561" lon="-124.275693"></trkpt><trkpt lat="42.812533" lon="-124.270776"></trkpt><trkpt lat="42.812506" lon="-124.265860"></trkpt><trkpt lat="42.808910" lon="-124.265896"></trkpt><trkpt lat="42.805315" lon="-124.265932"></trkpt><trkpt lat="42.805331" lon="-124.270843"></trkpt><trkpt lat="42.805346" lon="-124.275755"></trkpt><trkpt lat="42.808953" lon="-124.275724"></trkpt></trkseg></trk><trk><name>JENNIFER [APPROX quarter-section]</name><desc>placer | serial ORMC167882 | 20.0 ac | Active | qtr-sec OR 33 0320S 0130W 008 A NW | recorded~2021 (DB date, not legal located date) | src: BLM MLRS Not Closed | APPROX (BLM quarter-section)</desc><trkseg><trkpt lat="42.808953" lon="-124.275724"></trkpt><trkpt lat="42.812561" lon="-124.275693"></trkpt><trkpt lat="42.812533" lon="-124.270776"></trkpt><trkpt lat="42.812506" lon="-124.265860"></trkpt><trkpt lat="42.808910" lon="-124.265896"></trkpt><trkpt lat="42.805315" lon="-124.265932"></trkpt><trkpt lat="42.805331" lon="-124.270843"></trkpt><trkpt lat="42.805346" lon="-124.275755"></trkpt><trkpt lat="42.808953" lon="-124.275724"></trkpt></trkseg></trk><trk><name>BEAR PAN FLAT [APPROX quarter-section]</name><desc>placer | serial ORMC168903 | 40.0 ac | Active | qtr-sec OR 33 0320S 0130W 022 A NW|OR 33 0320S 0130W 022 A SW|OR 33 0320S 0130W 021 A NE|OR 33 0320S 0130W 021 A SE | recorded~2021 (DB date, not legal located date) | src: BLM MLRS Not Closed | APPROX (BLM quarter-section)</desc><trkseg><trkpt lat="42.769202" lon="-124.227054"></trkpt><trkpt lat="42.769192" lon="-124.231939"></trkpt><trkpt lat="42.769182" lon="-124.236825"></trkpt><trkpt lat="42.769197" lon="-124.246106"></trkpt><trkpt lat="42.776435" lon="-124.246365"></trkpt><trkpt lat="42.783668" lon="-124.246624"></trkpt><trkpt lat="42.783599" lon="-124.236906"></trkpt><trkpt lat="42.787165" lon="-124.236918"></trkpt><trkpt lat="42.787215" lon="-124.236918"></trkpt><trkpt lat="42.788494" lon="-124.236923"></trkpt><trkpt lat="42.788508" lon="-124.233213"></trkpt><trkpt lat="42.788513" lon="-124.231998"></trkpt><trkpt lat="42.788527" lon="-124.228372"></trkpt><trkpt lat="42.788533" lon="-124.227072"></trkpt><trkpt lat="42.787231" lon="-124.227071"></trkpt><trkpt lat="42.783628" lon="-124.227068"></trkpt><trkpt lat="42.780025" lon="-124.227064"></trkpt><trkpt lat="42.776422" lon="-124.227061"></trkpt><trkpt lat="42.772812" lon="-124.227057"></trkpt><trkpt lat="42.769202" lon="-124.227054"></trkpt></trkseg></trk><trk><name>HUMMINGBIRD [APPROX quarter-section]</name><desc>placer | serial ORMC168904 | 20.0 ac | Active | qtr-sec OR 33 0320S 0130W 022 A SW | recorded~2021 (DB date, not legal located date) | src: BLM MLRS Not Closed | APPROX (BLM quarter-section)</desc><trkseg><trkpt lat="42.775319" lon="-124.236859"></trkpt><trkpt lat="42.776394" lon="-124.236861"></trkpt><trkpt lat="42.776408" lon="-124.231961"></trkpt><trkpt lat="42.776422" lon="-124.227061"></trkpt><trkpt lat="42.772812" lon="-124.227057"></trkpt><trkpt lat="42.769202" lon="-124.227054"></trkpt><trkpt lat="42.769192" lon="-124.231939"></trkpt><trkpt lat="42.769182" lon="-124.236825"></trkpt><trkpt lat="42.772784" lon="-124.236847"></trkpt><trkpt lat="42.775319" lon="-124.236859"></trkpt></trkseg></trk><trk><name>RSM [APPROX quarter-section]</name><desc>placer | serial ORMC176614 | 40.0 ac | Active | qtr-sec OR 33 0320S 0130W 023 A SW|OR 33 0320S 0130W 023 A SE | recorded~2021 (DB date, not legal located date) | src: BLM MLRS Not Closed | APPROX (BLM quarter-section)</desc><trkseg><trkpt lat="42.769184" lon="-124.207460"></trkpt><trkpt lat="42.769198" lon="-124.212356"></trkpt><trkpt lat="42.769213" lon="-124.217252"></trkpt><trkpt lat="42.772831" lon="-124.217241"></trkpt><trkpt lat="42.776450" lon="-124.217229"></trkpt><trkpt lat="42.776429" lon="-124.212318"></trkpt><trkpt lat="42.776409" lon="-124.207407"></trkpt><trkpt lat="42.776388" lon="-124.202509"></trkpt><trkpt lat="42.776378" lon="-124.200000"></trkpt><trkpt lat="42.769162" lon="-124.200000"></trkpt><trkpt lat="42.769170" lon="-124.202542"></trkpt><trkpt lat="42.769170" lon="-124.202587"></trkpt><trkpt lat="42.769184" lon="-124.207460"></trkpt></trkseg></trk><trk><name>GOLDEN DRAGON [APPROX quarter-section]</name><desc>placer | serial ORMC177068 | 20.0 ac | Active | qtr-sec OR 33 0320S 0130W 021 A NW | recorded~2021 (DB date, not legal located date) | src: BLM MLRS Not Closed | APPROX (BLM quarter-section)</desc><trkseg><trkpt lat="42.776475" lon="-124.255865"></trkpt><trkpt lat="42.783737" lon="-124.256343"></trkpt><trkpt lat="42.783668" lon="-124.246624"></trkpt><trkpt lat="42.776435" lon="-124.246365"></trkpt><trkpt lat="42.776475" lon="-124.255865"></trkpt></trkseg></trk><trk><name>LAURINA #1 [APPROX quarter-section]</name><desc>placer | serial ORMC177069 | 20.0 ac | Active | qtr-sec OR 33 0320S 0130W 022 A SW | recorded~2021 (DB date, not legal located date) | src: BLM MLRS Not Closed | APPROX (BLM quarter-section)</desc><trkseg><trkpt lat="42.769192" lon="-124.231939"></trkpt><trkpt lat="42.769182" lon="-124.236825"></trkpt><trkpt lat="42.772784" lon="-124.236847"></trkpt><trkpt lat="42.775319" lon="-124.236859"></trkpt><trkpt lat="42.776394" lon="-124.236861"></trkpt><trkpt lat="42.776408" lon="-124.231961"></trkpt><trkpt lat="42.776422" lon="-124.227061"></trkpt><trkpt lat="42.772812" lon="-124.227057"></trkpt><trkpt lat="42.769202" lon="-124.227054"></trkpt><trkpt lat="42.769192" lon="-124.231939"></trkpt></trkseg></trk><trk><name>LAURINA #2 [APPROX quarter-section]</name><desc>placer | serial ORMC177070 | 20.0 ac | Active | qtr-sec OR 33 0320S 0130W 022 A SW | recorded~2021 (DB date, not legal located date) | src: BLM MLRS Not Closed | APPROX (BLM quarter-section)</desc><trkseg><trkpt lat="42.769192" lon="-124.231939"></trkpt><trkpt lat="42.769182" lon="-124.236825"></trkpt><trkpt lat="42.772784" lon="-124.236847"></trkpt><trkpt lat="42.775319" lon="-124.236859"></trkpt><trkpt lat="42.776394" lon="-124.236861"></trkpt><trkpt lat="42.776408" lon="-124.231961"></trkpt><trkpt lat="42.776422" lon="-124.227061"></trkpt><trkpt lat="42.772812" lon="-124.227057"></trkpt><trkpt lat="42.769202" lon="-124.227054"></trkpt><trkpt lat="42.769192" lon="-124.231939"></trkpt></trkseg></trk><trk><name>LUCKY NUGGET [APPROX quarter-section]</name><desc>placer | serial ORMC177071 | 20.0 ac | Active | qtr-sec OR 33 0320S 0130W 017 A SE|OR 33 0320S 0130W 020 A NE | recorded~2021 (DB date, not legal located date) | src: BLM MLRS Not Closed | APPROX (BLM quarter-section)</desc><trkseg><trkpt lat="42.790986" lon="-124.266073"></trkpt><trkpt lat="42.790964" lon="-124.261157"></trkpt><trkpt lat="42.790943" lon="-124.256242"></trkpt><trkpt lat="42.787340" lon="-124.256293"></trkpt><trkpt lat="42.783737" lon="-124.256343"></trkpt><trkpt lat="42.783736" lon="-124.261243"></trkpt><trkpt lat="42.783735" lon="-124.265098"></trkpt><trkpt lat="42.783735" lon="-124.266143"></trkpt><trkpt lat="42.787360" lon="-124.266108"></trkpt><trkpt lat="42.790986" lon="-124.266073"></trkpt></trkseg></trk><trk><name>T AND M [APPROX quarter-section]</name><desc>placer | serial ORMC177072 | 20.0 ac | Active | qtr-sec OR 33 0320S 0130W 020 A NE|OR 33 0320S 0130W 021 A NW | recorded~2021 (DB date, not legal located date) | src: BLM MLRS Not Closed | APPROX (BLM quarter-section)</desc><trkseg><trkpt lat="42.776475" lon="-124.255865"></trkpt><trkpt lat="42.776466" lon="-124.265462"></trkpt><trkpt lat="42.783718" lon="-124.265705"></trkpt><trkpt lat="42.783737" lon="-124.256343"></trkpt><trkpt lat="42.783668" lon="-124.246624"></trkpt><trkpt lat="42.776435" lon="-124.246365"></trkpt><trkpt lat="42.776475" lon="-124.255865"></trkpt></trkseg></trk><trk><name>FOUR K [APPROX quarter-section]</name><desc>placer | serial ORMC178101 | 60.0 ac | Active | qtr-sec OR 33 0320S 0130W 027 A NW | recorded~2021 (DB date, not legal located date) | src: BLM MLRS Not Closed | APPROX (BLM quarter-section)</desc><trkseg><trkpt lat="42.769202" lon="-124.227054"></trkpt><trkpt lat="42.765597" lon="-124.227085"></trkpt><trkpt lat="42.761991" lon="-124.227116"></trkpt><trkpt lat="42.761986" lon="-124.232030"></trkpt><trkpt lat="42.761980" lon="-124.236944"></trkpt><trkpt lat="42.765581" lon="-124.236884"></trkpt><trkpt lat="42.769182" lon="-124.236825"></trkpt><trkpt lat="42.769192" lon="-124.231939"></trkpt><trkpt lat="42.769202" lon="-124.227054"></trkpt></trkseg></trk><trk><name>CLEMENTINE 1&amp;2 [APPROX quarter-section]</name><desc>placer | serial ORMC25726 | 40.0 ac | Active | qtr-sec OR 33 0320S 0130W 007 A NENW | recorded~2021 (DB date, not legal located date) | src: BLM MLRS Not Closed | APPROX (BLM quarter-section)</desc><trkseg><trkpt lat="42.809036" lon="-124.285519"></trkpt><trkpt lat="42.809052" lon="-124.290426"></trkpt><trkpt lat="42.812677" lon="-124.290396"></trkpt><trkpt lat="42.812672" lon="-124.285492"></trkpt><trkpt lat="42.809036" lon="-124.285519"></trkpt></trkseg></trk><trk><name>Splash #2 [APPROX quarter-section]</name><desc>placer | serial OR105789381 | 20.0 ac | Active | qtr-sec OR 33 0320S 0130W 020 A Unsurveyed Protracted PB40|OR 33 0320S 0130W 020 A NE | recorded~2023 (DB date, not legal located date) | src: BLM MLRS Not Closed | APPROX (BLM quarter-section)</desc><trkseg><trkpt lat="42.769213" lon="-124.275049"></trkpt><trkpt lat="42.783699" lon="-124.275068"></trkpt><trkpt lat="42.783735" lon="-124.266143"></trkpt><trkpt lat="42.783735" lon="-124.265098"></trkpt><trkpt lat="42.783736" lon="-124.261243"></trkpt><trkpt lat="42.783737" lon="-124.256343"></trkpt><trkpt lat="42.776475" lon="-124.255865"></trkpt><trkpt lat="42.776475" lon="-124.255885"></trkpt><trkpt lat="42.769213" lon="-124.255388"></trkpt><trkpt lat="42.769213" lon="-124.275049"></trkpt></trkseg></trk><trk><name>HOPE 2 [APPROX quarter-section]</name><desc>placer | serial OR106324275 | 1586.84 ac | Active | qtr-sec OR 33 0320S 0130W 007 Lot1 | OR 33 0320S 0130W 007 Lot2 | OR 33 0320S 0130W 007 A NW | recorded~2023 (DB date, not legal located date) | src: BLM MLRS Not Closed | APPROX (BLM quarter-section)</desc><trkseg><trkpt lat="42.806101" lon="-124.297167"></trkpt><trkpt lat="42.809074" lon="-124.297159"></trkpt><trkpt lat="42.809711" lon="-124.297157"></trkpt><trkpt lat="42.812686" lon="-124.297148"></trkpt><trkpt lat="42.812677" lon="-124.290396"></trkpt><trkpt lat="42.812672" lon="-124.285492"></trkpt><trkpt lat="42.809036" lon="-124.285519"></trkpt><trkpt lat="42.805400" lon="-124.285547"></trkpt><trkpt lat="42.805426" lon="-124.290455"></trkpt><trkpt lat="42.805462" lon="-124.297161"></trkpt><trkpt lat="42.806101" lon="-124.297167"></trkpt></trkseg></trk><trk><name>Calli Star [APPROX quarter-section]</name><desc>placer | serial OR106324276 | 160.0 ac | Active | qtr-sec OR 33 0320S 0130W 007 A NE | recorded~2023 (DB date, not legal located date) | src: BLM MLRS Not Closed | APPROX (BLM quarter-section)</desc><trkseg><trkpt lat="42.805400" lon="-124.285547"></trkpt><trkpt lat="42.809036" lon="-124.285519"></trkpt><trkpt lat="42.812672" lon="-124.285492"></trkpt><trkpt lat="42.812616" lon="-124.280592"></trkpt><trkpt lat="42.812561" lon="-124.275693"></trkpt><trkpt lat="42.808953" lon="-124.275724"></trkpt><trkpt lat="42.805346" lon="-124.275755"></trkpt><trkpt lat="42.805373" lon="-124.280651"></trkpt><trkpt lat="42.805400" lon="-124.285547"></trkpt></trkseg></trk><trk><name>NEW BEGINNINGS [APPROX quarter-section]</name><desc>placer | serial OR106324277 | 160.0 ac | Active | qtr-sec OR 33 0320S 0130W 007 A NE | recorded~2023 (DB date, not legal located date) | src: BLM MLRS Not Closed | APPROX (BLM quarter-section)</desc><trkseg><trkpt lat="42.805400" lon="-124.285547"></trkpt><trkpt lat="42.809036" lon="-124.285519"></trkpt><trkpt lat="42.812672" lon="-124.285492"></trkpt><trkpt lat="42.812616" lon="-124.280592"></trkpt><trkpt lat="42.812561" lon="-124.275693"></trkpt><trkpt lat="42.808953" lon="-124.275724"></trkpt><trkpt lat="42.805346" lon="-124.275755"></trkpt><trkpt lat="42.805373" lon="-124.280651"></trkpt><trkpt lat="42.805400" lon="-124.285547"></trkpt></trkseg></trk><trk><name>JANNY-D [APPROX quarter-section]</name><desc>placer | serial OR106707112 | 120.0 ac | Filed | qtr-sec OR 33 0320S 0130W 008 E2SESWNE | OR 33 0320S 0130W 008 SWSENE | OR 33 0320S 0130W 008 W2SESENE | recorded~2024 (DB date, not legal located date) | src: BLM MLRS Not Closed | APPROX (BLM quarter-section)</desc><trkseg><trkpt lat="42.805287" lon="-124.257333"></trkpt><trkpt lat="42.805291" lon="-124.258562"></trkpt><trkpt lat="42.806192" lon="-124.258551"></trkpt><trkpt lat="42.807094" lon="-124.258540"></trkpt><trkpt lat="42.807091" lon="-124.257311"></trkpt><trkpt lat="42.806189" lon="-124.257322"></trkpt><trkpt lat="42.805287" lon="-124.257333"></trkpt></trkseg></trk><trk><name>DB #2 [APPROX quarter-section]</name><desc>placer | serial OR106712465 | 120.0 ac | Filed | qtr-sec OR 33 0320S 0130W 022 SWSE,SESW | OR 33 0320S 0130W 027 NENW | recorded~2025 (DB date, not legal located date) | src: BLM MLRS Not Closed | APPROX (BLM quarter-section)</desc><trkseg><trkpt lat="42.765589" lon="-124.231985"></trkpt><trkpt lat="42.769192" lon="-124.231939"></trkpt><trkpt lat="42.769202" lon="-124.227054"></trkpt><trkpt lat="42.765597" lon="-124.227085"></trkpt><trkpt lat="42.765589" lon="-124.231985"></trkpt></trkseg></trk><trk><name>DB #1 [APPROX quarter-section]</name><desc>placer | serial OR106712464 | 857.8 ac | Filed | qtr-sec OR 33 0320S 0130W 022 NESE1/4S1/2 | recorded~2025 (DB date, not legal located date) | src: BLM MLRS Not Closed | APPROX (BLM quarter-section)</desc><trkseg><trkpt lat="42.769182" lon="-124.236825"></trkpt><trkpt lat="42.772784" lon="-124.236847"></trkpt><trkpt lat="42.775319" lon="-124.236859"></trkpt><trkpt lat="42.776394" lon="-124.236861"></trkpt><trkpt lat="42.779997" lon="-124.236883"></trkpt><trkpt lat="42.783599" lon="-124.236906"></trkpt><trkpt lat="42.787165" lon="-124.236918"></trkpt><trkpt lat="42.787215" lon="-124.236918"></trkpt><trkpt lat="42.788494" lon="-124.236923"></trkpt><trkpt lat="42.788508" lon="-124.233213"></trkpt><trkpt lat="42.788513" lon="-124.231998"></trkpt><trkpt lat="42.788527" lon="-124.228372"></trkpt><trkpt lat="42.788533" lon="-124.227072"></trkpt><trkpt lat="42.788549" lon="-124.223454"></trkpt><trkpt lat="42.788555" lon="-124.222147"></trkpt><trkpt lat="42.788571" lon="-124.218537"></trkpt><trkpt lat="42.788577" lon="-124.217214"></trkpt><trkpt lat="42.787309" lon="-124.217214"></trkpt><trkpt lat="42.783689" lon="-124.217219"></trkpt><trkpt lat="42.780070" lon="-124.217224"></trkpt><trkpt lat="42.776450" lon="-124.217229"></trkpt><trkpt lat="42.772831" lon="-124.217241"></trkpt><trkpt lat="42.769213" lon="-124.217252"></trkpt><trkpt lat="42.769207" lon="-124.222153"></trkpt><trkpt lat="42.769207" lon="-124.222275"></trkpt><trkpt lat="42.769202" lon="-124.227054"></trkpt><trkpt lat="42.769192" lon="-124.231939"></trkpt><trkpt lat="42.769182" lon="-124.236825"></trkpt></trkseg></trk><trk><name>Hell Begins [APPROX quarter-section]</name><desc>placer | serial OR106761546 | 40.0 ac | Active | qtr-sec OR 33 0320S 0130W 027 A NESE | recorded~2025 (DB date, not legal located date) | src: BLM MLRS Not Closed | APPROX (BLM quarter-section)</desc><trkseg><trkpt lat="42.758390" lon="-124.222245"></trkpt><trkpt lat="42.761997" lon="-124.222214"></trkpt><trkpt lat="42.762002" lon="-124.217312"></trkpt><trkpt lat="42.758397" lon="-124.217342"></trkpt><trkpt lat="42.758390" lon="-124.222245"></trkpt></trkseg></trk></gpx>