<?xml version="1.0" encoding="UTF-8"?><kml xmlns="http://www.opengis.net/kml/2.2"><Document><name>Sixes River</name><Style id="my_claim"><IconStyle><color>ff00a5ff</color><scale>1.0</scale><Icon><href>http://maps.google.com/mapfiles/kml/paddle/orange-circle.png</href></Icon></IconStyle></Style><Style id="public_site"><IconStyle><color>ff008000</color><scale>1.0</scale><Icon><href>http://maps.google.com/mapfiles/kml/paddle/grn-circle.png</href></Icon></IconStyle></Style><Style id="usmin"><IconStyle><color>ff000000</color><scale>0.7</scale><Icon><href>http://maps.google.com/mapfiles/kml/shapes/placemark_circle.png</href></Icon></IconStyle></Style><Style id="usmin_polygon"><LineStyle><color>ff000000</color><width>2</width></LineStyle><PolyStyle><color>40000000</color></PolyStyle></Style><Style id="milo_gold"><IconStyle><color>ff00d7ff</color><scale>1.0</scale><Icon><href>http://maps.google.com/mapfiles/kml/shapes/mining.png</href></Icon></IconStyle></Style><Style id="site_other"><IconStyle><color>ff808080</color><scale>0.8</scale><Icon><href>http://maps.google.com/mapfiles/kml/shapes/placemark_circle.png</href></Icon></IconStyle></Style><Style id="active_claim"><LineStyle><color>ff0000ff</color><width>2</width></LineStyle><PolyStyle><color>660000ff</color></PolyStyle></Style><Style id="density_low"><LineStyle><color>ff00ffff</color><width>2</width></LineStyle><PolyStyle><color>9900ffff</color></PolyStyle></Style><Style id="density_med"><LineStyle><color>ff00a5ff</color><width>2</width></LineStyle><PolyStyle><color>9900a5ff</color></PolyStyle></Style><Style id="density_high"><LineStyle><color>ff0000ff</color><width>2</width></LineStyle><PolyStyle><color>990000ff</color></PolyStyle></Style><Style id="open_ground"><IconStyle><color>ff00ff00</color><scale>1.1</scale><Icon><href>http://maps.google.com/mapfiles/kml/shapes/star.png</href></Icon></IconStyle></Style><Folder><name>My claims &amp; public sites</name><Placemark><name>Sixes River Campground (rec mining)</name><description>public | serial n/a | precision: published | published site</description><styleUrl>#public_site</styleUrl><Point><coordinates>-124.312700,42.805000,0</coordinates></Point></Placemark></Folder><Folder><name>Historical workings (USMIN)</name><Placemark><name>Prospect Pit</name><description>USMIN Prospect Pit | topo: Barklow Mountain (1986) 1:24000 | src: USGS USMIN</description><styleUrl>#usmin</styleUrl><Point><coordinates>-124.229633,42.774945,0</coordinates></Point></Placemark><Placemark><name>Open Pit Mine</name><description>USMIN Open Pit Mine | topo: Langlois (1954) 1:62500 | src: USGS USMIN</description><styleUrl>#usmin</styleUrl><Point><coordinates>-124.304058,42.804526,0</coordinates></Point></Placemark><Placemark><name>Prospect Pit</name><description>USMIN Prospect Pit | topo: Langlois (1954) 1:62500 | src: USGS USMIN</description><styleUrl>#usmin</styleUrl><Point><coordinates>-124.320290,42.847328,0</coordinates></Point></Placemark><Placemark><name>Prospect Pit</name><description>USMIN Prospect Pit | topo: Powers (1954) 1:62500 | src: USGS USMIN</description><styleUrl>#usmin</styleUrl><Point><coordinates>-124.233142,42.767766,0</coordinates></Point></Placemark><Placemark><name>Adit</name><description>USMIN Adit | topo: Barklow Mountain (1986) 1:24000 | src: USGS USMIN</description><styleUrl>#usmin</styleUrl><Point><coordinates>-124.235799,42.768098,0</coordinates></Point></Placemark></Folder><Folder><name>Mine &amp; prospect sites (MILO/MRDS, gold)</name><Placemark><name>Corbin</name><description>MILO gold | gold, platinum, iridium | placer | discovered ? | prod started ? | size: small | src: DOGAMI MILO-4 ID_04889</description><styleUrl>#milo_gold</styleUrl><Point><coordinates>-124.399842,42.809281,0</coordinates></Point></Placemark><Placemark><name>Divelbiss No.2</name><description>MILO gold | gold, platinum, chromium, mercury | placer | discovered ? | prod started ? | size: small | src: DOGAMI MILO-4 ID_04891</description><styleUrl>#milo_gold</styleUrl><Point><coordinates>-124.392900,42.807336,0</coordinates></Point></Placemark><Placemark><name>Mccormick Mining and Mineral Co.</name><description>MILO gold | gold | unknown | discovered ? | prod started ? | size: n/a | src: DOGAMI MILO-4 ID_04892</description><styleUrl>#milo_gold</styleUrl><Point><coordinates>-124.386789,42.806783,0</coordinates></Point></Placemark><Placemark><name>Sunrise gold Mining Co.</name><description>MILO gold | gold | unknown | discovered ? | prod started ? | size: n/a | src: DOGAMI MILO-4 ID_04898</description><styleUrl>#milo_gold</styleUrl><Point><coordinates>-124.359184,42.812655,0</coordinates></Point></Placemark><Placemark><name>Sixes River placers</name><description>MILO gold | gold, platinum, chromium, mercury, iridium | placer | discovered ? | prod started ? | size: small | src: DOGAMI MILO-4 ID_04899</description><styleUrl>#milo_gold</styleUrl><Point><coordinates>-124.317896,42.804001,0</coordinates></Point></Placemark><Placemark><name>Butcher Hill Quartz</name><description>MILO gold | gold | lode | discovered ? | prod started ? | size: n/a | src: DOGAMI MILO-4 ID_04903</description><styleUrl>#milo_gold</styleUrl><Point><coordinates>-124.238171,42.774003,0</coordinates></Point></Placemark><Placemark><name>Combination</name><description>MILO gold | gold, silver, zinc, lead | lode | discovered ? | prod started ? | size: n/a | src: DOGAMI MILO-4 ID_04904</description><styleUrl>#milo_gold</styleUrl><Point><coordinates>-124.227925,42.772952,0</coordinates></Point></Placemark><Placemark><name>Bear Cat</name><description>MILO gold | gold, silver | lode | discovered ? | prod started ? | size: n/a | src: DOGAMI MILO-4 ID_04905</description><styleUrl>#milo_gold</styleUrl><Point><coordinates>-124.227337,42.778447,0</coordinates></Point></Placemark><Placemark><name>Big Ben</name><description>MILO gold | gold, silver, lead, copper, arsenic | lode | discovered ? | prod started ? | size: n/a | src: DOGAMI MILO-4 ID_04908</description><styleUrl>#milo_gold</styleUrl><Point><coordinates>-124.205112,42.770948,0</coordinates></Point></Placemark><Placemark><name>War Baby</name><description>MILO gold | copper, gold, silver, zinc | lode | discovered ? | prod started ? | size: n/a | src: DOGAMI MILO-4 ID_04909</description><styleUrl>#milo_gold</styleUrl><Point><coordinates>-124.214832,42.769281,0</coordinates></Point></Placemark><Placemark><name>Section 27 gold prospect</name><description>MILO gold | gold | lode | discovered ? | prod started ? | size: n/a | src: DOGAMI MILO-4 ID_04910</description><styleUrl>#milo_gold</styleUrl><Point><coordinates>-124.235856,42.767979,0</coordinates></Point></Placemark><Placemark><name>Combination</name><description>MILO gold | gold, silver, zinc, lead | lode | discovered ? | prod started ? | size: n/a | src: DOGAMI MILO-4 ID_14804</description><styleUrl>#milo_gold</styleUrl><Point><coordinates>-124.228192,42.772849,0</coordinates></Point></Placemark><Placemark><name>Wagner Claims</name><description>MILO gold | gold | placer | discovered ? | prod started ? | size: n/a | src: DOGAMI MILO-4 ID_18978</description><styleUrl>#milo_gold</styleUrl><Point><coordinates>-124.245625,42.768737,0</coordinates></Point></Placemark><Placemark><name>Way Claims</name><description>MILO gold | gold | placer | discovered ? | prod started ? | size: n/a | src: DOGAMI MILO-4 ID_18980</description><styleUrl>#milo_gold</styleUrl><Point><coordinates>-124.240126,42.779037,0</coordinates></Point></Placemark><Placemark><name>Guerin Claim</name><description>MILO gold | gold, chromium | placer | discovered ? | prod started ? | size: n/a | src: DOGAMI MILO-4 ID_18981</description><styleUrl>#milo_gold</styleUrl><Point><coordinates>-124.246825,42.776237,0</coordinates></Point></Placemark><Placemark><name>Wallace and Hanly Claimss</name><description>MILO gold | gold | placer | discovered ? | prod started ? | size: n/a | src: DOGAMI MILO-4 ID_18982</description><styleUrl>#milo_gold</styleUrl><Point><coordinates>-124.229689,42.774880,0</coordinates></Point></Placemark><Placemark><name>Rusty Gulch</name><description>MILO gold | gold, silver | lode | discovered ? | prod started ? | size: n/a | src: DOGAMI MILO-4 ID_18983</description><styleUrl>#milo_gold</styleUrl><Point><coordinates>-124.208124,42.777037,0</coordinates></Point></Placemark><Placemark><name>Smith and Robinson Claims</name><description>MILO gold | gold | placer (heuristic: surface workings) | discovered ? | prod started ? | size: n/a | src: DOGAMI MILO-4 ID_18984</description><styleUrl>#milo_gold</styleUrl><Point><coordinates>-124.220924,42.768437,0</coordinates></Point></Placemark><Placemark><name>Inman Mine</name><description>MILO gold | gold placer | placer (heuristic: surface workings) | discovered ? | prod started ? | size: n/a | src: DOGAMI MILO-4 ID_24675</description><styleUrl>#milo_gold</styleUrl><Point><coordinates>-124.304314,42.804505,0</coordinates></Point></Placemark><Placemark><name>Mccormick Mining &amp; Mineral Co</name><description>MRDS gold occurrence | status: Unknown | commodities: AU | src: https://mrdata.usgs.gov/mrds/show-mrds.php?dep_id=10200791</description><styleUrl>#site_other</styleUrl><Point><coordinates>-124.386790,42.806710,0</coordinates></Point></Placemark><Placemark><name>Mccormick Mining &amp; Mineral Co</name><description>MRDS gold occurrence | status: Past Producer | commodities: AU | src: https://mrdata.usgs.gov/mrds/show-mrds.php?dep_id=10099030</description><styleUrl>#site_other</styleUrl><Point><coordinates>-124.386750,42.806750,0</coordinates></Point></Placemark><Placemark><name>Little Otter Placer</name><description>MRDS gold occurrence | status: Occurrence | commodities: AU | src: https://mrdata.usgs.gov/mrds/show-mrds.php?dep_id=10152646</description><styleUrl>#site_other</styleUrl><Point><coordinates>-124.283980,42.812310,0</coordinates></Point></Placemark><Placemark><name>Siskiyou Mining Co</name><description>MRDS gold occurrence | status: Prospect | commodities: AU | src: https://mrdata.usgs.gov/mrds/show-mrds.php?dep_id=10250028</description><styleUrl>#site_other</styleUrl><Point><coordinates>-124.288680,42.811210,0</coordinates></Point></Placemark><Placemark><name>Hydro Sixes Mining Company</name><description>MRDS gold occurrence | status: Prospect | commodities: AU | src: https://mrdata.usgs.gov/mrds/show-mrds.php?dep_id=10249823</description><styleUrl>#site_other</styleUrl><Point><coordinates>-124.271180,42.810610,0</coordinates></Point></Placemark><Placemark><name>Wallace &amp; Hanly Claimss</name><description>MRDS gold occurrence | status: Prospect | commodities: AU | src: https://mrdata.usgs.gov/mrds/show-mrds.php?dep_id=10273986</description><styleUrl>#site_other</styleUrl><Point><coordinates>-124.228680,42.774510,0</coordinates></Point></Placemark></Folder><Folder><name>Active mining claims (BLM MLRS)</name><Placemark><name>BLUE JAY [APPROX quarter-section]</name><description>lode | serial ORMC152162 | 20.66 ac | Active | qtr-sec OR 33 0320S 0130W 022 A SW|OR 33 0320S 0130W 027 A NW | recorded~2021 (DB date, not legal located date) | src: BLM MLRS Not Closed | APPROX (BLM quarter-section)</description><styleUrl>#active_claim</styleUrl><Polygon><outerBoundaryIs><LinearRing><coordinates>-124.236944,42.761980,0 -124.236884,42.765581,0 -124.236825,42.769182,0 -124.236847,42.772784,0 -124.236859,42.775319,0 -124.236861,42.776394,0 -124.231961,42.776408,0 -124.227061,42.776422,0 -124.227057,42.772812,0 -124.227054,42.769202,0 -124.227085,42.765597,0 -124.227116,42.761991,0 -124.232030,42.761986,0 -124.236944,42.761980,0</coordinates></LinearRing></outerBoundaryIs></Polygon></Placemark><Placemark><name>TATTOOED COYOTE [APPROX quarter-section]</name><description>lode | serial ORMC158982 | 20.66 ac | Active | qtr-sec OR 33 0320S 0130W 023 A NE | recorded~2021 (DB date, not legal located date) | src: BLM MLRS Not Closed | APPROX (BLM quarter-section)</description><styleUrl>#active_claim</styleUrl><Polygon><outerBoundaryIs><LinearRing><coordinates>-124.207407,42.776409,0 -124.207388,42.780039,0 -124.207369,42.783669,0 -124.207349,42.787298,0 -124.207342,42.788602,0 -124.203911,42.788611,0 -124.202470,42.788616,0 -124.200000,42.788623,0 -124.200000,42.776378,0 -124.202509,42.776388,0 -124.207407,42.776409,0</coordinates></LinearRing></outerBoundaryIs></Polygon></Placemark><Placemark><name>RUSTY NUGGET [APPROX quarter-section]</name><description>lode | serial ORMC159457 | 20.66 ac | Active | qtr-sec OR 33 0320S 0130W 022 A SW|OR 33 0320S 0130W 027 A NE | recorded~2021 (DB date, not legal located date) | src: BLM MLRS Not Closed | APPROX (BLM quarter-section)</description><styleUrl>#active_claim</styleUrl><Polygon><outerBoundaryIs><LinearRing><coordinates>-124.222275,42.769207,0 -124.222153,42.769207,0 -124.217252,42.769213,0 -124.217282,42.765607,0 -124.217312,42.762002,0 -124.222214,42.761997,0 -124.227116,42.761991,0 -124.227085,42.765597,0 -124.227054,42.769202,0 -124.222275,42.769207,0</coordinates></LinearRing></outerBoundaryIs></Polygon></Placemark><Placemark><name>RM Sixes [APPROX quarter-section]</name><description>placer | serial OR105222736 | 20.0 ac | Active | qtr-sec OR 33 0320S 0130W 008 A NENE|OR 33 0320S 0130W 008 A SENE|OR 33 0320S 0130W 008 A NWNE|OR 33 0320S 0130W 008 A SWNE | recorded~2021 (DB date, not legal located date) | src: BLM MLRS Not Closed | APPROX (BLM quarter-section)</description><styleUrl>#active_claim</styleUrl><Polygon><outerBoundaryIs><LinearRing><coordinates>-124.256105,42.805283,0 -124.261018,42.805299,0 -124.265932,42.805315,0 -124.265896,42.808910,0 -124.265860,42.812506,0 -124.260936,42.812503,0 -124.256012,42.812501,0 -124.256059,42.808892,0 -124.256105,42.805283,0</coordinates></LinearRing></outerBoundaryIs></Polygon></Placemark><Placemark><name>Hankie #2 [APPROX quarter-section]</name><description>placer | serial OR105789379 | 20.0 ac | Active | qtr-sec OR 33 0320S 0130W 017 A SE|OR 33 0320S 0130W 017 A SWSE|OR 33 0320S 0130W 017 A NESE|OR 33 0320S 0130W 017 A SESE|OR 33 0320S 0130W 017 A NWSE | recorded~2022 (DB date, not legal located date) | src: BLM MLRS Not Closed | APPROX (BLM quarter-…</description><styleUrl>#active_claim</styleUrl><Polygon><outerBoundaryIs><LinearRing><coordinates>-124.256343,42.783737,0 -124.261243,42.783736,0 -124.265098,42.783735,0 -124.266143,42.783735,0 -124.266108,42.787360,0 -124.266073,42.790986,0 -124.261157,42.790964,0 -124.256242,42.790943,0 -124.256293,42.787340,0 -124.256343,42.783737,0</coordinates></LinearRing></outerBoundaryIs></Polygon></Placemark><Placemark><name>Jak #3 [APPROX quarter-section]</name><description>placer | serial OR105789380 | 20.0 ac | Active | qtr-sec OR 33 0320S 0130W 020 A NE|OR 33 0320S 0130W 020 A Unsurveyed Protracted PB40 | recorded~2022 (DB date, not legal located date) | src: BLM MLRS Not Closed | APPROX (BLM quarter-section)</description><styleUrl>#active_claim</styleUrl><Polygon><outerBoundaryIs><LinearRing><coordinates>-124.275049,42.769213,0 -124.275068,42.783699,0 -124.266143,42.783735,0 -124.265098,42.783735,0 -124.261243,42.783736,0 -124.256343,42.783737,0 -124.255865,42.776475,0 -124.255885,42.776475,0 -124.255388,42.769213,0 -124.275049,42.769213,0</coordinates></LinearRing></outerBoundaryIs></Polygon></Placemark><Placemark><name>Big Trigger Dog [APPROX quarter-section]</name><description>placer | serial OR105824636 | 60.0 ac | Filed | qtr-sec OR 33 0320S 0130W 026 A SW | recorded~2023 (DB date, not legal located date) | src: BLM MLRS Not Closed | APPROX (BLM quarter-section)</description><styleUrl>#active_claim</styleUrl><Polygon><outerBoundaryIs><LinearRing><coordinates>-124.217312,42.762002,0 -124.212417,42.761992,0 -124.207522,42.761982,0 -124.207545,42.758380,0 -124.207569,42.754779,0 -124.212470,42.754785,0 -124.217372,42.754792,0 -124.217342,42.758397,0 -124.217312,42.762002,0</coordinates></LinearRing></outerBoundaryIs></Polygon></Placemark><Placemark><name>#2 SVINOR [APPROX quarter-section]</name><description>placer | serial ORMC155518 | 20.0 ac | Active | qtr-sec OR 33 0320S 0130W 021 A NE | recorded~2021 (DB date, not legal located date) | src: BLM MLRS Not Closed | APPROX (BLM quarter-section)</description><styleUrl>#active_claim</styleUrl><Polygon><outerBoundaryIs><LinearRing><coordinates>-124.246365,42.776435,0 -124.246624,42.783668,0 -124.236906,42.783599,0 -124.236861,42.776394,0 -124.246365,42.776435,0</coordinates></LinearRing></outerBoundaryIs></Polygon></Placemark><Placemark><name>#3 JAR L [APPROX quarter-section]</name><description>placer | serial ORMC155519 | 20.0 ac | Active | qtr-sec OR 33 0320S 0130W 021 A NE | recorded~2021 (DB date, not legal located date) | src: BLM MLRS Not Closed | APPROX (BLM quarter-section)</description><styleUrl>#active_claim</styleUrl><Polygon><outerBoundaryIs><LinearRing><coordinates>-124.246365,42.776435,0 -124.246624,42.783668,0 -124.236906,42.783599,0 -124.236861,42.776394,0 -124.246365,42.776435,0</coordinates></LinearRing></outerBoundaryIs></Polygon></Placemark><Placemark><name>JDL [APPROX quarter-section]</name><description>placer | serial ORMC155572 | 50.0 ac | Active | qtr-sec OR 33 0320S 0130W 022 A SE|OR 33 0320S 0130W 027 A NE | recorded~2021 (DB date, not legal located date) | src: BLM MLRS Not Closed | APPROX (BLM quarter-section)</description><styleUrl>#active_claim</styleUrl><Polygon><outerBoundaryIs><LinearRing><coordinates>-124.222214,42.761997,0 -124.227116,42.761991,0 -124.227085,42.765597,0 -124.227054,42.769202,0 -124.227057,42.772812,0 -124.227061,42.776422,0 -124.222145,42.776436,0 -124.217229,42.776450,0 -124.217241,42.772831,0 -124.217252,42.769213,0 -124.217282,42.765607,0 -124.217312,42.762002,0 -124.222214,42.761997,0</coordinates></LinearRing></outerBoundaryIs></Polygon></Placemark><Placemark><name>POVERTY PASS [APPROX quarter-section]</name><description>placer | serial ORMC155648 | 40.0 ac | Active | qtr-sec OR 33 0320S 0130W 022 A SE|OR 33 0320S 0130W 027 A NE | recorded~2021 (DB date, not legal located date) | src: BLM MLRS Not Closed | APPROX (BLM quarter-section)</description><styleUrl>#active_claim</styleUrl><Polygon><outerBoundaryIs><LinearRing><coordinates>-124.222214,42.761997,0 -124.227116,42.761991,0 -124.227085,42.765597,0 -124.227054,42.769202,0 -124.227057,42.772812,0 -124.227061,42.776422,0 -124.222145,42.776436,0 -124.217229,42.776450,0 -124.217241,42.772831,0 -124.217252,42.769213,0 -124.217282,42.765607,0 -124.217312,42.762002,0 -124.222214,42.761997,0</coordinates></LinearRing></outerBoundaryIs></Polygon></Placemark><Placemark><name>CONFEDERATE [APPROX quarter-section]</name><description>placer | serial ORMC160783 | 80.0 ac | Active | qtr-sec OR 33 0320S 0130W 027 A NE|OR 33 0320S 0130W 027 A SE | recorded~2021 (DB date, not legal located date) | src: BLM MLRS Not Closed | APPROX (BLM quarter-section)</description><styleUrl>#active_claim</styleUrl><Polygon><outerBoundaryIs><LinearRing><coordinates>-124.222275,42.754782,0 -124.227179,42.754772,0 -124.227148,42.758382,0 -124.227116,42.761991,0 -124.227085,42.765597,0 -124.227054,42.769202,0 -124.222275,42.769207,0 -124.222153,42.769207,0 -124.217252,42.769213,0 -124.217282,42.765607,0 -124.217312,42.762002,0 -124.217342,42.758397,0 -124.217372,42.754792,0 -124.222275,42.754782,0</coordinates></LinearRing></outerBoundaryIs></Polygon></Placemark><Placemark><name>#2 MONA [APPROX quarter-section]</name><description>placer | serial ORMC164503 | 20.0 ac | Active | qtr-sec OR 33 0320S 0130W 021 A NE | recorded~2021 (DB date, not legal located date) | src: BLM MLRS Not Closed | APPROX (BLM quarter-section)</description><styleUrl>#active_claim</styleUrl><Polygon><outerBoundaryIs><LinearRing><coordinates>-124.246365,42.776435,0 -124.246624,42.783668,0 -124.236906,42.783599,0 -124.236861,42.776394,0 -124.246365,42.776435,0</coordinates></LinearRing></outerBoundaryIs></Polygon></Placemark><Placemark><name>#5 NORGE [APPROX quarter-section]</name><description>placer | serial ORMC164504 | 20.0 ac | Active | qtr-sec OR 33 0320S 0130W 021 A NE | recorded~2021 (DB date, not legal located date) | src: BLM MLRS Not Closed | APPROX (BLM quarter-section)</description><styleUrl>#active_claim</styleUrl><Polygon><outerBoundaryIs><LinearRing><coordinates>-124.246365,42.776435,0 -124.246624,42.783668,0 -124.236906,42.783599,0 -124.236861,42.776394,0 -124.246365,42.776435,0</coordinates></LinearRing></outerBoundaryIs></Polygon></Placemark><Placemark><name>DOUGLAS BONANZA [APPROX quarter-section]</name><description>placer | serial ORMC165199 | 60.0 ac | Active | qtr-sec OR 33 0320S 0130W 008 A NW | recorded~2021 (DB date, not legal located date) | src: BLM MLRS Not Closed | APPROX (BLM quarter-section)</description><styleUrl>#active_claim</styleUrl><Polygon><outerBoundaryIs><LinearRing><coordinates>-124.275724,42.808953,0 -124.275693,42.812561,0 -124.270776,42.812533,0 -124.265860,42.812506,0 -124.265896,42.808910,0 -124.265932,42.805315,0 -124.270843,42.805331,0 -124.275755,42.805346,0 -124.275724,42.808953,0</coordinates></LinearRing></outerBoundaryIs></Polygon></Placemark><Placemark><name>JENNIFER [APPROX quarter-section]</name><description>placer | serial ORMC167882 | 20.0 ac | Active | qtr-sec OR 33 0320S 0130W 008 A NW | recorded~2021 (DB date, not legal located date) | src: BLM MLRS Not Closed | APPROX (BLM quarter-section)</description><styleUrl>#active_claim</styleUrl><Polygon><outerBoundaryIs><LinearRing><coordinates>-124.275724,42.808953,0 -124.275693,42.812561,0 -124.270776,42.812533,0 -124.265860,42.812506,0 -124.265896,42.808910,0 -124.265932,42.805315,0 -124.270843,42.805331,0 -124.275755,42.805346,0 -124.275724,42.808953,0</coordinates></LinearRing></outerBoundaryIs></Polygon></Placemark><Placemark><name>BEAR PAN FLAT [APPROX quarter-section]</name><description>placer | serial ORMC168903 | 40.0 ac | Active | qtr-sec OR 33 0320S 0130W 022 A NW|OR 33 0320S 0130W 022 A SW|OR 33 0320S 0130W 021 A NE|OR 33 0320S 0130W 021 A SE | recorded~2021 (DB date, not legal located date) | src: BLM MLRS Not Closed | APPROX (BLM quarter-section)</description><styleUrl>#active_claim</styleUrl><Polygon><outerBoundaryIs><LinearRing><coordinates>-124.227054,42.769202,0 -124.231939,42.769192,0 -124.236825,42.769182,0 -124.246106,42.769197,0 -124.246365,42.776435,0 -124.246624,42.783668,0 -124.236906,42.783599,0 -124.236918,42.787165,0 -124.236918,42.787215,0 -124.236923,42.788494,0 -124.233213,42.788508,0 -124.231998,42.788513,0 -124.228372,42.788527,0 -124.227072,42.788533,0 -124.227071,42.787231,0 -124.227068,42.783628,0 -124.227064,42.780025,0 -124.227061,42.776422,0 -124.227057,42.772812,0 -124.227054,42.769202,0</coordinates></LinearRing></outerBoundaryIs></Polygon></Placemark><Placemark><name>HUMMINGBIRD [APPROX quarter-section]</name><description>placer | serial ORMC168904 | 20.0 ac | Active | qtr-sec OR 33 0320S 0130W 022 A SW | recorded~2021 (DB date, not legal located date) | src: BLM MLRS Not Closed | APPROX (BLM quarter-section)</description><styleUrl>#active_claim</styleUrl><Polygon><outerBoundaryIs><LinearRing><coordinates>-124.236859,42.775319,0 -124.236861,42.776394,0 -124.231961,42.776408,0 -124.227061,42.776422,0 -124.227057,42.772812,0 -124.227054,42.769202,0 -124.231939,42.769192,0 -124.236825,42.769182,0 -124.236847,42.772784,0 -124.236859,42.775319,0</coordinates></LinearRing></outerBoundaryIs></Polygon></Placemark><Placemark><name>RSM [APPROX quarter-section]</name><description>placer | serial ORMC176614 | 40.0 ac | Active | qtr-sec OR 33 0320S 0130W 023 A SW|OR 33 0320S 0130W 023 A SE | recorded~2021 (DB date, not legal located date) | src: BLM MLRS Not Closed | APPROX (BLM quarter-section)</description><styleUrl>#active_claim</styleUrl><Polygon><outerBoundaryIs><LinearRing><coordinates>-124.207460,42.769184,0 -124.212356,42.769198,0 -124.217252,42.769213,0 -124.217241,42.772831,0 -124.217229,42.776450,0 -124.212318,42.776429,0 -124.207407,42.776409,0 -124.202509,42.776388,0 -124.200000,42.776378,0 -124.200000,42.769162,0 -124.202542,42.769170,0 -124.202587,42.769170,0 -124.207460,42.769184,0</coordinates></LinearRing></outerBoundaryIs></Polygon></Placemark><Placemark><name>GOLDEN DRAGON [APPROX quarter-section]</name><description>placer | serial ORMC177068 | 20.0 ac | Active | qtr-sec OR 33 0320S 0130W 021 A NW | recorded~2021 (DB date, not legal located date) | src: BLM MLRS Not Closed | APPROX (BLM quarter-section)</description><styleUrl>#active_claim</styleUrl><Polygon><outerBoundaryIs><LinearRing><coordinates>-124.255865,42.776475,0 -124.256343,42.783737,0 -124.246624,42.783668,0 -124.246365,42.776435,0 -124.255865,42.776475,0</coordinates></LinearRing></outerBoundaryIs></Polygon></Placemark><Placemark><name>LAURINA #1 [APPROX quarter-section]</name><description>placer | serial ORMC177069 | 20.0 ac | Active | qtr-sec OR 33 0320S 0130W 022 A SW | recorded~2021 (DB date, not legal located date) | src: BLM MLRS Not Closed | APPROX (BLM quarter-section)</description><styleUrl>#active_claim</styleUrl><Polygon><outerBoundaryIs><LinearRing><coordinates>-124.231939,42.769192,0 -124.236825,42.769182,0 -124.236847,42.772784,0 -124.236859,42.775319,0 -124.236861,42.776394,0 -124.231961,42.776408,0 -124.227061,42.776422,0 -124.227057,42.772812,0 -124.227054,42.769202,0 -124.231939,42.769192,0</coordinates></LinearRing></outerBoundaryIs></Polygon></Placemark><Placemark><name>LAURINA #2 [APPROX quarter-section]</name><description>placer | serial ORMC177070 | 20.0 ac | Active | qtr-sec OR 33 0320S 0130W 022 A SW | recorded~2021 (DB date, not legal located date) | src: BLM MLRS Not Closed | APPROX (BLM quarter-section)</description><styleUrl>#active_claim</styleUrl><Polygon><outerBoundaryIs><LinearRing><coordinates>-124.231939,42.769192,0 -124.236825,42.769182,0 -124.236847,42.772784,0 -124.236859,42.775319,0 -124.236861,42.776394,0 -124.231961,42.776408,0 -124.227061,42.776422,0 -124.227057,42.772812,0 -124.227054,42.769202,0 -124.231939,42.769192,0</coordinates></LinearRing></outerBoundaryIs></Polygon></Placemark><Placemark><name>LUCKY NUGGET [APPROX quarter-section]</name><description>placer | serial ORMC177071 | 20.0 ac | Active | qtr-sec OR 33 0320S 0130W 017 A SE|OR 33 0320S 0130W 020 A NE | recorded~2021 (DB date, not legal located date) | src: BLM MLRS Not Closed | APPROX (BLM quarter-section)</description><styleUrl>#active_claim</styleUrl><Polygon><outerBoundaryIs><LinearRing><coordinates>-124.266073,42.790986,0 -124.261157,42.790964,0 -124.256242,42.790943,0 -124.256293,42.787340,0 -124.256343,42.783737,0 -124.261243,42.783736,0 -124.265098,42.783735,0 -124.266143,42.783735,0 -124.266108,42.787360,0 -124.266073,42.790986,0</coordinates></LinearRing></outerBoundaryIs></Polygon></Placemark><Placemark><name>T AND M [APPROX quarter-section]</name><description>placer | serial ORMC177072 | 20.0 ac | Active | qtr-sec OR 33 0320S 0130W 020 A NE|OR 33 0320S 0130W 021 A NW | recorded~2021 (DB date, not legal located date) | src: BLM MLRS Not Closed | APPROX (BLM quarter-section)</description><styleUrl>#active_claim</styleUrl><Polygon><outerBoundaryIs><LinearRing><coordinates>-124.255865,42.776475,0 -124.265462,42.776466,0 -124.265705,42.783718,0 -124.256343,42.783737,0 -124.246624,42.783668,0 -124.246365,42.776435,0 -124.255865,42.776475,0</coordinates></LinearRing></outerBoundaryIs></Polygon></Placemark><Placemark><name>FOUR K [APPROX quarter-section]</name><description>placer | serial ORMC178101 | 60.0 ac | Active | qtr-sec OR 33 0320S 0130W 027 A NW | recorded~2021 (DB date, not legal located date) | src: BLM MLRS Not Closed | APPROX (BLM quarter-section)</description><styleUrl>#active_claim</styleUrl><Polygon><outerBoundaryIs><LinearRing><coordinates>-124.227054,42.769202,0 -124.227085,42.765597,0 -124.227116,42.761991,0 -124.232030,42.761986,0 -124.236944,42.761980,0 -124.236884,42.765581,0 -124.236825,42.769182,0 -124.231939,42.769192,0 -124.227054,42.769202,0</coordinates></LinearRing></outerBoundaryIs></Polygon></Placemark><Placemark><name>CLEMENTINE 1&amp;2 [APPROX quarter-section]</name><description>placer | serial ORMC25726 | 40.0 ac | Active | qtr-sec OR 33 0320S 0130W 007 A NENW | recorded~2021 (DB date, not legal located date) | src: BLM MLRS Not Closed | APPROX (BLM quarter-section)</description><styleUrl>#active_claim</styleUrl><Polygon><outerBoundaryIs><LinearRing><coordinates>-124.285519,42.809036,0 -124.290426,42.809052,0 -124.290396,42.812677,0 -124.285492,42.812672,0 -124.285519,42.809036,0</coordinates></LinearRing></outerBoundaryIs></Polygon></Placemark><Placemark><name>Splash #2 [APPROX quarter-section]</name><description>placer | serial OR105789381 | 20.0 ac | Active | qtr-sec OR 33 0320S 0130W 020 A Unsurveyed Protracted PB40|OR 33 0320S 0130W 020 A NE | recorded~2023 (DB date, not legal located date) | src: BLM MLRS Not Closed | APPROX (BLM quarter-section)</description><styleUrl>#active_claim</styleUrl><Polygon><outerBoundaryIs><LinearRing><coordinates>-124.275049,42.769213,0 -124.275068,42.783699,0 -124.266143,42.783735,0 -124.265098,42.783735,0 -124.261243,42.783736,0 -124.256343,42.783737,0 -124.255865,42.776475,0 -124.255885,42.776475,0 -124.255388,42.769213,0 -124.275049,42.769213,0</coordinates></LinearRing></outerBoundaryIs></Polygon></Placemark><Placemark><name>HOPE 2 [APPROX quarter-section]</name><description>placer | serial OR106324275 | 1586.84 ac | Active | qtr-sec OR 33 0320S 0130W 007 Lot1 | OR 33 0320S 0130W 007 Lot2 | OR 33 0320S 0130W 007 A NW | recorded~2023 (DB date, not legal located date) | src: BLM MLRS Not Closed | APPROX (BLM quarter-section)</description><styleUrl>#active_claim</styleUrl><Polygon><outerBoundaryIs><LinearRing><coordinates>-124.297167,42.806101,0 -124.297159,42.809074,0 -124.297157,42.809711,0 -124.297148,42.812686,0 -124.290396,42.812677,0 -124.285492,42.812672,0 -124.285519,42.809036,0 -124.285547,42.805400,0 -124.290455,42.805426,0 -124.297161,42.805462,0 -124.297167,42.806101,0</coordinates></LinearRing></outerBoundaryIs></Polygon></Placemark><Placemark><name>Calli Star [APPROX quarter-section]</name><description>placer | serial OR106324276 | 160.0 ac | Active | qtr-sec OR 33 0320S 0130W 007 A NE | recorded~2023 (DB date, not legal located date) | src: BLM MLRS Not Closed | APPROX (BLM quarter-section)</description><styleUrl>#active_claim</styleUrl><Polygon><outerBoundaryIs><LinearRing><coordinates>-124.285547,42.805400,0 -124.285519,42.809036,0 -124.285492,42.812672,0 -124.280592,42.812616,0 -124.275693,42.812561,0 -124.275724,42.808953,0 -124.275755,42.805346,0 -124.280651,42.805373,0 -124.285547,42.805400,0</coordinates></LinearRing></outerBoundaryIs></Polygon></Placemark><Placemark><name>NEW BEGINNINGS [APPROX quarter-section]</name><description>placer | serial OR106324277 | 160.0 ac | Active | qtr-sec OR 33 0320S 0130W 007 A NE | recorded~2023 (DB date, not legal located date) | src: BLM MLRS Not Closed | APPROX (BLM quarter-section)</description><styleUrl>#active_claim</styleUrl><Polygon><outerBoundaryIs><LinearRing><coordinates>-124.285547,42.805400,0 -124.285519,42.809036,0 -124.285492,42.812672,0 -124.280592,42.812616,0 -124.275693,42.812561,0 -124.275724,42.808953,0 -124.275755,42.805346,0 -124.280651,42.805373,0 -124.285547,42.805400,0</coordinates></LinearRing></outerBoundaryIs></Polygon></Placemark><Placemark><name>JANNY-D [APPROX quarter-section]</name><description>placer | serial OR106707112 | 120.0 ac | Filed | qtr-sec OR 33 0320S 0130W 008 E2SESWNE | OR 33 0320S 0130W 008 SWSENE | OR 33 0320S 0130W 008 W2SESENE | recorded~2024 (DB date, not legal located date) | src: BLM MLRS Not Closed | APPROX (BLM quarter-section)</description><styleUrl>#active_claim</styleUrl><Polygon><outerBoundaryIs><LinearRing><coordinates>-124.257333,42.805287,0 -124.258562,42.805291,0 -124.258551,42.806192,0 -124.258540,42.807094,0 -124.257311,42.807091,0 -124.257322,42.806189,0 -124.257333,42.805287,0</coordinates></LinearRing></outerBoundaryIs></Polygon></Placemark><Placemark><name>DB #2 [APPROX quarter-section]</name><description>placer | serial OR106712465 | 120.0 ac | Filed | qtr-sec OR 33 0320S 0130W 022 SWSE,SESW | OR 33 0320S 0130W 027 NENW | recorded~2025 (DB date, not legal located date) | src: BLM MLRS Not Closed | APPROX (BLM quarter-section)</description><styleUrl>#active_claim</styleUrl><Polygon><outerBoundaryIs><LinearRing><coordinates>-124.231985,42.765589,0 -124.231939,42.769192,0 -124.227054,42.769202,0 -124.227085,42.765597,0 -124.231985,42.765589,0</coordinates></LinearRing></outerBoundaryIs></Polygon></Placemark><Placemark><name>DB #1 [APPROX quarter-section]</name><description>placer | serial OR106712464 | 857.8 ac | Filed | qtr-sec OR 33 0320S 0130W 022 NESE1/4S1/2 | recorded~2025 (DB date, not legal located date) | src: BLM MLRS Not Closed | APPROX (BLM quarter-section)</description><styleUrl>#active_claim</styleUrl><Polygon><outerBoundaryIs><LinearRing><coordinates>-124.236825,42.769182,0 -124.236847,42.772784,0 -124.236859,42.775319,0 -124.236861,42.776394,0 -124.236883,42.779997,0 -124.236906,42.783599,0 -124.236918,42.787165,0 -124.236918,42.787215,0 -124.236923,42.788494,0 -124.233213,42.788508,0 -124.231998,42.788513,0 -124.228372,42.788527,0 -124.227072,42.788533,0 -124.223454,42.788549,0 -124.222147,42.788555,0 -124.218537,42.788571,0 -124.217214,42.788577,0 -124.217214,42.787309,0 -124.217219,42.783689,0 -124.217224,42.780070,0 -124.217229,42.776450,0 -124.217241,42.772831,0 -124.217252,42.769213,0 -124.222153,42.769207,0 -124.222275,42.769207,0 -124.227054,42.769202,0 -124.231939,42.769192,0 -124.236825,42.769182,0</coordinates></LinearRing></outerBoundaryIs></Polygon></Placemark><Placemark><name>Hell Begins [APPROX quarter-section]</name><description>placer | serial OR106761546 | 40.0 ac | Active | qtr-sec OR 33 0320S 0130W 027 A NESE | recorded~2025 (DB date, not legal located date) | src: BLM MLRS Not Closed | APPROX (BLM quarter-section)</description><styleUrl>#active_claim</styleUrl><Polygon><outerBoundaryIs><LinearRing><coordinates>-124.222245,42.758390,0 -124.222214,42.761997,0 -124.217312,42.762002,0 -124.217342,42.758397,0 -124.222245,42.758390,0</coordinates></LinearRing></outerBoundaryIs></Polygon></Placemark></Folder><Folder><name>Open ground to sample</name><Placemark><name>OPEN-sixes-01</name><description>Inman Mine (placer (heuristic: surface workings)) | agency: BLM | 0m to stream | cluster: 1 nearby | src: MILO</description><styleUrl>#open_ground</styleUrl><Point><coordinates>-124.304314,42.804505,0</coordinates></Point></Placemark><Placemark><name>OPEN-sixes-02</name><description>Guerin Claim (placer) | agency: USFS | 35m to stream | cluster: 0 nearby | NEAR ACTIVE CLAIM (&lt;50m, approx) | src: MILO</description><styleUrl>#open_ground</styleUrl><Point><coordinates>-124.246825,42.776237,0</coordinates></Point></Placemark><Placemark><name>OPEN-sixes-03</name><description>Wagner Claims (placer) | agency: USFS | 43m to stream | cluster: 0 nearby | src: MILO</description><styleUrl>#open_ground</styleUrl><Point><coordinates>-124.245625,42.768737,0</coordinates></Point></Placemark><Placemark><name>OPEN-sixes-04</name><description>Sixes River placers (placer) | agency: BLM | 53m to stream | cluster: 0 nearby | src: MILO</description><styleUrl>#open_ground</styleUrl><Point><coordinates>-124.317896,42.804001,0</coordinates></Point></Placemark><Placemark><name>OPEN-sixes-05</name><description>USMIN Open Pit Mine | agency: BLM | 15m to stream | cluster: 1 nearby | src: USMIN</description><styleUrl>#open_ground</styleUrl><Point><coordinates>-124.304058,42.804526,0</coordinates></Point></Placemark><Placemark><name>OPEN-sixes-06</name><description>Rusty Gulch (lode) | agency: USFS | 10m to stream | cluster: 0 nearby | src: MILO</description><styleUrl>#open_ground</styleUrl><Point><coordinates>-124.208124,42.777037,0</coordinates></Point></Placemark></Folder></Document></kml>