<?xml version="1.0" encoding="UTF-8"?>
<gpx xmlns:xsi="http://www.w3.org/2001/XMLSchema-instance" xmlns="http://www.topografix.com/GPX/1/1" xmlns:onx="http://www.onxmaps.com" xsi:schemaLocation="http://www.topografix.com/GPX/1/1 http://www.topografix.com/GPX/1/1/gpx.xsd" version="1.1" creator="onXmaps hunt ios"><rte><name>BLUE JAY</name><type>Area</type><extensions><onx:style>dot</onx:style><onx:weight>4.0</onx:weight><onx:color>rgba(255, 51, 0, 1)</onx:color></extensions><rtept lat="42.761980" lon="-124.236944"></rtept><rtept lat="42.765581" lon="-124.236884"></rtept><rtept lat="42.769182" lon="-124.236825"></rtept><rtept lat="42.772784" lon="-124.236847"></rtept><rtept lat="42.775319" lon="-124.236859"></rtept><rtept lat="42.776394" lon="-124.236861"></rtept><rtept lat="42.776408" lon="-124.231961"></rtept><rtept lat="42.776422" lon="-124.227061"></rtept><rtept lat="42.772812" lon="-124.227057"></rtept><rtept lat="42.769202" lon="-124.227054"></rtept><rtept lat="42.765597" lon="-124.227085"></rtept><rtept lat="42.761991" lon="-124.227116"></rtept><rtept lat="42.761986" lon="-124.232030"></rtept><rtept lat="42.761980" lon="-124.236944"></rtept></rte><rte><name>TATTOOED COYOTE</name><type>Area</type><extensions><onx:style>dot</onx:style><onx:weight>4.0</onx:weight><onx:color>rgba(255, 51, 0, 1)</onx:color></extensions><rtept lat="42.776409" lon="-124.207407"></rtept><rtept lat="42.780039" lon="-124.207388"></rtept><rtept lat="42.783669" lon="-124.207369"></rtept><rtept lat="42.787298" lon="-124.207349"></rtept><rtept lat="42.788602" lon="-124.207342"></rtept><rtept lat="42.788611" lon="-124.203911"></rtept><rtept lat="42.788616" lon="-124.202470"></rtept><rtept lat="42.788623" lon="-124.200000"></rtept><rtept lat="42.776378" lon="-124.200000"></rtept><rtept lat="42.776388" lon="-124.202509"></rtept><rtept lat="42.776409" lon="-124.207407"></rtept></rte><rte><name>RUSTY NUGGET</name><type>Area</type><extensions><onx:style>dot</onx:style><onx:weight>4.0</onx:weight><onx:color>rgba(255, 51, 0, 1)</onx:color></extensions><rtept lat="42.769207" lon="-124.222275"></rtept><rtept lat="42.769207" lon="-124.222153"></rtept><rtept lat="42.769213" lon="-124.217252"></rtept><rtept lat="42.765607" lon="-124.217282"></rtept><rtept lat="42.762002" lon="-124.217312"></rtept><rtept lat="42.761997" lon="-124.222214"></rtept><rtept lat="42.761991" lon="-124.227116"></rtept><rtept lat="42.765597" lon="-124.227085"></rtept><rtept lat="42.769202" lon="-124.227054"></rtept><rtept lat="42.769207" lon="-124.222275"></rtept></rte><rte><name>RM Sixes</name><type>Area</type><extensions><onx:style>dot</onx:style><onx:weight>4.0</onx:weight><onx:color>rgba(255, 51, 0, 1)</onx:color></extensions><rtept lat="42.805283" lon="-124.256105"></rtept><rtept lat="42.805299" lon="-124.261018"></rtept><rtept lat="42.805315" lon="-124.265932"></rtept><rtept lat="42.808910" lon="-124.265896"></rtept><rtept lat="42.812506" lon="-124.265860"></rtept><rtept lat="42.812503" lon="-124.260936"></rtept><rtept lat="42.812501" lon="-124.256012"></rtept><rtept lat="42.808892" lon="-124.256059"></rtept><rtept lat="42.805283" lon="-124.256105"></rtept></rte><rte><name>Hankie 2</name><type>Area</type><extensions><onx:style>dot</onx:style><onx:weight>4.0</onx:weight><onx:color>rgba(255, 51, 0, 1)</onx:color></extensions><rtept lat="42.783737" lon="-124.256343"></rtept><rtept lat="42.783736" lon="-124.261243"></rtept><rtept lat="42.783735" lon="-124.265098"></rtept><rtept lat="42.783735" lon="-124.266143"></rtept><rtept lat="42.787360" lon="-124.266108"></rtept><rtept lat="42.790986" lon="-124.266073"></rtept><rtept lat="42.790964" lon="-124.261157"></rtept><rtept lat="42.790943" lon="-124.256242"></rtept><rtept lat="42.787340" lon="-124.256293"></rtept><rtept lat="42.783737" lon="-124.256343"></rtept></rte><rte><name>Jak 3</name><type>Area</type><extensions><onx:style>dot</onx:style><onx:weight>4.0</onx:weight><onx:color>rgba(255, 51, 0, 1)</onx:color></extensions><rtept lat="42.769213" lon="-124.275049"></rtept><rtept lat="42.783699" lon="-124.275068"></rtept><rtept lat="42.783735" lon="-124.266143"></rtept><rtept lat="42.783735" lon="-124.265098"></rtept><rtept lat="42.783736" lon="-124.261243"></rtept><rtept lat="42.783737" lon="-124.256343"></rtept><rtept lat="42.776475" lon="-124.255865"></rtept><rtept lat="42.776475" lon="-124.255885"></rtept><rtept lat="42.769213" lon="-124.255388"></rtept><rtept lat="42.769213" lon="-124.275049"></rtept></rte><rte><name>Big Trigger Dog</name><type>Area</type><extensions><onx:style>dot</onx:style><onx:weight>4.0</onx:weight><onx:color>rgba(255, 51, 0, 1)</onx:color></extensions><rtept lat="42.762002" lon="-124.217312"></rtept><rtept lat="42.761992" lon="-124.212417"></rtept><rtept lat="42.761982" lon="-124.207522"></rtept><rtept lat="42.758380" lon="-124.207545"></rtept><rtept lat="42.754779" lon="-124.207569"></rtept><rtept lat="42.754785" lon="-124.212470"></rtept><rtept lat="42.754792" lon="-124.217372"></rtept><rtept lat="42.758397" lon="-124.217342"></rtept><rtept lat="42.762002" lon="-124.217312"></rtept></rte><rte><name>2 SVINOR</name><type>Area</type><extensions><onx:style>dot</onx:style><onx:weight>4.0</onx:weight><onx:color>rgba(255, 51, 0, 1)</onx:color></extensions><rtept lat="42.776435" lon="-124.246365"></rtept><rtept lat="42.783668" lon="-124.246624"></rtept><rtept lat="42.783599" lon="-124.236906"></rtept><rtept lat="42.776394" lon="-124.236861"></rtept><rtept lat="42.776435" lon="-124.246365"></rtept></rte><rte><name>3 JAR L</name><type>Area</type><extensions><onx:style>dot</onx:style><onx:weight>4.0</onx:weight><onx:color>rgba(255, 51, 0, 1)</onx:color></extensions><rtept lat="42.776435" lon="-124.246365"></rtept><rtept lat="42.783668" lon="-124.246624"></rtept><rtept lat="42.783599" lon="-124.236906"></rtept><rtept lat="42.776394" lon="-124.236861"></rtept><rtept lat="42.776435" lon="-124.246365"></rtept></rte><rte><name>JDL</name><type>Area</type><extensions><onx:style>dot</onx:style><onx:weight>4.0</onx:weight><onx:color>rgba(255, 51, 0, 1)</onx:color></extensions><rtept lat="42.761997" lon="-124.222214"></rtept><rtept lat="42.761991" lon="-124.227116"></rtept><rtept lat="42.765597" lon="-124.227085"></rtept><rtept lat="42.769202" lon="-124.227054"></rtept><rtept lat="42.772812" lon="-124.227057"></rtept><rtept lat="42.776422" lon="-124.227061"></rtept><rtept lat="42.776436" lon="-124.222145"></rtept><rtept lat="42.776450" lon="-124.217229"></rtept><rtept lat="42.772831" lon="-124.217241"></rtept><rtept lat="42.769213" lon="-124.217252"></rtept><rtept lat="42.765607" lon="-124.217282"></rtept><rtept lat="42.762002" lon="-124.217312"></rtept><rtept lat="42.761997" lon="-124.222214"></rtept></rte><rte><name>POVERTY PASS</name><type>Area</type><extensions><onx:style>dot</onx:style><onx:weight>4.0</onx:weight><onx:color>rgba(255, 51, 0, 1)</onx:color></extensions><rtept lat="42.761997" lon="-124.222214"></rtept><rtept lat="42.761991" lon="-124.227116"></rtept><rtept lat="42.765597" lon="-124.227085"></rtept><rtept lat="42.769202" lon="-124.227054"></rtept><rtept lat="42.772812" lon="-124.227057"></rtept><rtept lat="42.776422" lon="-124.227061"></rtept><rtept lat="42.776436" lon="-124.222145"></rtept><rtept lat="42.776450" lon="-124.217229"></rtept><rtept lat="42.772831" lon="-124.217241"></rtept><rtept lat="42.769213" lon="-124.217252"></rtept><rtept lat="42.765607" lon="-124.217282"></rtept><rtept lat="42.762002" lon="-124.217312"></rtept><rtept lat="42.761997" lon="-124.222214"></rtept></rte><rte><name>CONFEDERATE</name><type>Area</type><extensions><onx:style>dot</onx:style><onx:weight>4.0</onx:weight><onx:color>rgba(255, 51, 0, 1)</onx:color></extensions><rtept lat="42.754782" lon="-124.222275"></rtept><rtept lat="42.754772" lon="-124.227179"></rtept><rtept lat="42.758382" lon="-124.227148"></rtept><rtept lat="42.761991" lon="-124.227116"></rtept><rtept lat="42.765597" lon="-124.227085"></rtept><rtept lat="42.769202" lon="-124.227054"></rtept><rtept lat="42.769207" lon="-124.222275"></rtept><rtept lat="42.769207" lon="-124.222153"></rtept><rtept lat="42.769213" lon="-124.217252"></rtept><rtept lat="42.765607" lon="-124.217282"></rtept><rtept lat="42.762002" lon="-124.217312"></rtept><rtept lat="42.758397" lon="-124.217342"></rtept><rtept lat="42.754792" lon="-124.217372"></rtept><rtept lat="42.754782" lon="-124.222275"></rtept></rte><rte><name>2 MONA</name><type>Area</type><extensions><onx:style>dot</onx:style><onx:weight>4.0</onx:weight><onx:color>rgba(255, 51, 0, 1)</onx:color></extensions><rtept lat="42.776435" lon="-124.246365"></rtept><rtept lat="42.783668" lon="-124.246624"></rtept><rtept lat="42.783599" lon="-124.236906"></rtept><rtept lat="42.776394" lon="-124.236861"></rtept><rtept lat="42.776435" lon="-124.246365"></rtept></rte><rte><name>5 NORGE</name><type>Area</type><extensions><onx:style>dot</onx:style><onx:weight>4.0</onx:weight><onx:color>rgba(255, 51, 0, 1)</onx:color></extensions><rtept lat="42.776435" lon="-124.246365"></rtept><rtept lat="42.783668" lon="-124.246624"></rtept><rtept lat="42.783599" lon="-124.236906"></rtept><rtept lat="42.776394" lon="-124.236861"></rtept><rtept lat="42.776435" lon="-124.246365"></rtept></rte><rte><name>DOUGLAS BONANZA</name><type>Area</type><extensions><onx:style>dot</onx:style><onx:weight>4.0</onx:weight><onx:color>rgba(255, 51, 0, 1)</onx:color></extensions><rtept lat="42.808953" lon="-124.275724"></rtept><rtept lat="42.812561" lon="-124.275693"></rtept><rtept lat="42.812533" lon="-124.270776"></rtept><rtept lat="42.812506" lon="-124.265860"></rtept><rtept lat="42.808910" lon="-124.265896"></rtept><rtept lat="42.805315" lon="-124.265932"></rtept><rtept lat="42.805331" lon="-124.270843"></rtept><rtept lat="42.805346" lon="-124.275755"></rtept><rtept lat="42.808953" lon="-124.275724"></rtept></rte><rte><name>JENNIFER</name><type>Area</type><extensions><onx:style>dot</onx:style><onx:weight>4.0</onx:weight><onx:color>rgba(255, 51, 0, 1)</onx:color></extensions><rtept lat="42.808953" lon="-124.275724"></rtept><rtept lat="42.812561" lon="-124.275693"></rtept><rtept lat="42.812533" lon="-124.270776"></rtept><rtept lat="42.812506" lon="-124.265860"></rtept><rtept lat="42.808910" lon="-124.265896"></rtept><rtept lat="42.805315" lon="-124.265932"></rtept><rtept lat="42.805331" lon="-124.270843"></rtept><rtept lat="42.805346" lon="-124.275755"></rtept><rtept lat="42.808953" lon="-124.275724"></rtept></rte><rte><name>BEAR PAN FLAT</name><type>Area</type><extensions><onx:style>dot</onx:style><onx:weight>4.0</onx:weight><onx:color>rgba(255, 51, 0, 1)</onx:color></extensions><rtept lat="42.769202" lon="-124.227054"></rtept><rtept lat="42.769192" lon="-124.231939"></rtept><rtept lat="42.769182" lon="-124.236825"></rtept><rtept lat="42.769197" lon="-124.246106"></rtept><rtept lat="42.776435" lon="-124.246365"></rtept><rtept lat="42.783668" lon="-124.246624"></rtept><rtept lat="42.783599" lon="-124.236906"></rtept><rtept lat="42.787165" lon="-124.236918"></rtept><rtept lat="42.787215" lon="-124.236918"></rtept><rtept lat="42.788494" lon="-124.236923"></rtept><rtept lat="42.788508" lon="-124.233213"></rtept><rtept lat="42.788513" lon="-124.231998"></rtept><rtept lat="42.788527" lon="-124.228372"></rtept><rtept lat="42.788533" lon="-124.227072"></rtept><rtept lat="42.787231" lon="-124.227071"></rtept><rtept lat="42.783628" lon="-124.227068"></rtept><rtept lat="42.780025" lon="-124.227064"></rtept><rtept lat="42.776422" lon="-124.227061"></rtept><rtept lat="42.772812" lon="-124.227057"></rtept><rtept lat="42.769202" lon="-124.227054"></rtept></rte><rte><name>HUMMINGBIRD</name><type>Area</type><extensions><onx:style>dot</onx:style><onx:weight>4.0</onx:weight><onx:color>rgba(255, 51, 0, 1)</onx:color></extensions><rtept lat="42.775319" lon="-124.236859"></rtept><rtept lat="42.776394" lon="-124.236861"></rtept><rtept lat="42.776408" lon="-124.231961"></rtept><rtept lat="42.776422" lon="-124.227061"></rtept><rtept lat="42.772812" lon="-124.227057"></rtept><rtept lat="42.769202" lon="-124.227054"></rtept><rtept lat="42.769192" lon="-124.231939"></rtept><rtept lat="42.769182" lon="-124.236825"></rtept><rtept lat="42.772784" lon="-124.236847"></rtept><rtept lat="42.775319" lon="-124.236859"></rtept></rte><rte><name>RSM</name><type>Area</type><extensions><onx:style>dot</onx:style><onx:weight>4.0</onx:weight><onx:color>rgba(255, 51, 0, 1)</onx:color></extensions><rtept lat="42.769184" lon="-124.207460"></rtept><rtept lat="42.769198" lon="-124.212356"></rtept><rtept lat="42.769213" lon="-124.217252"></rtept><rtept lat="42.772831" lon="-124.217241"></rtept><rtept lat="42.776450" lon="-124.217229"></rtept><rtept lat="42.776429" lon="-124.212318"></rtept><rtept lat="42.776409" lon="-124.207407"></rtept><rtept lat="42.776388" lon="-124.202509"></rtept><rtept lat="42.776378" lon="-124.200000"></rtept><rtept lat="42.769162" lon="-124.200000"></rtept><rtept lat="42.769170" lon="-124.202542"></rtept><rtept lat="42.769170" lon="-124.202587"></rtept><rtept lat="42.769184" lon="-124.207460"></rtept></rte><rte><name>GOLDEN DRAGON</name><type>Area</type><extensions><onx:style>dot</onx:style><onx:weight>4.0</onx:weight><onx:color>rgba(255, 51, 0, 1)</onx:color></extensions><rtept lat="42.776475" lon="-124.255865"></rtept><rtept lat="42.783737" lon="-124.256343"></rtept><rtept lat="42.783668" lon="-124.246624"></rtept><rtept lat="42.776435" lon="-124.246365"></rtept><rtept lat="42.776475" lon="-124.255865"></rtept></rte><rte><name>LAURINA 1</name><type>Area</type><extensions><onx:style>dot</onx:style><onx:weight>4.0</onx:weight><onx:color>rgba(255, 51, 0, 1)</onx:color></extensions><rtept lat="42.769192" lon="-124.231939"></rtept><rtept lat="42.769182" lon="-124.236825"></rtept><rtept lat="42.772784" lon="-124.236847"></rtept><rtept lat="42.775319" lon="-124.236859"></rtept><rtept lat="42.776394" lon="-124.236861"></rtept><rtept lat="42.776408" lon="-124.231961"></rtept><rtept lat="42.776422" lon="-124.227061"></rtept><rtept lat="42.772812" lon="-124.227057"></rtept><rtept lat="42.769202" lon="-124.227054"></rtept><rtept lat="42.769192" lon="-124.231939"></rtept></rte><rte><name>LAURINA 2</name><type>Area</type><extensions><onx:style>dot</onx:style><onx:weight>4.0</onx:weight><onx:color>rgba(255, 51, 0, 1)</onx:color></extensions><rtept lat="42.769192" lon="-124.231939"></rtept><rtept lat="42.769182" lon="-124.236825"></rtept><rtept lat="42.772784" lon="-124.236847"></rtept><rtept lat="42.775319" lon="-124.236859"></rtept><rtept lat="42.776394" lon="-124.236861"></rtept><rtept lat="42.776408" lon="-124.231961"></rtept><rtept lat="42.776422" lon="-124.227061"></rtept><rtept lat="42.772812" lon="-124.227057"></rtept><rtept lat="42.769202" lon="-124.227054"></rtept><rtept lat="42.769192" lon="-124.231939"></rtept></rte><rte><name>LUCKY NUGGET</name><type>Area</type><extensions><onx:style>dot</onx:style><onx:weight>4.0</onx:weight><onx:color>rgba(255, 51, 0, 1)</onx:color></extensions><rtept lat="42.790986" lon="-124.266073"></rtept><rtept lat="42.790964" lon="-124.261157"></rtept><rtept lat="42.790943" lon="-124.256242"></rtept><rtept lat="42.787340" lon="-124.256293"></rtept><rtept lat="42.783737" lon="-124.256343"></rtept><rtept lat="42.783736" lon="-124.261243"></rtept><rtept lat="42.783735" lon="-124.265098"></rtept><rtept lat="42.783735" lon="-124.266143"></rtept><rtept lat="42.787360" lon="-124.266108"></rtept><rtept lat="42.790986" lon="-124.266073"></rtept></rte><rte><name>T AND M</name><type>Area</type><extensions><onx:style>dot</onx:style><onx:weight>4.0</onx:weight><onx:color>rgba(255, 51, 0, 1)</onx:color></extensions><rtept lat="42.776475" lon="-124.255865"></rtept><rtept lat="42.776466" lon="-124.265462"></rtept><rtept lat="42.783718" lon="-124.265705"></rtept><rtept lat="42.783737" lon="-124.256343"></rtept><rtept lat="42.783668" lon="-124.246624"></rtept><rtept lat="42.776435" lon="-124.246365"></rtept><rtept lat="42.776475" lon="-124.255865"></rtept></rte><rte><name>FOUR K</name><type>Area</type><extensions><onx:style>dot</onx:style><onx:weight>4.0</onx:weight><onx:color>rgba(255, 51, 0, 1)</onx:color></extensions><rtept lat="42.769202" lon="-124.227054"></rtept><rtept lat="42.765597" lon="-124.227085"></rtept><rtept lat="42.761991" lon="-124.227116"></rtept><rtept lat="42.761986" lon="-124.232030"></rtept><rtept lat="42.761980" lon="-124.236944"></rtept><rtept lat="42.765581" lon="-124.236884"></rtept><rtept lat="42.769182" lon="-124.236825"></rtept><rtept lat="42.769192" lon="-124.231939"></rtept><rtept lat="42.769202" lon="-124.227054"></rtept></rte><rte><name>CLEMENTINE 1&amp;2</name><type>Area</type><extensions><onx:style>dot</onx:style><onx:weight>4.0</onx:weight><onx:color>rgba(255, 51, 0, 1)</onx:color></extensions><rtept lat="42.809036" lon="-124.285519"></rtept><rtept lat="42.809052" lon="-124.290426"></rtept><rtept lat="42.812677" lon="-124.290396"></rtept><rtept lat="42.812672" lon="-124.285492"></rtept><rtept lat="42.809036" lon="-124.285519"></rtept></rte><rte><name>Splash 2</name><type>Area</type><extensions><onx:style>dot</onx:style><onx:weight>4.0</onx:weight><onx:color>rgba(255, 51, 0, 1)</onx:color></extensions><rtept lat="42.769213" lon="-124.275049"></rtept><rtept lat="42.783699" lon="-124.275068"></rtept><rtept lat="42.783735" lon="-124.266143"></rtept><rtept lat="42.783735" lon="-124.265098"></rtept><rtept lat="42.783736" lon="-124.261243"></rtept><rtept lat="42.783737" lon="-124.256343"></rtept><rtept lat="42.776475" lon="-124.255865"></rtept><rtept lat="42.776475" lon="-124.255885"></rtept><rtept lat="42.769213" lon="-124.255388"></rtept><rtept lat="42.769213" lon="-124.275049"></rtept></rte><rte><name>HOPE 2</name><type>Area</type><extensions><onx:style>dot</onx:style><onx:weight>4.0</onx:weight><onx:color>rgba(255, 51, 0, 1)</onx:color></extensions><rtept lat="42.806101" lon="-124.297167"></rtept><rtept lat="42.809074" lon="-124.297159"></rtept><rtept lat="42.809711" lon="-124.297157"></rtept><rtept lat="42.812686" lon="-124.297148"></rtept><rtept lat="42.812677" lon="-124.290396"></rtept><rtept lat="42.812672" lon="-124.285492"></rtept><rtept lat="42.809036" lon="-124.285519"></rtept><rtept lat="42.805400" lon="-124.285547"></rtept><rtept lat="42.805426" lon="-124.290455"></rtept><rtept lat="42.805462" lon="-124.297161"></rtept><rtept lat="42.806101" lon="-124.297167"></rtept></rte><rte><name>Calli Star</name><type>Area</type><extensions><onx:style>dot</onx:style><onx:weight>4.0</onx:weight><onx:color>rgba(255, 51, 0, 1)</onx:color></extensions><rtept lat="42.805400" lon="-124.285547"></rtept><rtept lat="42.809036" lon="-124.285519"></rtept><rtept lat="42.812672" lon="-124.285492"></rtept><rtept lat="42.812616" lon="-124.280592"></rtept><rtept lat="42.812561" lon="-124.275693"></rtept><rtept lat="42.808953" lon="-124.275724"></rtept><rtept lat="42.805346" lon="-124.275755"></rtept><rtept lat="42.805373" lon="-124.280651"></rtept><rtept lat="42.805400" lon="-124.285547"></rtept></rte><rte><name>NEW BEGINNINGS</name><type>Area</type><extensions><onx:style>dot</onx:style><onx:weight>4.0</onx:weight><onx:color>rgba(255, 51, 0, 1)</onx:color></extensions><rtept lat="42.805400" lon="-124.285547"></rtept><rtept lat="42.809036" lon="-124.285519"></rtept><rtept lat="42.812672" lon="-124.285492"></rtept><rtept lat="42.812616" lon="-124.280592"></rtept><rtept lat="42.812561" lon="-124.275693"></rtept><rtept lat="42.808953" lon="-124.275724"></rtept><rtept lat="42.805346" lon="-124.275755"></rtept><rtept lat="42.805373" lon="-124.280651"></rtept><rtept lat="42.805400" lon="-124.285547"></rtept></rte><rte><name>JANNY-D</name><type>Area</type><extensions><onx:style>dot</onx:style><onx:weight>4.0</onx:weight><onx:color>rgba(255, 51, 0, 1)</onx:color></extensions><rtept lat="42.805287" lon="-124.257333"></rtept><rtept lat="42.805291" lon="-124.258562"></rtept><rtept lat="42.806192" lon="-124.258551"></rtept><rtept lat="42.807094" lon="-124.258540"></rtept><rtept lat="42.807091" lon="-124.257311"></rtept><rtept lat="42.806189" lon="-124.257322"></rtept><rtept lat="42.805287" lon="-124.257333"></rtept></rte><rte><name>DB 2</name><type>Area</type><extensions><onx:style>dot</onx:style><onx:weight>4.0</onx:weight><onx:color>rgba(255, 51, 0, 1)</onx:color></extensions><rtept lat="42.765589" lon="-124.231985"></rtept><rtept lat="42.769192" lon="-124.231939"></rtept><rtept lat="42.769202" lon="-124.227054"></rtept><rtept lat="42.765597" lon="-124.227085"></rtept><rtept lat="42.765589" lon="-124.231985"></rtept></rte><rte><name>DB 1</name><type>Area</type><extensions><onx:style>dot</onx:style><onx:weight>4.0</onx:weight><onx:color>rgba(255, 51, 0, 1)</onx:color></extensions><rtept lat="42.769182" lon="-124.236825"></rtept><rtept lat="42.772784" lon="-124.236847"></rtept><rtept lat="42.775319" lon="-124.236859"></rtept><rtept lat="42.776394" lon="-124.236861"></rtept><rtept lat="42.779997" lon="-124.236883"></rtept><rtept lat="42.783599" lon="-124.236906"></rtept><rtept lat="42.787165" lon="-124.236918"></rtept><rtept lat="42.787215" lon="-124.236918"></rtept><rtept lat="42.788494" lon="-124.236923"></rtept><rtept lat="42.788508" lon="-124.233213"></rtept><rtept lat="42.788513" lon="-124.231998"></rtept><rtept lat="42.788527" lon="-124.228372"></rtept><rtept lat="42.788533" lon="-124.227072"></rtept><rtept lat="42.788549" lon="-124.223454"></rtept><rtept lat="42.788555" lon="-124.222147"></rtept><rtept lat="42.788571" lon="-124.218537"></rtept><rtept lat="42.788577" lon="-124.217214"></rtept><rtept lat="42.787309" lon="-124.217214"></rtept><rtept lat="42.783689" lon="-124.217219"></rtept><rtept lat="42.780070" lon="-124.217224"></rtept><rtept lat="42.776450" lon="-124.217229"></rtept><rtept lat="42.772831" lon="-124.217241"></rtept><rtept lat="42.769213" lon="-124.217252"></rtept><rtept lat="42.769207" lon="-124.222153"></rtept><rtept lat="42.769207" lon="-124.222275"></rtept><rtept lat="42.769202" lon="-124.227054"></rtept><rtept lat="42.769192" lon="-124.231939"></rtept><rtept lat="42.769182" lon="-124.236825"></rtept></rte><rte><name>Hell Begins</name><type>Area</type><extensions><onx:style>dot</onx:style><onx:weight>4.0</onx:weight><onx:color>rgba(255, 51, 0, 1)</onx:color></extensions><rtept lat="42.758390" lon="-124.222245"></rtept><rtept lat="42.761997" lon="-124.222214"></rtept><rtept lat="42.762002" lon="-124.217312"></rtept><rtept lat="42.758397" lon="-124.217342"></rtept><rtept lat="42.758390" lon="-124.222245"></rtept></rte></gpx>