<?xml version="1.0" encoding="UTF-8"?><kml xmlns="http://www.opengis.net/kml/2.2"><Document><name>sixes Historical sites</name><Style id="s0"><IconStyle><color>ff000000</color><scale>1.0</scale><Icon><href>http://maps.google.com/mapfiles/kml/shapes/placemark_circle.png</href></Icon></IconStyle></Style><Folder><name>Historical sites</name><Placemark><name>Placer - Wallace and Hanly Claimss</name><description>2 source record(s) merged within 75m | src: MILO, USMIN</description><styleUrl>#s0</styleUrl><Point><coordinates>-124.229661,42.774912,0</coordinates></Point></Placemark><Placemark><name>Placer - Inman Mine</name><description>2 source record(s) merged within 75m | src: MILO, USMIN</description><styleUrl>#s0</styleUrl><Point><coordinates>-124.304186,42.804516,0</coordinates></Point></Placemark><Placemark><name>Adit - Barklow Mountain</name><description>2 source record(s) merged within 75m | src: MILO, USMIN</description><styleUrl>#s0</styleUrl><Point><coordinates>-124.235827,42.768038,0</coordinates></Point></Placemark><Placemark><name>Placer - Corbin</name><description>1 source record(s) merged within 75m | src: MILO</description><styleUrl>#s0</styleUrl><Point><coordinates>-124.399842,42.809281,0</coordinates></Point></Placemark><Placemark><name>Placer - Divelbiss No.2</name><description>1 source record(s) merged within 75m | src: MILO</description><styleUrl>#s0</styleUrl><Point><coordinates>-124.392900,42.807336,0</coordinates></Point></Placemark><Placemark><name>Mine - Mccormick Mining and Mineral Co.</name><description>3 source record(s) merged within 75m | src: MILO, MRDS</description><styleUrl>#s0</styleUrl><Point><coordinates>-124.386776,42.806748,0</coordinates></Point></Placemark><Placemark><name>Mine - Sunrise gold Mining Co.</name><description>1 source record(s) merged within 75m | src: MILO</description><styleUrl>#s0</styleUrl><Point><coordinates>-124.359184,42.812655,0</coordinates></Point></Placemark><Placemark><name>Placer - Sixes River placers</name><description>1 source record(s) merged within 75m | src: MILO</description><styleUrl>#s0</styleUrl><Point><coordinates>-124.317896,42.804001,0</coordinates></Point></Placemark><Placemark><name>Mine - Butcher Hill Quartz</name><description>1 source record(s) merged within 75m | src: MILO</description><styleUrl>#s0</styleUrl><Point><coordinates>-124.238171,42.774003,0</coordinates></Point></Placemark><Placemark><name>Mine - Combination</name><description>2 source record(s) merged within 75m | src: MILO</description><styleUrl>#s0</styleUrl><Point><coordinates>-124.228058,42.772901,0</coordinates></Point></Placemark><Placemark><name>Mine - Bear Cat</name><description>1 source record(s) merged within 75m | src: MILO</description><styleUrl>#s0</styleUrl><Point><coordinates>-124.227337,42.778447,0</coordinates></Point></Placemark><Placemark><name>Mine - Big Ben</name><description>1 source record(s) merged within 75m | src: MILO</description><styleUrl>#s0</styleUrl><Point><coordinates>-124.205112,42.770948,0</coordinates></Point></Placemark><Placemark><name>Mine - War Baby</name><description>1 source record(s) merged within 75m | src: MILO</description><styleUrl>#s0</styleUrl><Point><coordinates>-124.214832,42.769281,0</coordinates></Point></Placemark><Placemark><name>Placer - Wagner Claims</name><description>1 source record(s) merged within 75m | src: MILO</description><styleUrl>#s0</styleUrl><Point><coordinates>-124.245625,42.768737,0</coordinates></Point></Placemark><Placemark><name>Placer - Way Claims</name><description>1 source record(s) merged within 75m | src: MILO</description><styleUrl>#s0</styleUrl><Point><coordinates>-124.240126,42.779037,0</coordinates></Point></Placemark><Placemark><name>Placer - Guerin Claim</name><description>1 source record(s) merged within 75m | src: MILO</description><styleUrl>#s0</styleUrl><Point><coordinates>-124.246825,42.776237,0</coordinates></Point></Placemark><Placemark><name>Mine - Rusty Gulch</name><description>1 source record(s) merged within 75m | src: MILO</description><styleUrl>#s0</styleUrl><Point><coordinates>-124.208124,42.777037,0</coordinates></Point></Placemark><Placemark><name>Placer - Smith and Robinson Claims</name><description>1 source record(s) merged within 75m | src: MILO</description><styleUrl>#s0</styleUrl><Point><coordinates>-124.220924,42.768437,0</coordinates></Point></Placemark><Placemark><name>Mine - Little Otter Placer</name><description>1 source record(s) merged within 75m | src: MRDS</description><styleUrl>#s0</styleUrl><Point><coordinates>-124.283980,42.812310,0</coordinates></Point></Placemark><Placemark><name>Mine - Siskiyou Mining Co</name><description>1 source record(s) merged within 75m | src: MRDS</description><styleUrl>#s0</styleUrl><Point><coordinates>-124.288680,42.811210,0</coordinates></Point></Placemark><Placemark><name>Mine - Hydro Sixes Mining Company</name><description>1 source record(s) merged within 75m | src: MRDS</description><styleUrl>#s0</styleUrl><Point><coordinates>-124.271180,42.810610,0</coordinates></Point></Placemark><Placemark><name>Mine - Wallace &amp; Hanly Claimss</name><description>1 source record(s) merged within 75m | src: MRDS</description><styleUrl>#s0</styleUrl><Point><coordinates>-124.228680,42.774510,0</coordinates></Point></Placemark><Placemark><name>Pit - Langlois</name><description>1 source record(s) merged within 75m | src: USMIN</description><styleUrl>#s0</styleUrl><Point><coordinates>-124.320290,42.847328,0</coordinates></Point></Placemark><Placemark><name>Pit - Powers</name><description>1 source record(s) merged within 75m | src: USMIN</description><styleUrl>#s0</styleUrl><Point><coordinates>-124.233142,42.767766,0</coordinates></Point></Placemark></Folder></Document></kml>