<?xml version="1.0" encoding="UTF-8"?>
<gpx xmlns:xsi="http://www.w3.org/2001/XMLSchema-instance" xmlns="http://www.topografix.com/GPX/1/1" xmlns:onx="http://www.onxmaps.com" xsi:schemaLocation="http://www.topografix.com/GPX/1/1 http://www.topografix.com/GPX/1/1/gpx.xsd" version="1.1" creator="onXmaps hunt ios"><wpt lat="42.804505" lon="-124.304314"><name>SCOUT 1 - Placer bench</name><desc>Inman Mine (placer (heuristic: surface workings)) | agency: BLM | 0m to stream | cluster: 1 nearby | src: MILO</desc><extensions><onx:icon>Location</onx:icon><onx:color>rgba(255, 51, 0, 1)</onx:color></extensions></wpt><wpt lat="42.776237" lon="-124.246825"><name>SCOUT 2 - Placer bench</name><desc>Guerin Claim (placer) | agency: USFS | 35m to stream | cluster: 0 nearby | NEAR ACTIVE CLAIM (&lt;50m, approx) | src: MILO</desc><extensions><onx:icon>Location</onx:icon><onx:color>rgba(255, 51, 0, 1)</onx:color></extensions></wpt><wpt lat="42.768737" lon="-124.245625"><name>SCOUT 3 - Placer bench</name><desc>Wagner Claims (placer) | agency: USFS | 43m to stream | cluster: 0 nearby | src: MILO</desc><extensions><onx:icon>Location</onx:icon><onx:color>rgba(255, 51, 0, 1)</onx:color></extensions></wpt><wpt lat="42.804001" lon="-124.317896"><name>SCOUT 4 - Placer bench</name><desc>Sixes River placers (placer) | agency: BLM | 53m to stream | cluster: 0 nearby | src: MILO</desc><extensions><onx:icon>Location</onx:icon><onx:color>rgba(255, 51, 0, 1)</onx:color></extensions></wpt><wpt lat="42.777037" lon="-124.208124"><name>SCOUT 5 - Lode/unknown outcrop</name><desc>Rusty Gulch (lode) | agency: USFS | 10m to stream | cluster: 0 nearby | src: MILO</desc><extensions><onx:icon>Location</onx:icon><onx:color>rgba(255, 51, 0, 1)</onx:color></extensions></wpt></gpx>