<?xml version="1.0" encoding="UTF-8"?><kml xmlns="http://www.opengis.net/kml/2.2"><Document><name>sixes Scout candidates</name><Style id="s0"><IconStyle><color>ff0033ff</color><scale>1.0</scale><Icon><href>http://maps.google.com/mapfiles/kml/shapes/placemark_circle.png</href></Icon></IconStyle></Style><Folder><name>Scout candidates</name><Placemark><name>SCOUT 1 - Placer bench</name><description>Inman Mine (placer (heuristic: surface workings)) | agency: BLM | 0m to stream | cluster: 1 nearby | src: MILO</description><styleUrl>#s0</styleUrl><Point><coordinates>-124.304314,42.804505,0</coordinates></Point></Placemark><Placemark><name>SCOUT 2 - Placer bench</name><description>Guerin Claim (placer) | agency: USFS | 35m to stream | cluster: 0 nearby | NEAR ACTIVE CLAIM (&lt;50m, approx) | src: MILO</description><styleUrl>#s0</styleUrl><Point><coordinates>-124.246825,42.776237,0</coordinates></Point></Placemark><Placemark><name>SCOUT 3 - Placer bench</name><description>Wagner Claims (placer) | agency: USFS | 43m to stream | cluster: 0 nearby | src: MILO</description><styleUrl>#s0</styleUrl><Point><coordinates>-124.245625,42.768737,0</coordinates></Point></Placemark><Placemark><name>SCOUT 4 - Placer bench</name><description>Sixes River placers (placer) | agency: BLM | 53m to stream | cluster: 0 nearby | src: MILO</description><styleUrl>#s0</styleUrl><Point><coordinates>-124.317896,42.804001,0</coordinates></Point></Placemark><Placemark><name>SCOUT 5 - Lode/unknown outcrop</name><description>Rusty Gulch (lode) | agency: USFS | 10m to stream | cluster: 0 nearby | src: MILO</description><styleUrl>#s0</styleUrl><Point><coordinates>-124.208124,42.777037,0</coordinates></Point></Placemark></Folder></Document></kml>