<?xml version="1.0" encoding="UTF-8"?><kml xmlns="http://www.opengis.net/kml/2.2"><Document><name>sixes Other active claims</name><Style id="s0"><LineStyle><color>ff0033ff</color><width>2</width></LineStyle><PolyStyle><color>400033ff</color></PolyStyle></Style><Folder><name>Other active claims</name><Placemark><name>BLUE JAY</name><description>lode | serial ORMC152162 | 20.66 ac | Active | qtr-sec OR 33 0320S 0130W 022 A SW|OR 33 0320S 0130W 027 A NW | recorded~2021 (DB date, not legal located date) | src: BLM MLRS Not Closed | boundary approx (BLM quarter-section) | do not dig here (active claim)</description><styleUrl>#s0</styleUrl><Polygon><outerBoundaryIs><LinearRing><coordinates>-124.236944,42.761980,0 -124.236884,42.765581,0 -124.236825,42.769182,0 -124.236847,42.772784,0 -124.236859,42.775319,0 -124.236861,42.776394,0 -124.231961,42.776408,0 -124.227061,42.776422,0 -124.227057,42.772812,0 -124.227054,42.769202,0 -124.227085,42.765597,0 -124.227116,42.761991,0 -124.232030,42.761986,0 -124.236944,42.761980,0</coordinates></LinearRing></outerBoundaryIs></Polygon></Placemark><Placemark><name>TATTOOED COYOTE</name><description>lode | serial ORMC158982 | 20.66 ac | Active | qtr-sec OR 33 0320S 0130W 023 A NE | recorded~2021 (DB date, not legal located date) | src: BLM MLRS Not Closed | boundary approx (BLM quarter-section) | do not dig here (active claim)</description><styleUrl>#s0</styleUrl><Polygon><outerBoundaryIs><LinearRing><coordinates>-124.207407,42.776409,0 -124.207388,42.780039,0 -124.207369,42.783669,0 -124.207349,42.787298,0 -124.207342,42.788602,0 -124.203911,42.788611,0 -124.202470,42.788616,0 -124.200000,42.788623,0 -124.200000,42.776378,0 -124.202509,42.776388,0 -124.207407,42.776409,0</coordinates></LinearRing></outerBoundaryIs></Polygon></Placemark><Placemark><name>RUSTY NUGGET</name><description>lode | serial ORMC159457 | 20.66 ac | Active | qtr-sec OR 33 0320S 0130W 022 A SW|OR 33 0320S 0130W 027 A NE | recorded~2021 (DB date, not legal located date) | src: BLM MLRS Not Closed | boundary approx (BLM quarter-section) | do not dig here (active claim)</description><styleUrl>#s0</styleUrl><Polygon><outerBoundaryIs><LinearRing><coordinates>-124.222275,42.769207,0 -124.222153,42.769207,0 -124.217252,42.769213,0 -124.217282,42.765607,0 -124.217312,42.762002,0 -124.222214,42.761997,0 -124.227116,42.761991,0 -124.227085,42.765597,0 -124.227054,42.769202,0 -124.222275,42.769207,0</coordinates></LinearRing></outerBoundaryIs></Polygon></Placemark><Placemark><name>RM Sixes</name><description>placer | serial OR105222736 | 20.0 ac | Active | qtr-sec OR 33 0320S 0130W 008 A NENE|OR 33 0320S 0130W 008 A SENE|OR 33 0320S 0130W 008 A NWNE|OR 33 0320S 0130W 008 A SWNE | recorded~2021 (DB date, not legal located date) | src: BLM MLRS Not Closed | boundary approx (BLM quarter-section) | do not …</description><styleUrl>#s0</styleUrl><Polygon><outerBoundaryIs><LinearRing><coordinates>-124.256105,42.805283,0 -124.261018,42.805299,0 -124.265932,42.805315,0 -124.265896,42.808910,0 -124.265860,42.812506,0 -124.260936,42.812503,0 -124.256012,42.812501,0 -124.256059,42.808892,0 -124.256105,42.805283,0</coordinates></LinearRing></outerBoundaryIs></Polygon></Placemark><Placemark><name>Hankie 2</name><description>placer | serial OR105789379 | 20.0 ac | Active | qtr-sec OR 33 0320S 0130W 017 A SE|OR 33 0320S 0130W 017 A SWSE|OR 33 0320S 0130W 017 A NESE|OR 33 0320S 0130W 017 A SESE|OR 33 0320S 0130W 017 A NWSE | recorded~2022 (DB date, not legal located date) | src: BLM MLRS Not Closed | boundary approx (BLM…</description><styleUrl>#s0</styleUrl><Polygon><outerBoundaryIs><LinearRing><coordinates>-124.256343,42.783737,0 -124.261243,42.783736,0 -124.265098,42.783735,0 -124.266143,42.783735,0 -124.266108,42.787360,0 -124.266073,42.790986,0 -124.261157,42.790964,0 -124.256242,42.790943,0 -124.256293,42.787340,0 -124.256343,42.783737,0</coordinates></LinearRing></outerBoundaryIs></Polygon></Placemark><Placemark><name>Jak 3</name><description>placer | serial OR105789380 | 20.0 ac | Active | qtr-sec OR 33 0320S 0130W 020 A NE|OR 33 0320S 0130W 020 A Unsurveyed Protracted PB40 | recorded~2022 (DB date, not legal located date) | src: BLM MLRS Not Closed | boundary approx (BLM quarter-section) | do not dig here (active claim)</description><styleUrl>#s0</styleUrl><Polygon><outerBoundaryIs><LinearRing><coordinates>-124.275049,42.769213,0 -124.275068,42.783699,0 -124.266143,42.783735,0 -124.265098,42.783735,0 -124.261243,42.783736,0 -124.256343,42.783737,0 -124.255865,42.776475,0 -124.255885,42.776475,0 -124.255388,42.769213,0 -124.275049,42.769213,0</coordinates></LinearRing></outerBoundaryIs></Polygon></Placemark><Placemark><name>Big Trigger Dog</name><description>placer | serial OR105824636 | 60.0 ac | Filed | qtr-sec OR 33 0320S 0130W 026 A SW | recorded~2023 (DB date, not legal located date) | src: BLM MLRS Not Closed | boundary approx (BLM quarter-section) | do not dig here (active claim)</description><styleUrl>#s0</styleUrl><Polygon><outerBoundaryIs><LinearRing><coordinates>-124.217312,42.762002,0 -124.212417,42.761992,0 -124.207522,42.761982,0 -124.207545,42.758380,0 -124.207569,42.754779,0 -124.212470,42.754785,0 -124.217372,42.754792,0 -124.217342,42.758397,0 -124.217312,42.762002,0</coordinates></LinearRing></outerBoundaryIs></Polygon></Placemark><Placemark><name>2 SVINOR</name><description>placer | serial ORMC155518 | 20.0 ac | Active | qtr-sec OR 33 0320S 0130W 021 A NE | recorded~2021 (DB date, not legal located date) | src: BLM MLRS Not Closed | boundary approx (BLM quarter-section) | do not dig here (active claim)</description><styleUrl>#s0</styleUrl><Polygon><outerBoundaryIs><LinearRing><coordinates>-124.246365,42.776435,0 -124.246624,42.783668,0 -124.236906,42.783599,0 -124.236861,42.776394,0 -124.246365,42.776435,0</coordinates></LinearRing></outerBoundaryIs></Polygon></Placemark><Placemark><name>3 JAR L</name><description>placer | serial ORMC155519 | 20.0 ac | Active | qtr-sec OR 33 0320S 0130W 021 A NE | recorded~2021 (DB date, not legal located date) | src: BLM MLRS Not Closed | boundary approx (BLM quarter-section) | do not dig here (active claim)</description><styleUrl>#s0</styleUrl><Polygon><outerBoundaryIs><LinearRing><coordinates>-124.246365,42.776435,0 -124.246624,42.783668,0 -124.236906,42.783599,0 -124.236861,42.776394,0 -124.246365,42.776435,0</coordinates></LinearRing></outerBoundaryIs></Polygon></Placemark><Placemark><name>JDL</name><description>placer | serial ORMC155572 | 50.0 ac | Active | qtr-sec OR 33 0320S 0130W 022 A SE|OR 33 0320S 0130W 027 A NE | recorded~2021 (DB date, not legal located date) | src: BLM MLRS Not Closed | boundary approx (BLM quarter-section) | do not dig here (active claim)</description><styleUrl>#s0</styleUrl><Polygon><outerBoundaryIs><LinearRing><coordinates>-124.222214,42.761997,0 -124.227116,42.761991,0 -124.227085,42.765597,0 -124.227054,42.769202,0 -124.227057,42.772812,0 -124.227061,42.776422,0 -124.222145,42.776436,0 -124.217229,42.776450,0 -124.217241,42.772831,0 -124.217252,42.769213,0 -124.217282,42.765607,0 -124.217312,42.762002,0 -124.222214,42.761997,0</coordinates></LinearRing></outerBoundaryIs></Polygon></Placemark><Placemark><name>POVERTY PASS</name><description>placer | serial ORMC155648 | 40.0 ac | Active | qtr-sec OR 33 0320S 0130W 022 A SE|OR 33 0320S 0130W 027 A NE | recorded~2021 (DB date, not legal located date) | src: BLM MLRS Not Closed | boundary approx (BLM quarter-section) | do not dig here (active claim)</description><styleUrl>#s0</styleUrl><Polygon><outerBoundaryIs><LinearRing><coordinates>-124.222214,42.761997,0 -124.227116,42.761991,0 -124.227085,42.765597,0 -124.227054,42.769202,0 -124.227057,42.772812,0 -124.227061,42.776422,0 -124.222145,42.776436,0 -124.217229,42.776450,0 -124.217241,42.772831,0 -124.217252,42.769213,0 -124.217282,42.765607,0 -124.217312,42.762002,0 -124.222214,42.761997,0</coordinates></LinearRing></outerBoundaryIs></Polygon></Placemark><Placemark><name>CONFEDERATE</name><description>placer | serial ORMC160783 | 80.0 ac | Active | qtr-sec OR 33 0320S 0130W 027 A NE|OR 33 0320S 0130W 027 A SE | recorded~2021 (DB date, not legal located date) | src: BLM MLRS Not Closed | boundary approx (BLM quarter-section) | do not dig here (active claim)</description><styleUrl>#s0</styleUrl><Polygon><outerBoundaryIs><LinearRing><coordinates>-124.222275,42.754782,0 -124.227179,42.754772,0 -124.227148,42.758382,0 -124.227116,42.761991,0 -124.227085,42.765597,0 -124.227054,42.769202,0 -124.222275,42.769207,0 -124.222153,42.769207,0 -124.217252,42.769213,0 -124.217282,42.765607,0 -124.217312,42.762002,0 -124.217342,42.758397,0 -124.217372,42.754792,0 -124.222275,42.754782,0</coordinates></LinearRing></outerBoundaryIs></Polygon></Placemark><Placemark><name>2 MONA</name><description>placer | serial ORMC164503 | 20.0 ac | Active | qtr-sec OR 33 0320S 0130W 021 A NE | recorded~2021 (DB date, not legal located date) | src: BLM MLRS Not Closed | boundary approx (BLM quarter-section) | do not dig here (active claim)</description><styleUrl>#s0</styleUrl><Polygon><outerBoundaryIs><LinearRing><coordinates>-124.246365,42.776435,0 -124.246624,42.783668,0 -124.236906,42.783599,0 -124.236861,42.776394,0 -124.246365,42.776435,0</coordinates></LinearRing></outerBoundaryIs></Polygon></Placemark><Placemark><name>5 NORGE</name><description>placer | serial ORMC164504 | 20.0 ac | Active | qtr-sec OR 33 0320S 0130W 021 A NE | recorded~2021 (DB date, not legal located date) | src: BLM MLRS Not Closed | boundary approx (BLM quarter-section) | do not dig here (active claim)</description><styleUrl>#s0</styleUrl><Polygon><outerBoundaryIs><LinearRing><coordinates>-124.246365,42.776435,0 -124.246624,42.783668,0 -124.236906,42.783599,0 -124.236861,42.776394,0 -124.246365,42.776435,0</coordinates></LinearRing></outerBoundaryIs></Polygon></Placemark><Placemark><name>DOUGLAS BONANZA</name><description>placer | serial ORMC165199 | 60.0 ac | Active | qtr-sec OR 33 0320S 0130W 008 A NW | recorded~2021 (DB date, not legal located date) | src: BLM MLRS Not Closed | boundary approx (BLM quarter-section) | do not dig here (active claim)</description><styleUrl>#s0</styleUrl><Polygon><outerBoundaryIs><LinearRing><coordinates>-124.275724,42.808953,0 -124.275693,42.812561,0 -124.270776,42.812533,0 -124.265860,42.812506,0 -124.265896,42.808910,0 -124.265932,42.805315,0 -124.270843,42.805331,0 -124.275755,42.805346,0 -124.275724,42.808953,0</coordinates></LinearRing></outerBoundaryIs></Polygon></Placemark><Placemark><name>JENNIFER</name><description>placer | serial ORMC167882 | 20.0 ac | Active | qtr-sec OR 33 0320S 0130W 008 A NW | recorded~2021 (DB date, not legal located date) | src: BLM MLRS Not Closed | boundary approx (BLM quarter-section) | do not dig here (active claim)</description><styleUrl>#s0</styleUrl><Polygon><outerBoundaryIs><LinearRing><coordinates>-124.275724,42.808953,0 -124.275693,42.812561,0 -124.270776,42.812533,0 -124.265860,42.812506,0 -124.265896,42.808910,0 -124.265932,42.805315,0 -124.270843,42.805331,0 -124.275755,42.805346,0 -124.275724,42.808953,0</coordinates></LinearRing></outerBoundaryIs></Polygon></Placemark><Placemark><name>BEAR PAN FLAT</name><description>placer | serial ORMC168903 | 40.0 ac | Active | qtr-sec OR 33 0320S 0130W 022 A NW|OR 33 0320S 0130W 022 A SW|OR 33 0320S 0130W 021 A NE|OR 33 0320S 0130W 021 A SE | recorded~2021 (DB date, not legal located date) | src: BLM MLRS Not Closed | boundary approx (BLM quarter-section) | do not dig here …</description><styleUrl>#s0</styleUrl><Polygon><outerBoundaryIs><LinearRing><coordinates>-124.227054,42.769202,0 -124.231939,42.769192,0 -124.236825,42.769182,0 -124.246106,42.769197,0 -124.246365,42.776435,0 -124.246624,42.783668,0 -124.236906,42.783599,0 -124.236918,42.787165,0 -124.236918,42.787215,0 -124.236923,42.788494,0 -124.233213,42.788508,0 -124.231998,42.788513,0 -124.228372,42.788527,0 -124.227072,42.788533,0 -124.227071,42.787231,0 -124.227068,42.783628,0 -124.227064,42.780025,0 -124.227061,42.776422,0 -124.227057,42.772812,0 -124.227054,42.769202,0</coordinates></LinearRing></outerBoundaryIs></Polygon></Placemark><Placemark><name>HUMMINGBIRD</name><description>placer | serial ORMC168904 | 20.0 ac | Active | qtr-sec OR 33 0320S 0130W 022 A SW | recorded~2021 (DB date, not legal located date) | src: BLM MLRS Not Closed | boundary approx (BLM quarter-section) | do not dig here (active claim)</description><styleUrl>#s0</styleUrl><Polygon><outerBoundaryIs><LinearRing><coordinates>-124.236859,42.775319,0 -124.236861,42.776394,0 -124.231961,42.776408,0 -124.227061,42.776422,0 -124.227057,42.772812,0 -124.227054,42.769202,0 -124.231939,42.769192,0 -124.236825,42.769182,0 -124.236847,42.772784,0 -124.236859,42.775319,0</coordinates></LinearRing></outerBoundaryIs></Polygon></Placemark><Placemark><name>RSM</name><description>placer | serial ORMC176614 | 40.0 ac | Active | qtr-sec OR 33 0320S 0130W 023 A SW|OR 33 0320S 0130W 023 A SE | recorded~2021 (DB date, not legal located date) | src: BLM MLRS Not Closed | boundary approx (BLM quarter-section) | do not dig here (active claim)</description><styleUrl>#s0</styleUrl><Polygon><outerBoundaryIs><LinearRing><coordinates>-124.207460,42.769184,0 -124.212356,42.769198,0 -124.217252,42.769213,0 -124.217241,42.772831,0 -124.217229,42.776450,0 -124.212318,42.776429,0 -124.207407,42.776409,0 -124.202509,42.776388,0 -124.200000,42.776378,0 -124.200000,42.769162,0 -124.202542,42.769170,0 -124.202587,42.769170,0 -124.207460,42.769184,0</coordinates></LinearRing></outerBoundaryIs></Polygon></Placemark><Placemark><name>GOLDEN DRAGON</name><description>placer | serial ORMC177068 | 20.0 ac | Active | qtr-sec OR 33 0320S 0130W 021 A NW | recorded~2021 (DB date, not legal located date) | src: BLM MLRS Not Closed | boundary approx (BLM quarter-section) | do not dig here (active claim)</description><styleUrl>#s0</styleUrl><Polygon><outerBoundaryIs><LinearRing><coordinates>-124.255865,42.776475,0 -124.256343,42.783737,0 -124.246624,42.783668,0 -124.246365,42.776435,0 -124.255865,42.776475,0</coordinates></LinearRing></outerBoundaryIs></Polygon></Placemark><Placemark><name>LAURINA 1</name><description>placer | serial ORMC177069 | 20.0 ac | Active | qtr-sec OR 33 0320S 0130W 022 A SW | recorded~2021 (DB date, not legal located date) | src: BLM MLRS Not Closed | boundary approx (BLM quarter-section) | do not dig here (active claim)</description><styleUrl>#s0</styleUrl><Polygon><outerBoundaryIs><LinearRing><coordinates>-124.231939,42.769192,0 -124.236825,42.769182,0 -124.236847,42.772784,0 -124.236859,42.775319,0 -124.236861,42.776394,0 -124.231961,42.776408,0 -124.227061,42.776422,0 -124.227057,42.772812,0 -124.227054,42.769202,0 -124.231939,42.769192,0</coordinates></LinearRing></outerBoundaryIs></Polygon></Placemark><Placemark><name>LAURINA 2</name><description>placer | serial ORMC177070 | 20.0 ac | Active | qtr-sec OR 33 0320S 0130W 022 A SW | recorded~2021 (DB date, not legal located date) | src: BLM MLRS Not Closed | boundary approx (BLM quarter-section) | do not dig here (active claim)</description><styleUrl>#s0</styleUrl><Polygon><outerBoundaryIs><LinearRing><coordinates>-124.231939,42.769192,0 -124.236825,42.769182,0 -124.236847,42.772784,0 -124.236859,42.775319,0 -124.236861,42.776394,0 -124.231961,42.776408,0 -124.227061,42.776422,0 -124.227057,42.772812,0 -124.227054,42.769202,0 -124.231939,42.769192,0</coordinates></LinearRing></outerBoundaryIs></Polygon></Placemark><Placemark><name>LUCKY NUGGET</name><description>placer | serial ORMC177071 | 20.0 ac | Active | qtr-sec OR 33 0320S 0130W 017 A SE|OR 33 0320S 0130W 020 A NE | recorded~2021 (DB date, not legal located date) | src: BLM MLRS Not Closed | boundary approx (BLM quarter-section) | do not dig here (active claim)</description><styleUrl>#s0</styleUrl><Polygon><outerBoundaryIs><LinearRing><coordinates>-124.266073,42.790986,0 -124.261157,42.790964,0 -124.256242,42.790943,0 -124.256293,42.787340,0 -124.256343,42.783737,0 -124.261243,42.783736,0 -124.265098,42.783735,0 -124.266143,42.783735,0 -124.266108,42.787360,0 -124.266073,42.790986,0</coordinates></LinearRing></outerBoundaryIs></Polygon></Placemark><Placemark><name>T AND M</name><description>placer | serial ORMC177072 | 20.0 ac | Active | qtr-sec OR 33 0320S 0130W 020 A NE|OR 33 0320S 0130W 021 A NW | recorded~2021 (DB date, not legal located date) | src: BLM MLRS Not Closed | boundary approx (BLM quarter-section) | do not dig here (active claim)</description><styleUrl>#s0</styleUrl><Polygon><outerBoundaryIs><LinearRing><coordinates>-124.255865,42.776475,0 -124.265462,42.776466,0 -124.265705,42.783718,0 -124.256343,42.783737,0 -124.246624,42.783668,0 -124.246365,42.776435,0 -124.255865,42.776475,0</coordinates></LinearRing></outerBoundaryIs></Polygon></Placemark><Placemark><name>FOUR K</name><description>placer | serial ORMC178101 | 60.0 ac | Active | qtr-sec OR 33 0320S 0130W 027 A NW | recorded~2021 (DB date, not legal located date) | src: BLM MLRS Not Closed | boundary approx (BLM quarter-section) | do not dig here (active claim)</description><styleUrl>#s0</styleUrl><Polygon><outerBoundaryIs><LinearRing><coordinates>-124.227054,42.769202,0 -124.227085,42.765597,0 -124.227116,42.761991,0 -124.232030,42.761986,0 -124.236944,42.761980,0 -124.236884,42.765581,0 -124.236825,42.769182,0 -124.231939,42.769192,0 -124.227054,42.769202,0</coordinates></LinearRing></outerBoundaryIs></Polygon></Placemark><Placemark><name>CLEMENTINE 1&amp;2</name><description>placer | serial ORMC25726 | 40.0 ac | Active | qtr-sec OR 33 0320S 0130W 007 A NENW | recorded~2021 (DB date, not legal located date) | src: BLM MLRS Not Closed | boundary approx (BLM quarter-section) | do not dig here (active claim)</description><styleUrl>#s0</styleUrl><Polygon><outerBoundaryIs><LinearRing><coordinates>-124.285519,42.809036,0 -124.290426,42.809052,0 -124.290396,42.812677,0 -124.285492,42.812672,0 -124.285519,42.809036,0</coordinates></LinearRing></outerBoundaryIs></Polygon></Placemark><Placemark><name>Splash 2</name><description>placer | serial OR105789381 | 20.0 ac | Active | qtr-sec OR 33 0320S 0130W 020 A Unsurveyed Protracted PB40|OR 33 0320S 0130W 020 A NE | recorded~2023 (DB date, not legal located date) | src: BLM MLRS Not Closed | boundary approx (BLM quarter-section) | do not dig here (active claim)</description><styleUrl>#s0</styleUrl><Polygon><outerBoundaryIs><LinearRing><coordinates>-124.275049,42.769213,0 -124.275068,42.783699,0 -124.266143,42.783735,0 -124.265098,42.783735,0 -124.261243,42.783736,0 -124.256343,42.783737,0 -124.255865,42.776475,0 -124.255885,42.776475,0 -124.255388,42.769213,0 -124.275049,42.769213,0</coordinates></LinearRing></outerBoundaryIs></Polygon></Placemark><Placemark><name>HOPE 2</name><description>placer | serial OR106324275 | 1586.84 ac | Active | qtr-sec OR 33 0320S 0130W 007 Lot1 | OR 33 0320S 0130W 007 Lot2 | OR 33 0320S 0130W 007 A NW | recorded~2023 (DB date, not legal located date) | src: BLM MLRS Not Closed | boundary approx (BLM quarter-section) | do not dig here (active claim)</description><styleUrl>#s0</styleUrl><Polygon><outerBoundaryIs><LinearRing><coordinates>-124.297167,42.806101,0 -124.297159,42.809074,0 -124.297157,42.809711,0 -124.297148,42.812686,0 -124.290396,42.812677,0 -124.285492,42.812672,0 -124.285519,42.809036,0 -124.285547,42.805400,0 -124.290455,42.805426,0 -124.297161,42.805462,0 -124.297167,42.806101,0</coordinates></LinearRing></outerBoundaryIs></Polygon></Placemark><Placemark><name>Calli Star</name><description>placer | serial OR106324276 | 160.0 ac | Active | qtr-sec OR 33 0320S 0130W 007 A NE | recorded~2023 (DB date, not legal located date) | src: BLM MLRS Not Closed | boundary approx (BLM quarter-section) | do not dig here (active claim)</description><styleUrl>#s0</styleUrl><Polygon><outerBoundaryIs><LinearRing><coordinates>-124.285547,42.805400,0 -124.285519,42.809036,0 -124.285492,42.812672,0 -124.280592,42.812616,0 -124.275693,42.812561,0 -124.275724,42.808953,0 -124.275755,42.805346,0 -124.280651,42.805373,0 -124.285547,42.805400,0</coordinates></LinearRing></outerBoundaryIs></Polygon></Placemark><Placemark><name>NEW BEGINNINGS</name><description>placer | serial OR106324277 | 160.0 ac | Active | qtr-sec OR 33 0320S 0130W 007 A NE | recorded~2023 (DB date, not legal located date) | src: BLM MLRS Not Closed | boundary approx (BLM quarter-section) | do not dig here (active claim)</description><styleUrl>#s0</styleUrl><Polygon><outerBoundaryIs><LinearRing><coordinates>-124.285547,42.805400,0 -124.285519,42.809036,0 -124.285492,42.812672,0 -124.280592,42.812616,0 -124.275693,42.812561,0 -124.275724,42.808953,0 -124.275755,42.805346,0 -124.280651,42.805373,0 -124.285547,42.805400,0</coordinates></LinearRing></outerBoundaryIs></Polygon></Placemark><Placemark><name>JANNY-D</name><description>placer | serial OR106707112 | 120.0 ac | Filed | qtr-sec OR 33 0320S 0130W 008 E2SESWNE | OR 33 0320S 0130W 008 SWSENE | OR 33 0320S 0130W 008 W2SESENE | recorded~2024 (DB date, not legal located date) | src: BLM MLRS Not Closed | boundary approx (BLM quarter-section) | do not dig here (active clai…</description><styleUrl>#s0</styleUrl><Polygon><outerBoundaryIs><LinearRing><coordinates>-124.257333,42.805287,0 -124.258562,42.805291,0 -124.258551,42.806192,0 -124.258540,42.807094,0 -124.257311,42.807091,0 -124.257322,42.806189,0 -124.257333,42.805287,0</coordinates></LinearRing></outerBoundaryIs></Polygon></Placemark><Placemark><name>DB 2</name><description>placer | serial OR106712465 | 120.0 ac | Filed | qtr-sec OR 33 0320S 0130W 022 SWSE,SESW | OR 33 0320S 0130W 027 NENW | recorded~2025 (DB date, not legal located date) | src: BLM MLRS Not Closed | boundary approx (BLM quarter-section) | do not dig here (active claim)</description><styleUrl>#s0</styleUrl><Polygon><outerBoundaryIs><LinearRing><coordinates>-124.231985,42.765589,0 -124.231939,42.769192,0 -124.227054,42.769202,0 -124.227085,42.765597,0 -124.231985,42.765589,0</coordinates></LinearRing></outerBoundaryIs></Polygon></Placemark><Placemark><name>DB 1</name><description>placer | serial OR106712464 | 857.8 ac | Filed | qtr-sec OR 33 0320S 0130W 022 NESE1/4S1/2 | recorded~2025 (DB date, not legal located date) | src: BLM MLRS Not Closed | boundary approx (BLM quarter-section) | do not dig here (active claim)</description><styleUrl>#s0</styleUrl><Polygon><outerBoundaryIs><LinearRing><coordinates>-124.236825,42.769182,0 -124.236847,42.772784,0 -124.236859,42.775319,0 -124.236861,42.776394,0 -124.236883,42.779997,0 -124.236906,42.783599,0 -124.236918,42.787165,0 -124.236918,42.787215,0 -124.236923,42.788494,0 -124.233213,42.788508,0 -124.231998,42.788513,0 -124.228372,42.788527,0 -124.227072,42.788533,0 -124.223454,42.788549,0 -124.222147,42.788555,0 -124.218537,42.788571,0 -124.217214,42.788577,0 -124.217214,42.787309,0 -124.217219,42.783689,0 -124.217224,42.780070,0 -124.217229,42.776450,0 -124.217241,42.772831,0 -124.217252,42.769213,0 -124.222153,42.769207,0 -124.222275,42.769207,0 -124.227054,42.769202,0 -124.231939,42.769192,0 -124.236825,42.769182,0</coordinates></LinearRing></outerBoundaryIs></Polygon></Placemark><Placemark><name>Hell Begins</name><description>placer | serial OR106761546 | 40.0 ac | Active | qtr-sec OR 33 0320S 0130W 027 A NESE | recorded~2025 (DB date, not legal located date) | src: BLM MLRS Not Closed | boundary approx (BLM quarter-section) | do not dig here (active claim)</description><styleUrl>#s0</styleUrl><Polygon><outerBoundaryIs><LinearRing><coordinates>-124.222245,42.758390,0 -124.222214,42.761997,0 -124.217312,42.762002,0 -124.217342,42.758397,0 -124.222245,42.758390,0</coordinates></LinearRing></outerBoundaryIs></Polygon></Placemark></Folder></Document></kml>