<?xml version="1.0" encoding="UTF-8"?>
<gpx xmlns:xsi="http://www.w3.org/2001/XMLSchema-instance" xmlns="http://www.topografix.com/GPX/1/1" xmlns:onx="http://www.onxmaps.com" xsi:schemaLocation="http://www.topografix.com/GPX/1/1 http://www.topografix.com/GPX/1/1/gpx.xsd" version="1.1" creator="onXmaps hunt ios"><wpt lat="42.774912" lon="-124.229661"><name>Placer - Wallace and Hanly Clai…</name><desc>2 source record(s) merged within 75m | src: MILO, USMIN</desc><extensions><onx:icon>Mineral Site</onx:icon><onx:color>rgba(0, 0, 0, 1)</onx:color></extensions></wpt><wpt lat="42.804516" lon="-124.304186"><name>Placer - Inman Mine</name><desc>2 source record(s) merged within 75m | src: MILO, USMIN</desc><extensions><onx:icon>Mineral Site</onx:icon><onx:color>rgba(0, 0, 0, 1)</onx:color></extensions></wpt><wpt lat="42.768038" lon="-124.235827"><name>Adit - Barklow Mountain</name><desc>2 source record(s) merged within 75m | src: MILO, USMIN</desc><extensions><onx:icon>Location</onx:icon><onx:color>rgba(0, 0, 0, 1)</onx:color></extensions></wpt><wpt lat="42.809281" lon="-124.399842"><name>Placer - Corbin</name><desc>1 source record(s) merged within 75m | src: MILO</desc><extensions><onx:icon>Mineral Site</onx:icon><onx:color>rgba(0, 0, 0, 1)</onx:color></extensions></wpt><wpt lat="42.807336" lon="-124.392900"><name>Placer - Divelbiss No.2</name><desc>1 source record(s) merged within 75m | src: MILO</desc><extensions><onx:icon>Mineral Site</onx:icon><onx:color>rgba(0, 0, 0, 1)</onx:color></extensions></wpt><wpt lat="42.806748" lon="-124.386776"><name>Mine - Mccormick Mining and Min…</name><desc>3 source record(s) merged within 75m | src: MILO, MRDS</desc><extensions><onx:icon>Location</onx:icon><onx:color>rgba(0, 0, 0, 1)</onx:color></extensions></wpt><wpt lat="42.812655" lon="-124.359184"><name>Mine - Sunrise gold Mining Co.</name><desc>1 source record(s) merged within 75m | src: MILO</desc><extensions><onx:icon>Location</onx:icon><onx:color>rgba(0, 0, 0, 1)</onx:color></extensions></wpt><wpt lat="42.804001" lon="-124.317896"><name>Placer - Sixes River placers</name><desc>1 source record(s) merged within 75m | src: MILO</desc><extensions><onx:icon>Mineral Site</onx:icon><onx:color>rgba(0, 0, 0, 1)</onx:color></extensions></wpt><wpt lat="42.774003" lon="-124.238171"><name>Mine - Butcher Hill Quartz</name><desc>1 source record(s) merged within 75m | src: MILO</desc><extensions><onx:icon>Location</onx:icon><onx:color>rgba(0, 0, 0, 1)</onx:color></extensions></wpt><wpt lat="42.772901" lon="-124.228058"><name>Mine - Combination</name><desc>2 source record(s) merged within 75m | src: MILO</desc><extensions><onx:icon>Location</onx:icon><onx:color>rgba(0, 0, 0, 1)</onx:color></extensions></wpt><wpt lat="42.778447" lon="-124.227337"><name>Mine - Bear Cat</name><desc>1 source record(s) merged within 75m | src: MILO</desc><extensions><onx:icon>Location</onx:icon><onx:color>rgba(0, 0, 0, 1)</onx:color></extensions></wpt><wpt lat="42.770948" lon="-124.205112"><name>Mine - Big Ben</name><desc>1 source record(s) merged within 75m | src: MILO</desc><extensions><onx:icon>Location</onx:icon><onx:color>rgba(0, 0, 0, 1)</onx:color></extensions></wpt><wpt lat="42.769281" lon="-124.214832"><name>Mine - War Baby</name><desc>1 source record(s) merged within 75m | src: MILO</desc><extensions><onx:icon>Location</onx:icon><onx:color>rgba(0, 0, 0, 1)</onx:color></extensions></wpt><wpt lat="42.768737" lon="-124.245625"><name>Placer - Wagner Claims</name><desc>1 source record(s) merged within 75m | src: MILO</desc><extensions><onx:icon>Mineral Site</onx:icon><onx:color>rgba(0, 0, 0, 1)</onx:color></extensions></wpt><wpt lat="42.779037" lon="-124.240126"><name>Placer - Way Claims</name><desc>1 source record(s) merged within 75m | src: MILO</desc><extensions><onx:icon>Mineral Site</onx:icon><onx:color>rgba(0, 0, 0, 1)</onx:color></extensions></wpt><wpt lat="42.776237" lon="-124.246825"><name>Placer - Guerin Claim</name><desc>1 source record(s) merged within 75m | src: MILO</desc><extensions><onx:icon>Mineral Site</onx:icon><onx:color>rgba(0, 0, 0, 1)</onx:color></extensions></wpt><wpt lat="42.777037" lon="-124.208124"><name>Mine - Rusty Gulch</name><desc>1 source record(s) merged within 75m | src: MILO</desc><extensions><onx:icon>Location</onx:icon><onx:color>rgba(0, 0, 0, 1)</onx:color></extensions></wpt><wpt lat="42.768437" lon="-124.220924"><name>Placer - Smith and Robinson Cla…</name><desc>1 source record(s) merged within 75m | src: MILO</desc><extensions><onx:icon>Mineral Site</onx:icon><onx:color>rgba(0, 0, 0, 1)</onx:color></extensions></wpt><wpt lat="42.812310" lon="-124.283980"><name>Mine - Little Otter Placer</name><desc>1 source record(s) merged within 75m | src: MRDS</desc><extensions><onx:icon>Location</onx:icon><onx:color>rgba(0, 0, 0, 1)</onx:color></extensions></wpt><wpt lat="42.811210" lon="-124.288680"><name>Mine - Siskiyou Mining Co</name><desc>1 source record(s) merged within 75m | src: MRDS</desc><extensions><onx:icon>Location</onx:icon><onx:color>rgba(0, 0, 0, 1)</onx:color></extensions></wpt><wpt lat="42.810610" lon="-124.271180"><name>Mine - Hydro Sixes Mining Compa…</name><desc>1 source record(s) merged within 75m | src: MRDS</desc><extensions><onx:icon>Location</onx:icon><onx:color>rgba(0, 0, 0, 1)</onx:color></extensions></wpt><wpt lat="42.774510" lon="-124.228680"><name>Mine - Wallace &amp; Hanly Claimss</name><desc>1 source record(s) merged within 75m | src: MRDS</desc><extensions><onx:icon>Location</onx:icon><onx:color>rgba(0, 0, 0, 1)</onx:color></extensions></wpt><wpt lat="42.847328" lon="-124.320290"><name>Pit - Langlois</name><desc>1 source record(s) merged within 75m | src: USMIN</desc><extensions><onx:icon>Location</onx:icon><onx:color>rgba(0, 0, 0, 1)</onx:color></extensions></wpt><wpt lat="42.767766" lon="-124.233142"><name>Pit - Powers</name><desc>1 source record(s) merged within 75m | src: USMIN</desc><extensions><onx:icon>Location</onx:icon><onx:color>rgba(0, 0, 0, 1)</onx:color></extensions></wpt></gpx>