<?xml version="1.0" encoding="UTF-8"?><gpx version="1.1" creator="gold-overlays" xmlns="http://www.topografix.com/GPX/1/1" xmlns:xsi="http://www.w3.org/2001/XMLSchema-instance" xsi:schemaLocation="http://www.topografix.com/GPX/1/1 http://www.topografix.com/GPX/1/1/gpx.xsd"><metadata><name>Upper Calapooia River</name></metadata><wpt lat="44.230269" lon="-122.332000"><name>Open Pit Mine</name><desc>USMIN Open Pit Mine | topo: Blue River (1989) 1:24000 | src: USGS USMIN</desc><sym>Dot</sym></wpt><wpt lat="44.213198" lon="-122.360462"><name>Prospect Pit</name><desc>USMIN Prospect Pit | topo: Blue River (1989) 1:24000 | src: USGS USMIN</desc><sym>Dot</sym></wpt><wpt lat="44.224103" lon="-122.335141"><name>Open Pit Mine</name><desc>USMIN Open Pit Mine | topo: Blue River (1955) 1:62500 | src: USGS USMIN</desc><sym>Dot</sym></wpt><wpt lat="44.233211" lon="-122.341851"><name>Open Pit Mine</name><desc>USMIN Open Pit Mine | topo: Blue River (1955) 1:62500 | src: USGS USMIN</desc><sym>Dot</sym></wpt><wpt lat="44.210797" lon="-122.342631"><name>Adit</name><desc>USMIN Adit | topo: Blue River (1955) 1:62500 | src: USGS USMIN</desc><sym>Dot</sym></wpt><wpt lat="44.210501" lon="-122.342246"><name>Adit</name><desc>USMIN Adit | topo: Blue River (1989) 1:24000 | src: USGS USMIN</desc><sym>Dot</sym></wpt><wpt lat="44.226261" lon="-122.338450"><name>Adit</name><desc>USMIN Adit | topo: Blue River (1989) 1:24000 | src: USGS USMIN</desc><sym>Dot</sym></wpt><wpt lat="44.231098" lon="-122.332456"><name>Adit</name><desc>USMIN Adit | topo: Blue River (1955) 1:62500 | src: USGS USMIN</desc><sym>Dot</sym></wpt><wpt lat="44.233315" lon="-122.342081"><name>Adit</name><desc>USMIN Adit | topo: Blue River (1989) 1:24000 | src: USGS USMIN</desc><sym>Dot</sym></wpt><wpt lat="44.224547" lon="-122.353866"><name>Adit</name><desc>USMIN Adit | topo: Blue River (1989) 1:24000 | src: USGS USMIN</desc><sym>Dot</sym></wpt><wpt lat="44.208251" lon="-122.342452"><name>Adit</name><desc>USMIN Adit | topo: Blue River (1989) 1:24000 | src: USGS USMIN</desc><sym>Dot</sym></wpt><wpt lat="44.211606" lon="-122.343440"><name>Adit</name><desc>USMIN Adit | topo: Blue River (1955) 1:62500 | src: USGS USMIN</desc><sym>Dot</sym></wpt><wpt lat="44.222169" lon="-122.328424"><name>Adit</name><desc>USMIN Adit | topo: Blue River (1989) 1:24000 | src: USGS USMIN</desc><sym>Dot</sym></wpt><wpt lat="44.205812" lon="-122.372081"><name>Adit</name><desc>USMIN Adit | topo: Blue River (1989) 1:24000 | src: USGS USMIN</desc><sym>Dot</sym></wpt><wpt lat="44.222579" lon="-122.330250"><name>Adit</name><desc>USMIN Adit | topo: Blue River (1989) 1:24000 | src: USGS USMIN</desc><sym>Dot</sym></wpt><wpt lat="44.212133" lon="-122.343450"><name>Adit</name><desc>USMIN Adit | topo: Blue River (1989) 1:24000 | src: USGS USMIN</desc><sym>Dot</sym></wpt><wpt lat="44.208199" lon="-122.342869"><name>Adit</name><desc>USMIN Adit | topo: Blue River (1955) 1:62500 | src: USGS USMIN</desc><sym>Dot</sym></wpt><wpt lat="44.234345" lon="-122.390968"><name>Pearl</name><desc>MILO gold | gold | lode | discovered ? | prod started ? | size: n/a | src: DOGAMI MILO-4 ID_06205</desc><sym>Bar</sym></wpt><wpt lat="44.223950" lon="-122.335706"><name>Rialto</name><desc>MILO gold | gold, silver | lode | discovered ? | prod started ? | size: n/a | src: DOGAMI MILO-4 ID_06206</desc><sym>Bar</sym></wpt><wpt lat="44.216586" lon="-122.364259"><name>Evening</name><desc>MILO gold | gold, silver | unknown | discovered ? | prod started ? | size: n/a | src: DOGAMI MILO-4 ID_06207</desc><sym>Bar</sym></wpt><wpt lat="44.234053" lon="-122.359081"><name>Red Buck</name><desc>MILO gold | gold | lode | discovered ? | prod started ? | size: n/a | src: DOGAMI MILO-4 ID_06208</desc><sym>Bar</sym></wpt><wpt lat="44.228183" lon="-122.354238"><name>Sochwich</name><desc>MILO gold | gold | lode | discovered ? | prod started ? | size: n/a | src: DOGAMI MILO-4 ID_06209</desc><sym>Bar</sym></wpt><wpt lat="44.236680" lon="-122.357004"><name>Higgins</name><desc>MILO gold | gold, silver | lode | discovered ? | prod started ? | size: n/a | src: DOGAMI MILO-4 ID_06210</desc><sym>Bar</sym></wpt><wpt lat="44.237553" lon="-122.352722"><name>Everlasting Jack</name><desc>MILO gold | gold | unknown | discovered ? | prod started ? | size: n/a | src: DOGAMI MILO-4 ID_06211</desc><sym>Bar</sym></wpt><wpt lat="44.236378" lon="-122.328545"><name>Great Eastern, Disc. Cut and Tunnel</name><desc>MILO gold | gold, silver | lode | discovered ? | prod started ? | size: n/a | src: DOGAMI MILO-4 ID_06212</desc><sym>Bar</sym></wpt><wpt lat="44.232782" lon="-122.343568"><name>Great Northern (upper adit)</name><desc>MILO gold | gold, silver, manganese | lode | discovered ? | prod started ? | size: small | src: DOGAMI MILO-4 ID_06213</desc><sym>Bar</sym></wpt><wpt lat="44.231384" lon="-122.331533"><name>Cinderella Disc. Shaft</name><desc>MILO gold | gold, manganese | lode | discovered ? | prod started ? | size: small | src: DOGAMI MILO-4 ID_06214</desc><sym>Bar</sym></wpt><wpt lat="44.237841" lon="-122.334987"><name>Treadwell</name><desc>MILO gold | gold | lode | discovered ? | prod started ? | size: n/a | src: DOGAMI MILO-4 ID_06215</desc><sym>Bar</sym></wpt><wpt lat="44.220973" lon="-122.365830"><name>Poorman</name><desc>MILO gold | gold, silver | lode | discovered ? | prod started ? | size: small | src: DOGAMI MILO-4 ID_06216</desc><sym>Bar</sym></wpt><wpt lat="44.211328" lon="-122.366180"><name>Durango</name><desc>MILO gold | gold, silver | lode | discovered ? | prod started ? | size: n/a | src: DOGAMI MILO-4 ID_06217</desc><sym>Bar</sym></wpt><wpt lat="44.225044" lon="-122.356178"><name>unnamed or NA</name><desc>MILO gold | gold, silver | lode | discovered ? | prod started ? | size: n/a | src: DOGAMI MILO-4 ID_06218</desc><sym>Bar</sym></wpt><wpt lat="44.233419" lon="-122.342000"><name>North Star</name><desc>MILO gold | gold, silver, manganese | lode | discovered ? | prod started ? | size: small | src: DOGAMI MILO-4 ID_06219</desc><sym>Bar</sym></wpt><wpt lat="44.230458" lon="-122.327749"><name>Tate Property, Cut Shaft</name><desc>MILO gold | gold, silver, zinc | lode | discovered ? | prod started ? | size: n/a | src: DOGAMI MILO-4 ID_07363</desc><sym>Bar</sym></wpt><wpt lat="44.211522" lon="-122.358628"><name>Treasure</name><desc>MILO gold | gold, silver | lode | discovered ? | prod started ? | size: small | src: DOGAMI MILO-4 ID_07365</desc><sym>Bar</sym></wpt><wpt lat="44.214506" lon="-122.350944"><name>Gold Dollar Claim</name><desc>MILO gold | gold, silver | lode | discovered ? | prod started ? | size: n/a | src: DOGAMI MILO-4 ID_07366</desc><sym>Bar</sym></wpt><wpt lat="44.222195" lon="-122.328546"><name>Rowena Group</name><desc>MILO gold | gold, silver, copper, zinc, lead | lode | discovered ? | prod started ? | size: n/a | src: DOGAMI MILO-4 ID_07367</desc><sym>Bar</sym></wpt><wpt lat="44.210853" lon="-122.342439"><name>Lucky Boy</name><desc>MILO gold | gold, silver, copper, lead, zinc, antimony | lode | discovered 1887 | prod started ? | size: small | src: DOGAMI MILO-4 ID_07368</desc><sym>Bar</sym></wpt><wpt lat="44.205352" lon="-122.372052"><name>Union</name><desc>MILO gold | gold | lode | discovered ? | prod started ? | size: small | src: DOGAMI MILO-4 ID_07369</desc><sym>Bar</sym></wpt><wpt lat="44.208466" lon="-122.334805"><name>Lucky Girl</name><desc>MILO gold | gold | lode | discovered ? | prod started ? | size: n/a | src: DOGAMI MILO-4 ID_07370</desc><sym>Bar</sym></wpt><wpt lat="44.198627" lon="-122.325373"><name>Tri-Metals</name><desc>MILO gold | gold | unknown | discovered ? | prod started ? | size: n/a | src: DOGAMI MILO-4 ID_07371</desc><sym>Bar</sym></wpt><wpt lat="44.188559" lon="-122.311787"><name>Great Western</name><desc>MILO gold | gold, silver | lode | discovered ? | prod started ? | size: n/a | src: DOGAMI MILO-4 ID_07372</desc><sym>Bar</sym></wpt><wpt lat="44.184045" lon="-122.303480"><name>Jry Group</name><desc>MILO gold | gold | unknown | discovered ? | prod started ? | size: n/a | src: DOGAMI MILO-4 ID_07373</desc><sym>Bar</sym></wpt><wpt lat="44.222754" lon="-122.330354"><name>Last Chance Claim</name><desc>MILO gold | gold, silver | lode | discovered ? | prod started ? | size: n/a | src: DOGAMI MILO-4 ID_07375</desc><sym>Bar</sym></wpt><wpt lat="44.233649" lon="-122.344052"><name>Great Northern (lower adit)</name><desc>MILO gold | gold, silver, manganese | lode | discovered ? | prod started ? | size: small | src: DOGAMI MILO-4 ID_21195</desc><sym>Bar</sym></wpt><wpt lat="44.230848" lon="-122.348973"><name>unnamed or NA</name><desc>MILO gold | gold | lode | discovered ? | prod started ? | size: n/a | src: DOGAMI MILO-4 ID_21269</desc><sym>Bar</sym></wpt><wpt lat="44.230280" lon="-122.348404"><name>unnamed or NA</name><desc>MILO gold | gold | lode | discovered ? | prod started ? | size: n/a | src: DOGAMI MILO-4 ID_21270</desc><sym>Bar</sym></wpt><wpt lat="44.228850" lon="-122.345638"><name>unnamed or NA</name><desc>MILO gold | gold | lode | discovered ? | prod started ? | size: n/a | src: DOGAMI MILO-4 ID_21271</desc><sym>Bar</sym></wpt><wpt lat="44.228798" lon="-122.345516"><name>unnamed or NA</name><desc>MILO gold | gold | lode | discovered ? | prod started ? | size: n/a | src: DOGAMI MILO-4 ID_21272</desc><sym>Bar</sym></wpt><wpt lat="44.228032" lon="-122.343812"><name>unnamed or NA</name><desc>MILO gold | gold | lode | discovered ? | prod started ? | size: n/a | src: DOGAMI MILO-4 ID_21273</desc><sym>Bar</sym></wpt><wpt lat="44.227423" lon="-122.345688"><name>unnamed or NA</name><desc>MILO gold | gold | lode | discovered ? | prod started ? | size: n/a | src: DOGAMI MILO-4 ID_21274</desc><sym>Bar</sym></wpt><wpt lat="44.227443" lon="-122.346060"><name>unnamed or NA</name><desc>MILO gold | gold | lode | discovered ? | prod started ? | size: n/a | src: DOGAMI MILO-4 ID_21275</desc><sym>Bar</sym></wpt><wpt lat="44.227580" lon="-122.345103"><name>unnamed or NA</name><desc>MILO gold | gold | lode | discovered ? | prod started ? | size: n/a | src: DOGAMI MILO-4 ID_21276</desc><sym>Bar</sym></wpt><wpt lat="44.227462" lon="-122.344444"><name>unnamed or NA</name><desc>MILO gold | gold | lode | discovered ? | prod started ? | size: n/a | src: DOGAMI MILO-4 ID_21277</desc><sym>Bar</sym></wpt><wpt lat="44.226160" lon="-122.342753"><name>unnamed or NA</name><desc>MILO gold | gold | lode | discovered ? | prod started ? | size: n/a | src: DOGAMI MILO-4 ID_21278</desc><sym>Bar</sym></wpt><wpt lat="44.217015" lon="-122.365154"><name>Poorman Claim Cut</name><desc>MILO gold | gold, silver | unknown | discovered ? | prod started ? | size: n/a | src: DOGAMI MILO-4 ID_21279</desc><sym>Bar</sym></wpt><wpt lat="44.212499" lon="-122.359423"><name>Eavning Claim Disc Cut</name><desc>MILO gold | gold, silver | unknown | discovered ? | prod started ? | size: n/a | src: DOGAMI MILO-4 ID_21280</desc><sym>Bar</sym></wpt><wpt lat="44.212115" lon="-122.359144"><name>Morning Claim Cut</name><desc>MILO gold | gold, silver | unknown | discovered ? | prod started ? | size: n/a | src: DOGAMI MILO-4 ID_21281</desc><sym>Bar</sym></wpt><wpt lat="44.211813" lon="-122.358911"><name>Morning Claim Cut</name><desc>MILO gold | gold, silver | unknown | discovered ? | prod started ? | size: n/a | src: DOGAMI MILO-4 ID_21282</desc><sym>Bar</sym></wpt><wpt lat="44.214229" lon="-122.357534"><name>Discovery Shaft No.1 (Crede No.2 claim)</name><desc>MILO gold | gold, silver | unknown | discovered ? | prod started ? | size: n/a | src: DOGAMI MILO-4 ID_21283</desc><sym>Bar</sym></wpt><wpt lat="44.214171" lon="-122.357095"><name>prospect</name><desc>MILO gold | gold, silver | unknown | discovered ? | prod started ? | size: n/a | src: DOGAMI MILO-4 ID_21284</desc><sym>Bar</sym></wpt><wpt lat="44.204939" lon="-122.358100"><name>Leonard Claim Cut 4</name><desc>MILO gold | gold, silver | unknown | discovered ? | prod started ? | size: n/a | src: DOGAMI MILO-4 ID_21679</desc><sym>Bar</sym></wpt><wpt lat="44.205070" lon="-122.357975"><name>Leonard Claim Cut 3</name><desc>MILO gold | gold, silver | unknown | discovered ? | prod started ? | size: n/a | src: DOGAMI MILO-4 ID_21680</desc><sym>Bar</sym></wpt><wpt lat="44.205474" lon="-122.357963"><name>Leonard Claim Cut 2</name><desc>MILO gold | gold, silver | unknown | discovered ? | prod started ? | size: n/a | src: DOGAMI MILO-4 ID_21681</desc><sym>Bar</sym></wpt><wpt lat="44.205667" lon="-122.358406"><name>Leonard Claim Cut 1</name><desc>MILO gold | gold, silver | unknown | discovered ? | prod started ? | size: n/a | src: DOGAMI MILO-4 ID_21682</desc><sym>Bar</sym></wpt><wpt lat="44.205913" lon="-122.358672"><name>Leonard Claim Cut 5</name><desc>MILO gold | gold, silver | unknown | discovered ? | prod started ? | size: n/a | src: DOGAMI MILO-4 ID_21683</desc><sym>Bar</sym></wpt><wpt lat="44.207633" lon="-122.360700"><name>Leonard Claim Discovery Cut</name><desc>MILO gold | gold, silver | unknown | discovered ? | prod started ? | size: n/a | src: DOGAMI MILO-4 ID_21684</desc><sym>Bar</sym></wpt><wpt lat="44.209800" lon="-122.362802"><name>Durango Claim Cut No.3</name><desc>MILO gold | gold, silver | unknown | discovered ? | prod started ? | size: n/a | src: DOGAMI MILO-4 ID_21685</desc><sym>Bar</sym></wpt><wpt lat="44.209272" lon="-122.361692"><name>Durango Claim Disc. Cut and Tunnel No.1</name><desc>MILO gold | gold, silver | unknown | discovered ? | prod started ? | size: n/a | src: DOGAMI MILO-4 ID_21686</desc><sym>Bar</sym></wpt><wpt lat="44.209487" lon="-122.362259"><name>Durango Claim Shaft</name><desc>MILO gold | gold, silver | unknown | discovered ? | prod started ? | size: n/a | src: DOGAMI MILO-4 ID_21687</desc><sym>Bar</sym></wpt><wpt lat="44.209458" lon="-122.361549"><name>Durango Claim Tunnel No.4</name><desc>MILO gold | gold, silver | unknown | discovered ? | prod started ? | size: n/a | src: DOGAMI MILO-4 ID_21688</desc><sym>Bar</sym></wpt><wpt lat="44.209008" lon="-122.362436"><name>Durango Claim Tunnel No.2</name><desc>MILO gold | gold, silver | unknown | discovered ? | prod started ? | size: n/a | src: DOGAMI MILO-4 ID_21689</desc><sym>Bar</sym></wpt><wpt lat="44.211573" lon="-122.342394"><name>Lucky Boy Disc. Cut and Tunnel No.1</name><desc>MILO gold | gold, silver, copper, lead, zinc, antimony | lode | discovered 1887 | prod started ? | size: small | src: DOGAMI MILO-4 ID_21690</desc><sym>Bar</sym></wpt><wpt lat="44.209874" lon="-122.345004"><name>Lucky Queen Claim Cut and Tunnel No.?</name><desc>MILO gold | gold, silver, copper, lead, zinc, antimony | lode | discovered 1887 | prod started ? | size: small | src: DOGAMI MILO-4 ID_21691</desc><sym>Bar</sym></wpt><wpt lat="44.208118" lon="-122.342662"><name>Majestic Claim Cut and Tunnel No.3</name><desc>MILO gold | gold, silver, copper, lead, zinc, antimony | lode | discovered 1887 | prod started ? | size: small | src: DOGAMI MILO-4 ID_21692</desc><sym>Bar</sym></wpt><wpt lat="44.207576" lon="-122.342970"><name>Majestic Claim Disc. Cut No.1</name><desc>MILO gold | gold, silver, copper, lead, zinc, antimony | lode | discovered 1887 | prod started ? | size: small | src: DOGAMI MILO-4 ID_21693</desc><sym>Bar</sym></wpt><wpt lat="44.207611" lon="-122.347912"><name>S.P. Claim Tunnel and Cut No.8</name><desc>MILO gold | gold, silver, copper, lead, zinc, antimony | lode | discovered 1887 | prod started ? | size: small | src: DOGAMI MILO-4 ID_21694</desc><sym>Bar</sym></wpt><wpt lat="44.207900" lon="-122.346986"><name>S.P. Claim Shaft No.5</name><desc>MILO gold | gold, silver, copper, lead, zinc, antimony | lode | discovered 1887 | prod started ? | size: small | src: DOGAMI MILO-4 ID_21695</desc><sym>Bar</sym></wpt><wpt lat="44.208082" lon="-122.348987"><name>S.P. Claim Tunnel and Cut No.4</name><desc>MILO gold | gold, silver, copper, lead, zinc, antimony | lode | discovered 1887 | prod started ? | size: small | src: DOGAMI MILO-4 ID_21696</desc><sym>Bar</sym></wpt><wpt lat="44.210042" lon="-122.343520"><name>Boodle Claim Cut No.1</name><desc>MILO gold | gold, silver, copper, lead, zinc, antimony | lode | discovered 1887 | prod started ? | size: small | src: DOGAMI MILO-4 ID_21697</desc><sym>Bar</sym></wpt><wpt lat="44.208632" lon="-122.349047"><name>Lucky Queen Claim Tunnel and Cut No.3</name><desc>MILO gold | gold, silver, copper, lead, zinc, antimony | lode | discovered 1887 | prod started ? | size: small | src: DOGAMI MILO-4 ID_21698</desc><sym>Bar</sym></wpt><wpt lat="44.208895" lon="-122.349378"><name>Lucky Queen Claim Tunnel and Cut No.1</name><desc>MILO gold | gold, silver, copper, lead, zinc, antimony | lode | discovered 1887 | prod started ? | size: small | src: DOGAMI MILO-4 ID_21699</desc><sym>Bar</sym></wpt><wpt lat="44.209476" lon="-122.349583"><name>Lucky Queen Claim Tunnel and Cut No.2</name><desc>MILO gold | gold, silver, copper, lead, zinc, antimony | lode | discovered 1887 | prod started ? | size: small | src: DOGAMI MILO-4 ID_21700</desc><sym>Bar</sym></wpt><wpt lat="44.210179" lon="-122.346073"><name>Lucky Queen Claim Tunnel and Cut No.3</name><desc>MILO gold | gold, silver, copper, lead, zinc, antimony | lode | discovered 1887 | prod started ? | size: small | src: DOGAMI MILO-4 ID_21701</desc><sym>Bar</sym></wpt><wpt lat="44.211425" lon="-122.343282"><name>Lucky Boy</name><desc>MILO gold | gold, silver, copper, lead, zinc, antimony | lode | discovered 1887 | prod started ? | size: small | src: DOGAMI MILO-4 ID_21702</desc><sym>Bar</sym></wpt><wpt lat="44.211972" lon="-122.343683"><name>Lucky Boy</name><desc>MILO gold | gold, silver, copper, lead, zinc, antimony | lode | discovered 1887 | prod started ? | size: small | src: DOGAMI MILO-4 ID_21703</desc><sym>Bar</sym></wpt><wpt lat="44.211796" lon="-122.343396"><name>Lucky Boy</name><desc>MILO gold | gold, silver, copper, lead, zinc, antimony | lode | discovered 1887 | prod started ? | size: small | src: DOGAMI MILO-4 ID_21704</desc><sym>Bar</sym></wpt><wpt lat="44.211600" lon="-122.343338"><name>Lucky Boy</name><desc>MILO gold | gold, silver, copper, lead, zinc, antimony | lode | discovered 1887 | prod started ? | size: small | src: DOGAMI MILO-4 ID_21705</desc><sym>Bar</sym></wpt><wpt lat="44.210727" lon="-122.342357"><name>Lucky Boy</name><desc>MILO gold | gold, silver, copper, lead, zinc, antimony | lode | discovered 1887 | prod started ? | size: small | src: DOGAMI MILO-4 ID_21706</desc><sym>Bar</sym></wpt><wpt lat="44.213751" lon="-122.347186"><name>Louise Claim Disc. Cut</name><desc>MILO gold | gold, silver | lode | discovered ? | prod started ? | size: n/a | src: DOGAMI MILO-4 ID_21707</desc><sym>Bar</sym></wpt><wpt lat="44.216493" lon="-122.349895"><name>Louise Claim Tunnel</name><desc>MILO gold | gold, silver | lode | discovered ? | prod started ? | size: n/a | src: DOGAMI MILO-4 ID_21708</desc><sym>Bar</sym></wpt><wpt lat="44.215165" lon="-122.350149"><name>Louise Claim Tunnel No.1</name><desc>MILO gold | gold, silver | lode | discovered ? | prod started ? | size: n/a | src: DOGAMI MILO-4 ID_21709</desc><sym>Bar</sym></wpt><wpt lat="44.215366" lon="-122.350035"><name>Louise Claim Tunnel No.3</name><desc>MILO gold | gold, silver | lode | discovered ? | prod started ? | size: n/a | src: DOGAMI MILO-4 ID_21710</desc><sym>Bar</sym></wpt><wpt lat="44.215607" lon="-122.350080"><name>Louise Claim Tunnel No.2</name><desc>MILO gold | gold, silver | lode | discovered ? | prod started ? | size: n/a | src: DOGAMI MILO-4 ID_21711</desc><sym>Bar</sym></wpt><wpt lat="44.213545" lon="-122.349589"><name>Gold Dollar Claim Disc. Cut</name><desc>MILO gold | gold, silver | lode | discovered ? | prod started ? | size: n/a | src: DOGAMI MILO-4 ID_21712</desc><sym>Bar</sym></wpt><wpt lat="44.214763" lon="-122.350124"><name>Gold Dollar Claim</name><desc>MILO gold | gold, silver | lode | discovered ? | prod started ? | size: n/a | src: DOGAMI MILO-4 ID_21713</desc><sym>Bar</sym></wpt><wpt lat="44.210310" lon="-122.343713"><name>Confidence Claim Disc. Cut</name><desc>MILO gold | gold, silver, copper, lead, zinc, antimony | lode | discovered 1887 | prod started ? | size: small | src: DOGAMI MILO-4 ID_21714</desc><sym>Bar</sym></wpt><wpt lat="44.220425" lon="-122.368352"><name>Golconda Claim Tunnel</name><desc>MILO gold | gold, silver | lode | discovered ? | prod started ? | size: small | src: DOGAMI MILO-4 ID_21715</desc><sym>Bar</sym></wpt><wpt lat="44.220541" lon="-122.369440"><name>Golconda Claim Tunnel</name><desc>MILO gold | gold, silver | lode | discovered ? | prod started ? | size: small | src: DOGAMI MILO-4 ID_21716</desc><sym>Bar</sym></wpt><wpt lat="44.216737" lon="-122.362899"><name>The Helena Claim Disc. Cut</name><desc>MILO gold | gold, silver | unknown | discovered ? | prod started ? | size: n/a | src: DOGAMI MILO-4 ID_21717</desc><sym>Bar</sym></wpt><wpt lat="44.217124" lon="-122.365490"><name>Poorman Claim Cut</name><desc>MILO gold | gold, silver | unknown | discovered ? | prod started ? | size: n/a | src: DOGAMI MILO-4 ID_21718</desc><sym>Bar</sym></wpt><wpt lat="44.217234" lon="-122.365667"><name>Sound Money Claim Cut</name><desc>MILO gold | gold, silver | unknown | discovered ? | prod started ? | size: n/a | src: DOGAMI MILO-4 ID_21719</desc><sym>Bar</sym></wpt><wpt lat="44.217350" lon="-122.365878"><name>Sound Money Claim Cut</name><desc>MILO gold | gold, silver | unknown | discovered ? | prod started ? | size: n/a | src: DOGAMI MILO-4 ID_21720</desc><sym>Bar</sym></wpt><wpt lat="44.215783" lon="-122.365911"><name>Red Boy Claim Cut</name><desc>MILO gold | gold, silver | unknown | discovered ? | prod started ? | size: n/a | src: DOGAMI MILO-4 ID_21721</desc><sym>Bar</sym></wpt><wpt lat="44.212894" lon="-122.360023"><name>Eavning Claim Cut No.5 and Tunnel No.2</name><desc>MILO gold | gold, silver | unknown | discovered ? | prod started ? | size: n/a | src: DOGAMI MILO-4 ID_21722</desc><sym>Bar</sym></wpt><wpt lat="44.213266" lon="-122.360623"><name>Eavning Claim Cut No.5 and Tunnel No.2</name><desc>MILO gold | gold, silver | unknown | discovered ? | prod started ? | size: n/a | src: DOGAMI MILO-4 ID_21723</desc><sym>Bar</sym></wpt><wpt lat="44.214162" lon="-122.362337"><name>Eavning Claim Cut No.4</name><desc>MILO gold | gold, silver | unknown | discovered ? | prod started ? | size: n/a | src: DOGAMI MILO-4 ID_21724</desc><sym>Bar</sym></wpt><wpt lat="44.203996" lon="-122.356063"><name>Top Claim Shaft</name><desc>MILO gold | gold, silver | unknown | discovered ? | prod started ? | size: n/a | src: DOGAMI MILO-4 ID_21725</desc><sym>Bar</sym></wpt><wpt lat="44.204077" lon="-122.355728"><name>Top Claim Cut</name><desc>MILO gold | gold, silver | unknown | discovered ? | prod started ? | size: n/a | src: DOGAMI MILO-4 ID_21726</desc><sym>Bar</sym></wpt><wpt lat="44.206231" lon="-122.353436"><name>Oro Fino Claim Disc. Cut</name><desc>MILO gold | gold, silver | unknown | discovered ? | prod started ? | size: n/a | src: DOGAMI MILO-4 ID_21727</desc><sym>Bar</sym></wpt><wpt lat="44.207488" lon="-122.353052"><name>Oro Fino Claim Cross Cut and Tunnel</name><desc>MILO gold | gold, silver | unknown | discovered ? | prod started ? | size: n/a | src: DOGAMI MILO-4 ID_21728</desc><sym>Bar</sym></wpt><wpt lat="44.207952" lon="-122.354331"><name>Oro Fino Claim Tunnel</name><desc>MILO gold | gold, silver | unknown | discovered ? | prod started ? | size: n/a | src: DOGAMI MILO-4 ID_21729</desc><sym>Bar</sym></wpt><wpt lat="44.212488" lon="-122.355989"><name>Lone Star Claim Disc Shaft</name><desc>MILO gold | gold, silver | unknown | discovered ? | prod started ? | size: n/a | src: DOGAMI MILO-4 ID_21730</desc><sym>Bar</sym></wpt><wpt lat="44.212347" lon="-122.355829"><name>Lone Star Claim Cut</name><desc>MILO gold | gold, silver | unknown | discovered ? | prod started ? | size: n/a | src: DOGAMI MILO-4 ID_21731</desc><sym>Bar</sym></wpt><wpt lat="44.211872" lon="-122.355499"><name>Lone Star Claim Tunnel Level No.2</name><desc>MILO gold | gold, silver | unknown | discovered ? | prod started ? | size: n/a | src: DOGAMI MILO-4 ID_21732</desc><sym>Bar</sym></wpt><wpt lat="44.212122" lon="-122.355706"><name>Lone Star Claim Tunnel Level No.1</name><desc>MILO gold | gold, silver | unknown | discovered ? | prod started ? | size: n/a | src: DOGAMI MILO-4 ID_21733</desc><sym>Bar</sym></wpt><wpt lat="44.210922" lon="-122.355143"><name>Lone Star Claim Cut</name><desc>MILO gold | gold, silver | unknown | discovered ? | prod started ? | size: n/a | src: DOGAMI MILO-4 ID_21734</desc><sym>Bar</sym></wpt><wpt lat="44.210169" lon="-122.352000"><name>Shovel Blade Claim Disc. Cut and Tunnel No.4</name><desc>MILO gold | gold, silver | unknown | discovered ? | prod started ? | size: n/a | src: DOGAMI MILO-4 ID_21735</desc><sym>Bar</sym></wpt><wpt lat="44.210568" lon="-122.352733"><name>Shovel Blade Claim Disc. Cut and Tunnel No.3</name><desc>MILO gold | gold, silver | unknown | discovered ? | prod started ? | size: n/a | src: DOGAMI MILO-4 ID_21736</desc><sym>Bar</sym></wpt><wpt lat="44.210731" lon="-122.353279"><name>Shovel Blade Claim Disc. Cut and Tunnel No.1</name><desc>MILO gold | gold, silver | unknown | discovered ? | prod started ? | size: n/a | src: DOGAMI MILO-4 ID_21737</desc><sym>Bar</sym></wpt><wpt lat="44.211201" lon="-122.353801"><name>Shovel Blade Claim Disc. Cut and Tunnel No.1</name><desc>MILO gold | gold, silver | unknown | discovered ? | prod started ? | size: n/a | src: DOGAMI MILO-4 ID_21738</desc><sym>Bar</sym></wpt><wpt lat="44.209161" lon="-122.355489"><name>Havilla Claim Cut</name><desc>MILO gold | gold, silver | unknown | discovered ? | prod started ? | size: n/a | src: DOGAMI MILO-4 ID_21739</desc><sym>Bar</sym></wpt><wpt lat="44.209131" lon="-122.354333"><name>Havilla Claim Disc. Cut and Tunnel</name><desc>MILO gold | gold, silver | unknown | discovered ? | prod started ? | size: n/a | src: DOGAMI MILO-4 ID_21740</desc><sym>Bar</sym></wpt><wpt lat="44.209098" lon="-122.355148"><name>Havilla Claim Cut</name><desc>MILO gold | gold, silver | unknown | discovered ? | prod started ? | size: n/a | src: DOGAMI MILO-4 ID_21741</desc><sym>Bar</sym></wpt><wpt lat="44.210104" lon="-122.354318"><name>Havilla Claim Tunnel Level No.4</name><desc>MILO gold | gold, silver | unknown | discovered ? | prod started ? | size: n/a | src: DOGAMI MILO-4 ID_21742</desc><sym>Bar</sym></wpt><wpt lat="44.213785" lon="-122.354525"><name>Sunset Claim Cut and Tunnel No.4</name><desc>MILO gold | gold, silver | lode | discovered ? | prod started ? | size: n/a | src: DOGAMI MILO-4 ID_21743</desc><sym>Bar</sym></wpt><wpt lat="44.213723" lon="-122.354195"><name>Sunset Claim Cut No.3</name><desc>MILO gold | gold, silver | lode | discovered ? | prod started ? | size: n/a | src: DOGAMI MILO-4 ID_21744</desc><sym>Bar</sym></wpt><wpt lat="44.213966" lon="-122.354804"><name>Sunset Claim Cut and Tunnel No.5</name><desc>MILO gold | gold, silver | lode | discovered ? | prod started ? | size: n/a | src: DOGAMI MILO-4 ID_21745</desc><sym>Bar</sym></wpt><wpt lat="44.213521" lon="-122.353386"><name>Sunset Claim Tunnel No.2</name><desc>MILO gold | gold, silver | lode | discovered ? | prod started ? | size: n/a | src: DOGAMI MILO-4 ID_21746</desc><sym>Bar</sym></wpt><wpt lat="44.212671" lon="-122.351199"><name>Yankee Girl Tunnel No.3</name><desc>MILO gold | gold, silver | lode | discovered ? | prod started ? | size: n/a | src: DOGAMI MILO-4 ID_21747</desc><sym>Bar</sym></wpt><wpt lat="44.213086" lon="-122.351451"><name>Yankee Girl Tunnel No.7</name><desc>MILO gold | gold, silver | lode | discovered ? | prod started ? | size: n/a | src: DOGAMI MILO-4 ID_21748</desc><sym>Bar</sym></wpt><wpt lat="44.213804" lon="-122.351546"><name>Yankee Girl Tunnel No.6</name><desc>MILO gold | gold, silver | lode | discovered ? | prod started ? | size: n/a | src: DOGAMI MILO-4 ID_21749</desc><sym>Bar</sym></wpt><wpt lat="44.213272" lon="-122.352948"><name>Yankee Girl Tunnel No.2</name><desc>MILO gold | gold, silver | lode | discovered ? | prod started ? | size: n/a | src: DOGAMI MILO-4 ID_21750</desc><sym>Bar</sym></wpt><wpt lat="44.214513" lon="-122.352587"><name>Yankee Girl Disc. Cut No.1</name><desc>MILO gold | gold, silver | lode | discovered ? | prod started ? | size: n/a | src: DOGAMI MILO-4 ID_21751</desc><sym>Bar</sym></wpt><wpt lat="44.215940" lon="-122.352055"><name>Yankee Girl Tunnel No.5</name><desc>MILO gold | gold, silver | lode | discovered ? | prod started ? | size: n/a | src: DOGAMI MILO-4 ID_21752</desc><sym>Bar</sym></wpt><wpt lat="44.214870" lon="-122.351912"><name>Yankee Girl Tunnel No.4</name><desc>MILO gold | gold, silver | lode | discovered ? | prod started ? | size: n/a | src: DOGAMI MILO-4 ID_21753</desc><sym>Bar</sym></wpt><wpt lat="44.217206" lon="-122.355168"><name>Sun Claim Tunnel No.5</name><desc>MILO gold | gold, silver | lode | discovered ? | prod started ? | size: n/a | src: DOGAMI MILO-4 ID_21754</desc><sym>Bar</sym></wpt><wpt lat="44.216404" lon="-122.355078"><name>Sun Claim Cut No.5</name><desc>MILO gold | gold, silver | lode | discovered ? | prod started ? | size: n/a | src: DOGAMI MILO-4 ID_21755</desc><sym>Bar</sym></wpt><wpt lat="44.216091" lon="-122.354033"><name>Sun Claim Tunnel No.5</name><desc>MILO gold | gold, silver | lode | discovered ? | prod started ? | size: n/a | src: DOGAMI MILO-4 ID_21756</desc><sym>Bar</sym></wpt><wpt lat="44.215773" lon="-122.354015"><name>Sun Claim Tunnel No.3</name><desc>MILO gold | gold, silver | lode | discovered ? | prod started ? | size: n/a | src: DOGAMI MILO-4 ID_21757</desc><sym>Bar</sym></wpt><wpt lat="44.215452" lon="-122.353670"><name>Sun Claim Tunnel No.2</name><desc>MILO gold | gold, silver | lode | discovered ? | prod started ? | size: n/a | src: DOGAMI MILO-4 ID_21758</desc><sym>Bar</sym></wpt><wpt lat="44.220931" lon="-122.353797"><name>Grubstake Claim Disc. Cut and Tunnel No.1</name><desc>MILO gold | gold, silver | lode | discovered ? | prod started ? | size: n/a | src: DOGAMI MILO-4 ID_21759</desc><sym>Bar</sym></wpt><wpt lat="44.217488" lon="-122.354174"><name>Dewey Claim Disc. Cut and Tunnel No.1</name><desc>MILO gold | gold, silver | lode | discovered ? | prod started ? | size: n/a | src: DOGAMI MILO-4 ID_21760</desc><sym>Bar</sym></wpt><wpt lat="44.218010" lon="-122.352023"><name>Idaho Claim Cut No.1</name><desc>MILO gold | gold, silver | lode | discovered ? | prod started ? | size: n/a | src: DOGAMI MILO-4 ID_21761</desc><sym>Bar</sym></wpt><wpt lat="44.218294" lon="-122.351821"><name>Idaho Claim Cut No.3</name><desc>MILO gold | gold, silver | lode | discovered ? | prod started ? | size: n/a | src: DOGAMI MILO-4 ID_21762</desc><sym>Bar</sym></wpt><wpt lat="44.218545" lon="-122.351751"><name>Idaho Claim Tunnel No.2</name><desc>MILO gold | gold, silver | lode | discovered ? | prod started ? | size: n/a | src: DOGAMI MILO-4 ID_21763</desc><sym>Bar</sym></wpt><wpt lat="44.218716" lon="-122.351977"><name>Idaho Claim Cut No.4</name><desc>MILO gold | gold, silver | lode | discovered ? | prod started ? | size: n/a | src: DOGAMI MILO-4 ID_21764</desc><sym>Bar</sym></wpt><wpt lat="44.219470" lon="-122.353157"><name>Idaho Claim Tunnel No.7</name><desc>MILO gold | gold, silver | lode | discovered ? | prod started ? | size: n/a | src: DOGAMI MILO-4 ID_21765</desc><sym>Bar</sym></wpt><wpt lat="44.219364" lon="-122.353856"><name>Idaho Claim Cut No.8</name><desc>MILO gold | gold, silver | lode | discovered ? | prod started ? | size: n/a | src: DOGAMI MILO-4 ID_21766</desc><sym>Bar</sym></wpt><wpt lat="44.219565" lon="-122.353637"><name>Idaho Claim Cut No.6</name><desc>MILO gold | gold, silver | lode | discovered ? | prod started ? | size: n/a | src: DOGAMI MILO-4 ID_21767</desc><sym>Bar</sym></wpt><wpt lat="44.219723" lon="-122.353847"><name>Idaho Claim Cut No.5</name><desc>MILO gold | gold, silver | lode | discovered ? | prod started ? | size: n/a | src: DOGAMI MILO-4 ID_21768</desc><sym>Bar</sym></wpt><wpt lat="44.219125" lon="-122.356777"><name>Dewey Claim Tunnel No.3</name><desc>MILO gold | gold, silver | lode | discovered ? | prod started ? | size: n/a | src: DOGAMI MILO-4 ID_21769</desc><sym>Bar</sym></wpt><wpt lat="44.219053" lon="-122.356120"><name>Dewey Claim Cut No.5</name><desc>MILO gold | gold, silver | lode | discovered ? | prod started ? | size: n/a | src: DOGAMI MILO-4 ID_21770</desc><sym>Bar</sym></wpt><wpt lat="44.219262" lon="-122.357174"><name>Huckleberry Claim Disc. Tunnel No.1</name><desc>MILO gold | gold, silver | lode | discovered ? | prod started ? | size: n/a | src: DOGAMI MILO-4 ID_21771</desc><sym>Bar</sym></wpt><wpt lat="44.222349" lon="-122.359793"><name>Huckleberry Claim Cut No.4</name><desc>MILO gold | gold, silver | lode | discovered ? | prod started ? | size: n/a | src: DOGAMI MILO-4 ID_21772</desc><sym>Bar</sym></wpt><wpt lat="44.220005" lon="-122.358171"><name>Huckleberry Claim Shaft No.3</name><desc>MILO gold | gold, silver | lode | discovered ? | prod started ? | size: n/a | src: DOGAMI MILO-4 ID_21773</desc><sym>Bar</sym></wpt><wpt lat="44.221339" lon="-122.358417"><name>Huckleberry Claim Tunnel No.2</name><desc>MILO gold | gold, silver | lode | discovered ? | prod started ? | size: n/a | src: DOGAMI MILO-4 ID_21774</desc><sym>Bar</sym></wpt><wpt lat="44.219990" lon="-122.354833"><name>Geneva Claim Tunnel No.2</name><desc>MILO gold | gold, silver | lode | discovered ? | prod started ? | size: n/a | src: DOGAMI MILO-4 ID_21775</desc><sym>Bar</sym></wpt><wpt lat="44.219691" lon="-122.354331"><name>Geneva Claim Tunnel No.3</name><desc>MILO gold | gold, silver | lode | discovered ? | prod started ? | size: n/a | src: DOGAMI MILO-4 ID_21776</desc><sym>Bar</sym></wpt><wpt lat="44.219559" lon="-122.354186"><name>Geneva Claim Cut No.4</name><desc>MILO gold | gold, silver | lode | discovered ? | prod started ? | size: n/a | src: DOGAMI MILO-4 ID_21777</desc><sym>Bar</sym></wpt><wpt lat="44.217251" lon="-122.358655"><name>The Badger Claim Tunnel No.1</name><desc>MILO gold | gold, silver | lode | discovered ? | prod started ? | size: n/a | src: DOGAMI MILO-4 ID_21778</desc><sym>Bar</sym></wpt><wpt lat="44.216929" lon="-122.358203"><name>The Badger Claim Cut No.2</name><desc>MILO gold | gold, silver | lode | discovered ? | prod started ? | size: n/a | src: DOGAMI MILO-4 ID_21779</desc><sym>Bar</sym></wpt><wpt lat="44.216488" lon="-122.357884"><name>The Badger Claim Tunnel No.3</name><desc>MILO gold | gold, silver | lode | discovered ? | prod started ? | size: n/a | src: DOGAMI MILO-4 ID_21780</desc><sym>Bar</sym></wpt><wpt lat="44.215756" lon="-122.357269"><name>The Badger Claim Shaft</name><desc>MILO gold | gold, silver | lode | discovered ? | prod started ? | size: n/a | src: DOGAMI MILO-4 ID_21781</desc><sym>Bar</sym></wpt><wpt lat="44.217388" lon="-122.358714"><name>The Badger Claim Disc. Tunnel</name><desc>MILO gold | gold, silver | lode | discovered ? | prod started ? | size: n/a | src: DOGAMI MILO-4 ID_21782</desc><sym>Bar</sym></wpt><wpt lat="44.217899" lon="-122.362022"><name>Yamhill Claim</name><desc>MILO gold | gold, silver | lode | discovered ? | prod started ? | size: n/a | src: DOGAMI MILO-4 ID_21783</desc><sym>Bar</sym></wpt><wpt lat="44.218615" lon="-122.361945"><name>Yamhill Claim</name><desc>MILO gold | gold, silver | lode | discovered ? | prod started ? | size: n/a | src: DOGAMI MILO-4 ID_21784</desc><sym>Bar</sym></wpt><wpt lat="44.219562" lon="-122.360709"><name>Southern Pacific Claim</name><desc>MILO gold | gold, silver | lode | discovered ? | prod started ? | size: n/a | src: DOGAMI MILO-4 ID_21785</desc><sym>Bar</sym></wpt><wpt lat="44.229296" lon="-122.330164"><name>Chief Claim, Cut and Shaft</name><desc>MILO gold | gold, silver, zinc | lode | discovered ? | prod started ? | size: n/a | src: DOGAMI MILO-4 ID_21786</desc><sym>Bar</sym></wpt><wpt lat="44.226501" lon="-122.329082"><name>Chief Claim, Cut</name><desc>MILO gold | gold, silver, zinc | lode | discovered ? | prod started ? | size: n/a | src: DOGAMI MILO-4 ID_21787</desc><sym>Bar</sym></wpt><wpt lat="44.227710" lon="-122.329314"><name>Chief Claim, Disc. Cut</name><desc>MILO gold | gold, silver, zinc | lode | discovered ? | prod started ? | size: n/a | src: DOGAMI MILO-4 ID_21788</desc><sym>Bar</sym></wpt><wpt lat="44.227777" lon="-122.329788"><name>Chief Claim, Cut</name><desc>MILO gold | gold, silver, zinc | lode | discovered ? | prod started ? | size: n/a | src: DOGAMI MILO-4 ID_21789</desc><sym>Bar</sym></wpt><wpt lat="44.228270" lon="-122.329501"><name>Chief Claim, Cut</name><desc>MILO gold | gold, silver, zinc | lode | discovered ? | prod started ? | size: n/a | src: DOGAMI MILO-4 ID_21790</desc><sym>Bar</sym></wpt><wpt lat="44.233097" lon="-122.332678"><name>Cinderella Cut</name><desc>MILO gold | gold, manganese | lode | discovered ? | prod started ? | size: small | src: DOGAMI MILO-4 ID_21791</desc><sym>Bar</sym></wpt><wpt lat="44.230549" lon="-122.329965"><name>Cinderella Cut</name><desc>MILO gold | gold, manganese | lode | discovered ? | prod started ? | size: small | src: DOGAMI MILO-4 ID_21792</desc><sym>Bar</sym></wpt><wpt lat="44.230834" lon="-122.331438"><name>Cinderella Cut</name><desc>MILO gold | gold, manganese | lode | discovered ? | prod started ? | size: small | src: DOGAMI MILO-4 ID_21793</desc><sym>Bar</sym></wpt><wpt lat="44.231028" lon="-122.331708"><name>Cinderella Tunnel</name><desc>MILO gold | gold, manganese | lode | discovered ? | prod started ? | size: small | src: DOGAMI MILO-4 ID_21794</desc><sym>Bar</sym></wpt><wpt lat="44.231324" lon="-122.331213"><name>Cinderella Tunnel</name><desc>MILO gold | gold, manganese | lode | discovered ? | prod started ? | size: small | src: DOGAMI MILO-4 ID_21795</desc><sym>Bar</sym></wpt><wpt lat="44.231362" lon="-122.332006"><name>Cinderella Tunnel</name><desc>MILO gold | gold, manganese | lode | discovered ? | prod started ? | size: small | src: DOGAMI MILO-4 ID_21796</desc><sym>Bar</sym></wpt><wpt lat="44.236508" lon="-122.328603"><name>Great Eastern, Cut</name><desc>MILO gold | gold, silver | lode | discovered ? | prod started ? | size: n/a | src: DOGAMI MILO-4 ID_21816</desc><sym>Bar</sym></wpt><wpt lat="44.235872" lon="-122.328157"><name>Great Eastern Claim, Cut</name><desc>MILO gold | gold, silver | lode | discovered ? | prod started ? | size: n/a | src: DOGAMI MILO-4 ID_21817</desc><sym>Bar</sym></wpt><wpt lat="44.224859" lon="-122.355468"><name>unnamed or NA</name><desc>MILO gold | gold, silver | lode | discovered ? | prod started ? | size: n/a | src: DOGAMI MILO-4 ID_21821</desc><sym>Bar</sym></wpt><wpt lat="44.226484" lon="-122.358857"><name>unnamed or NA</name><desc>MILO gold | gold, silver | lode | discovered ? | prod started ? | size: n/a | src: DOGAMI MILO-4 ID_21822</desc><sym>Bar</sym></wpt><wpt lat="44.226260" lon="-122.359430"><name>unnamed or NA</name><desc>MILO gold | gold, silver | lode | discovered ? | prod started ? | size: n/a | src: DOGAMI MILO-4 ID_21823</desc><sym>Bar</sym></wpt><wpt lat="44.223527" lon="-122.356851"><name>unnamed or NA</name><desc>MILO gold | gold, silver | lode | discovered ? | prod started ? | size: n/a | src: DOGAMI MILO-4 ID_21824</desc><sym>Bar</sym></wpt><wpt lat="44.225037" lon="-122.358464"><name>unnamed or NA</name><desc>MILO gold | gold, silver | lode | discovered ? | prod started ? | size: n/a | src: DOGAMI MILO-4 ID_21825</desc><sym>Bar</sym></wpt><wpt lat="44.223719" lon="-122.358223"><name>unnamed or NA</name><desc>MILO gold | gold, silver | lode | discovered ? | prod started ? | size: n/a | src: DOGAMI MILO-4 ID_21826</desc><sym>Bar</sym></wpt><wpt lat="44.228602" lon="-122.358009"><name>unnamed or NA</name><desc>MILO gold | gold, silver | lode | discovered ? | prod started ? | size: n/a | src: DOGAMI MILO-4 ID_21827</desc><sym>Bar</sym></wpt><wpt lat="44.224143" lon="-122.335599"><name>Rialto</name><desc>MILO gold | gold, silver | lode | discovered ? | prod started ? | size: n/a | src: DOGAMI MILO-4 ID_21828</desc><sym>Bar</sym></wpt><wpt lat="44.225238" lon="-122.336236"><name>Rialto</name><desc>MILO gold | gold, silver | lode | discovered ? | prod started ? | size: n/a | src: DOGAMI MILO-4 ID_21829</desc><sym>Bar</sym></wpt><wpt lat="44.224424" lon="-122.335763"><name>Rialto</name><desc>MILO gold | gold, silver | lode | discovered ? | prod started ? | size: n/a | src: DOGAMI MILO-4 ID_21830</desc><sym>Bar</sym></wpt><wpt lat="44.226326" lon="-122.338510"><name>Rialto</name><desc>MILO gold | gold, silver | lode | discovered ? | prod started ? | size: n/a | src: DOGAMI MILO-4 ID_21831</desc><sym>Bar</sym></wpt><wpt lat="44.203345" lon="-122.342908"><name>unnamed or NA</name><desc>MILO gold | gold, silver | lode | discovered ? | prod started ? | size: n/a | src: DOGAMI MILO-4 ID_21833</desc><sym>Bar</sym></wpt><wpt lat="44.202671" lon="-122.342564"><name>unnamed or NA</name><desc>MILO gold | gold, silver | lode | discovered ? | prod started ? | size: n/a | src: DOGAMI MILO-4 ID_21834</desc><sym>Bar</sym></wpt><wpt lat="44.202013" lon="-122.342386"><name>unnamed or NA</name><desc>MILO gold | gold, silver | lode | discovered ? | prod started ? | size: n/a | src: DOGAMI MILO-4 ID_21835</desc><sym>Bar</sym></wpt><wpt lat="44.207994" lon="-122.379788"><name>Reaf Claim, Cut</name><desc>MILO gold | gold | lode | discovered ? | prod started ? | size: n/a | src: DOGAMI MILO-4 ID_21836</desc><sym>Bar</sym></wpt><wpt lat="44.208549" lon="-122.380994"><name>Reaf Claim, Cut</name><desc>MILO gold | gold | lode | discovered ? | prod started ? | size: n/a | src: DOGAMI MILO-4 ID_21837</desc><sym>Bar</sym></wpt><wpt lat="44.207828" lon="-122.380566"><name>Reaf Claim, Cut</name><desc>MILO gold | gold | lode | discovered ? | prod started ? | size: n/a | src: DOGAMI MILO-4 ID_21838</desc><sym>Bar</sym></wpt><wpt lat="44.208077" lon="-122.380292"><name>Reaf Claim, Tunnel</name><desc>MILO gold | gold | lode | discovered ? | prod started ? | size: n/a | src: DOGAMI MILO-4 ID_21839</desc><sym>Bar</sym></wpt><wpt lat="44.205492" lon="-122.371861"><name>Lucky Dog Strike Claim</name><desc>MILO gold | gold, silver | lode | discovered ? | prod started ? | size: n/a | src: DOGAMI MILO-4 ID_21840</desc><sym>Bar</sym></wpt><wpt lat="44.205660" lon="-122.372032"><name>Lucky Dog Strike Claim</name><desc>MILO gold | gold, silver | lode | discovered ? | prod started ? | size: n/a | src: DOGAMI MILO-4 ID_21841</desc><sym>Bar</sym></wpt><wpt lat="44.205858" lon="-122.372177"><name>Lucky Dog Strike Claim</name><desc>MILO gold | gold, silver | lode | discovered ? | prod started ? | size: n/a | src: DOGAMI MILO-4 ID_21842</desc><sym>Bar</sym></wpt><wpt lat="44.205995" lon="-122.372281"><name>unnamed or NA</name><desc>MILO gold | gold, silver | lode | discovered ? | prod started ? | size: n/a | src: DOGAMI MILO-4 ID_21843</desc><sym>Bar</sym></wpt><wpt lat="44.203913" lon="-122.367029"><name>unnamed or NA</name><desc>MILO gold | gold, silver | lode | discovered ? | prod started ? | size: n/a | src: DOGAMI MILO-4 ID_21844</desc><sym>Bar</sym></wpt><wpt lat="44.203864" lon="-122.366891"><name>unnamed or NA</name><desc>MILO gold | gold, silver | lode | discovered ? | prod started ? | size: n/a | src: DOGAMI MILO-4 ID_21845</desc><sym>Bar</sym></wpt><wpt lat="44.209629" lon="-122.373814"><name>unnamed or NA</name><desc>MILO gold | gold, silver | lode | discovered ? | prod started ? | size: n/a | src: DOGAMI MILO-4 ID_21846</desc><sym>Bar</sym></wpt><wpt lat="44.208955" lon="-122.371477"><name>Lucky Dog Strike Claim</name><desc>MILO gold | gold, silver | lode | discovered ? | prod started ? | size: n/a | src: DOGAMI MILO-4 ID_21847</desc><sym>Bar</sym></wpt><wpt lat="44.210552" lon="-122.368034"><name>unnamed or NA</name><desc>MILO gold | gold, silver | lode | discovered ? | prod started ? | size: n/a | src: DOGAMI MILO-4 ID_21848</desc><sym>Bar</sym></wpt><wpt lat="44.209327" lon="-122.366193"><name>Lucky Dog Strike Claim</name><desc>MILO gold | gold, silver | lode | discovered ? | prod started ? | size: n/a | src: DOGAMI MILO-4 ID_21849</desc><sym>Bar</sym></wpt><wpt lat="44.208812" lon="-122.367074"><name>Lucky Dog Strike Claim</name><desc>MILO gold | gold, silver | lode | discovered ? | prod started ? | size: n/a | src: DOGAMI MILO-4 ID_21850</desc><sym>Bar</sym></wpt><wpt lat="44.209249" lon="-122.365730"><name>Lucky Dog Strike Claim</name><desc>MILO gold | gold, silver | lode | discovered ? | prod started ? | size: n/a | src: DOGAMI MILO-4 ID_21851</desc><sym>Bar</sym></wpt><wpt lat="44.208516" lon="-122.368051"><name>Lucky Dog Strike Claim</name><desc>MILO gold | gold, silver | lode | discovered ? | prod started ? | size: n/a | src: DOGAMI MILO-4 ID_21852</desc><sym>Bar</sym></wpt><wpt lat="44.208371" lon="-122.366226"><name>Lucky Dog Strike Claim</name><desc>MILO gold | gold, silver | lode | discovered ? | prod started ? | size: n/a | src: DOGAMI MILO-4 ID_21853</desc><sym>Bar</sym></wpt><wpt lat="44.210899" lon="-122.360937"><name>unnamed or NA</name><desc>MILO gold | gold, silver | lode | discovered ? | prod started ? | size: n/a | src: DOGAMI MILO-4 ID_21854</desc><sym>Bar</sym></wpt><wpt lat="44.221463" lon="-122.365488"><name>unnamed or NA</name><desc>MILO gold | gold, silver | lode | discovered ? | prod started ? | size: n/a | src: DOGAMI MILO-4 ID_21855</desc><sym>Bar</sym></wpt><wpt lat="44.220494" lon="-122.366180"><name>unnamed or NA</name><desc>MILO gold | gold, silver | lode | discovered ? | prod started ? | size: n/a | src: DOGAMI MILO-4 ID_21856</desc><sym>Bar</sym></wpt><wpt lat="44.233232" lon="-122.330953"><name>Cinderella Cut</name><desc>MILO gold | gold, manganese | lode | discovered ? | prod started ? | size: small | src: DOGAMI MILO-4 ID_21857</desc><sym>Bar</sym></wpt><wpt lat="44.238364" lon="-122.334322"><name>unnamed or NA</name><desc>MILO gold | gold | lode | discovered ? | prod started ? | size: n/a | src: DOGAMI MILO-4 ID_21858</desc><sym>Bar</sym></wpt><wpt lat="44.241009" lon="-122.343458"><name>unnamed or NA</name><desc>MILO gold | gold | lode | discovered ? | prod started ? | size: n/a | src: DOGAMI MILO-4 ID_21859</desc><sym>Bar</sym></wpt><wpt lat="44.241160" lon="-122.343686"><name>unnamed or NA</name><desc>MILO gold | gold | lode | discovered ? | prod started ? | size: n/a | src: DOGAMI MILO-4 ID_21860</desc><sym>Bar</sym></wpt><wpt lat="44.221699" lon="-122.367901"><name>unnamed or NA</name><desc>MILO gold | gold, silver | lode | discovered ? | prod started ? | size: n/a | src: DOGAMI MILO-4 ID_21861</desc><sym>Bar</sym></wpt><wpt lat="44.222476" lon="-122.374538"><name>unnamed or NA</name><desc>MILO gold | gold, silver | lode | discovered ? | prod started ? | size: n/a | src: DOGAMI MILO-4 ID_21862</desc><sym>Bar</sym></wpt><wpt lat="44.222268" lon="-122.374805"><name>unnamed or NA</name><desc>MILO gold | gold, silver | lode | discovered ? | prod started ? | size: n/a | src: DOGAMI MILO-4 ID_21863</desc><sym>Bar</sym></wpt><wpt lat="44.212404" lon="-122.379347"><name>unnamed or NA</name><desc>MILO gold | gold, silver | lode | discovered ? | prod started ? | size: n/a | src: DOGAMI MILO-4 ID_21883</desc><sym>Bar</sym></wpt><wpt lat="44.212922" lon="-122.379562"><name>unnamed or NA</name><desc>MILO gold | gold, silver | lode | discovered ? | prod started ? | size: n/a | src: DOGAMI MILO-4 ID_21884</desc><sym>Bar</sym></wpt><wpt lat="44.206001" lon="-122.365124"><name>Lucky Dog Strike Claim</name><desc>MILO gold | gold, silver | lode | discovered ? | prod started ? | size: n/a | src: DOGAMI MILO-4 ID_21885</desc><sym>Bar</sym></wpt><wpt lat="44.207854" lon="-122.366766"><name>Lucky Dog Strike Claim</name><desc>MILO gold | gold, silver | lode | discovered ? | prod started ? | size: n/a | src: DOGAMI MILO-4 ID_21886</desc><sym>Bar</sym></wpt><wpt lat="44.206274" lon="-122.377304"><name>unnamed or NA</name><desc>MILO gold | gold, silver | lode | discovered ? | prod started ? | size: n/a | src: DOGAMI MILO-4 ID_21887</desc><sym>Bar</sym></wpt><wpt lat="44.206590" lon="-122.377453"><name>unnamed or NA</name><desc>MILO gold | gold, silver | lode | discovered ? | prod started ? | size: n/a | src: DOGAMI MILO-4 ID_21888</desc><sym>Bar</sym></wpt><wpt lat="44.206961" lon="-122.379336"><name>unnamed or NA</name><desc>MILO gold | gold, silver | lode | discovered ? | prod started ? | size: n/a | src: DOGAMI MILO-4 ID_21889</desc><sym>Bar</sym></wpt><wpt lat="44.207220" lon="-122.378980"><name>unnamed or NA</name><desc>MILO gold | gold, silver | lode | discovered ? | prod started ? | size: n/a | src: DOGAMI MILO-4 ID_21890</desc><sym>Bar</sym></wpt><wpt lat="44.207597" lon="-122.380164"><name>Reaf Claim, Cut</name><desc>MILO gold | gold | lode | discovered ? | prod started ? | size: n/a | src: DOGAMI MILO-4 ID_21891</desc><sym>Bar</sym></wpt><wpt lat="44.222544" lon="-122.369120"><name>unnamed or NA</name><desc>MILO gold | gold, silver | lode | discovered ? | prod started ? | size: n/a | src: DOGAMI MILO-4 ID_21892</desc><sym>Bar</sym></wpt><wpt lat="44.207364" lon="-122.350700"><name>unnamed or NA</name><desc>MILO gold | gold, silver | lode | discovered ? | prod started ? | size: n/a | src: DOGAMI MILO-4 ID_21893</desc><sym>Bar</sym></wpt><wpt lat="44.202741" lon="-122.351927"><name>unnamed or NA</name><desc>MILO gold | gold, silver | lode | discovered ? | prod started ? | size: n/a | src: DOGAMI MILO-4 ID_21894</desc><sym>Bar</sym></wpt><wpt lat="44.202437" lon="-122.351884"><name>unnamed or NA</name><desc>MILO gold | gold, silver | lode | discovered ? | prod started ? | size: n/a | src: DOGAMI MILO-4 ID_21895</desc><sym>Bar</sym></wpt><wpt lat="44.224693" lon="-122.354370"><name>unnamed or NA</name><desc>MILO gold | gold, silver | lode | discovered ? | prod started ? | size: n/a | src: DOGAMI MILO-4 ID_21896</desc><sym>Bar</sym></wpt><wpt lat="44.224618" lon="-122.354549"><name>unnamed or NA</name><desc>MILO gold | gold, silver | lode | discovered ? | prod started ? | size: n/a | src: DOGAMI MILO-4 ID_21897</desc><sym>Bar</sym></wpt><wpt lat="44.217020" lon="-122.352807"><name>unnamed or NA</name><desc>MILO gold | gold, silver | lode | discovered ? | prod started ? | size: n/a | src: DOGAMI MILO-4 ID_21898</desc><sym>Bar</sym></wpt><wpt lat="44.226049" lon="-122.340762"><name>unnamed or NA</name><desc>MILO gold | gold | lode | discovered ? | prod started ? | size: n/a | src: DOGAMI MILO-4 ID_21899</desc><sym>Bar</sym></wpt><wpt lat="44.213583" lon="-122.343677"><name>unnamed or NA</name><desc>MILO gold | gold | lode | discovered ? | prod started ? | size: n/a | src: DOGAMI MILO-4 ID_21900</desc><sym>Bar</sym></wpt><wpt lat="44.214006" lon="-122.344403"><name>unnamed or NA</name><desc>MILO gold | gold | lode | discovered ? | prod started ? | size: n/a | src: DOGAMI MILO-4 ID_21901</desc><sym>Bar</sym></wpt><wpt lat="44.212932" lon="-122.343417"><name>unnamed or NA</name><desc>MILO gold | gold | lode | discovered ? | prod started ? | size: n/a | src: DOGAMI MILO-4 ID_21902</desc><sym>Bar</sym></wpt><wpt lat="44.213867" lon="-122.341939"><name>unnamed or NA</name><desc>MILO gold | gold | lode | discovered ? | prod started ? | size: n/a | src: DOGAMI MILO-4 ID_21903</desc><sym>Bar</sym></wpt><wpt lat="44.217505" lon="-122.345695"><name>Infinity Mine and Phantom Ridge Lode Claim</name><desc>MILO gold | gold | lode | discovered ? | prod started ? | size: n/a | src: DOGAMI MILO-4 ID_21904</desc><sym>Bar</sym></wpt><wpt lat="44.217682" lon="-122.345775"><name>Infinity Mine and Phantom Ridge Lode Claim</name><desc>MILO gold | gold | lode | discovered ? | prod started ? | size: n/a | src: DOGAMI MILO-4 ID_21905</desc><sym>Bar</sym></wpt><wpt lat="44.228673" lon="-122.358363"><name>unnamed or NA</name><desc>MILO gold | gold, silver | lode | discovered ? | prod started ? | size: n/a | src: DOGAMI MILO-4 ID_21906</desc><sym>Bar</sym></wpt><wpt lat="44.228934" lon="-122.354919"><name>unnamed or NA</name><desc>MILO gold | gold, silver | lode | discovered ? | prod started ? | size: n/a | src: DOGAMI MILO-4 ID_21907</desc><sym>Bar</sym></wpt><wpt lat="44.226777" lon="-122.350696"><name>unnamed or NA</name><desc>MILO gold | gold, silver | lode | discovered ? | prod started ? | size: n/a | src: DOGAMI MILO-4 ID_21908</desc><sym>Bar</sym></wpt><wpt lat="44.211512" lon="-122.344447"><name>unnamed or NA</name><desc>MILO gold | gold | lode | discovered ? | prod started ? | size: n/a | src: DOGAMI MILO-4 ID_21909</desc><sym>Bar</sym></wpt><wpt lat="44.212595" lon="-122.343501"><name>unnamed or NA</name><desc>MILO gold | gold | lode | discovered ? | prod started ? | size: n/a | src: DOGAMI MILO-4 ID_21910</desc><sym>Bar</sym></wpt><wpt lat="44.213554" lon="-122.339177"><name>unnamed or NA</name><desc>MILO gold | gold | lode | discovered ? | prod started ? | size: n/a | src: DOGAMI MILO-4 ID_21911</desc><sym>Bar</sym></wpt><wpt lat="44.208208" lon="-122.336607"><name>unnamed or NA</name><desc>MILO gold | gold | lode | discovered ? | prod started ? | size: n/a | src: DOGAMI MILO-4 ID_21912</desc><sym>Bar</sym></wpt><wpt lat="44.208071" lon="-122.335997"><name>unnamed or NA</name><desc>MILO gold | gold | lode | discovered ? | prod started ? | size: n/a | src: DOGAMI MILO-4 ID_21913</desc><sym>Bar</sym></wpt><wpt lat="44.195292" lon="-122.330511"><name>unnamed or NA</name><desc>MILO gold | gold, silver | lode | discovered ? | prod started ? | size: n/a | src: DOGAMI MILO-4 ID_21914</desc><sym>Bar</sym></wpt><wpt lat="44.178012" lon="-122.336927"><name>unnamed or NA</name><desc>MILO gold | gold, silver | lode | discovered ? | prod started ? | size: n/a | src: DOGAMI MILO-4 ID_21915</desc><sym>Bar</sym></wpt><wpt lat="44.177797" lon="-122.339674"><name>unnamed or NA</name><desc>MILO gold | gold, silver | lode | discovered ? | prod started ? | size: n/a | src: DOGAMI MILO-4 ID_21916</desc><sym>Bar</sym></wpt><wpt lat="44.181194" lon="-122.341409"><name>unnamed or NA</name><desc>MILO gold | gold, silver | lode | discovered ? | prod started ? | size: n/a | src: DOGAMI MILO-4 ID_21917</desc><sym>Bar</sym></wpt><wpt lat="44.180982" lon="-122.341250"><name>unnamed or NA</name><desc>MILO gold | gold, silver | lode | discovered ? | prod started ? | size: n/a | src: DOGAMI MILO-4 ID_21918</desc><sym>Bar</sym></wpt><wpt lat="44.181108" lon="-122.339996"><name>unnamed or NA</name><desc>MILO gold | gold, silver | lode | discovered ? | prod started ? | size: n/a | src: DOGAMI MILO-4 ID_21919</desc><sym>Bar</sym></wpt><wpt lat="44.180663" lon="-122.339479"><name>unnamed or NA</name><desc>MILO gold | gold, silver | lode | discovered ? | prod started ? | size: n/a | src: DOGAMI MILO-4 ID_21920</desc><sym>Bar</sym></wpt><wpt lat="44.180293" lon="-122.337912"><name>unnamed or NA</name><desc>MILO gold | gold, silver | lode | discovered ? | prod started ? | size: n/a | src: DOGAMI MILO-4 ID_21921</desc><sym>Bar</sym></wpt><wpt lat="44.181305" lon="-122.338976"><name>unnamed or NA</name><desc>MILO gold | gold, silver | lode | discovered ? | prod started ? | size: n/a | src: DOGAMI MILO-4 ID_21922</desc><sym>Bar</sym></wpt><wpt lat="44.181470" lon="-122.339074"><name>unnamed or NA</name><desc>MILO gold | gold, silver | lode | discovered ? | prod started ? | size: n/a | src: DOGAMI MILO-4 ID_21923</desc><sym>Bar</sym></wpt><wpt lat="44.179250" lon="-122.343669"><name>unnamed or NA</name><desc>MILO gold | gold, silver | lode | discovered ? | prod started ? | size: n/a | src: DOGAMI MILO-4 ID_21924</desc><sym>Bar</sym></wpt><wpt lat="44.178509" lon="-122.343447"><name>unnamed or NA</name><desc>MILO gold | gold, silver | lode | discovered ? | prod started ? | size: n/a | src: DOGAMI MILO-4 ID_21925</desc><sym>Bar</sym></wpt><wpt lat="44.175788" lon="-122.339546"><name>unnamed or NA</name><desc>MILO gold | gold, silver | lode | discovered ? | prod started ? | size: n/a | src: DOGAMI MILO-4 ID_21926</desc><sym>Bar</sym></wpt><wpt lat="44.182181" lon="-122.346846"><name>unnamed or NA</name><desc>MILO gold | gold, silver | lode | discovered ? | prod started ? | size: n/a | src: DOGAMI MILO-4 ID_21927</desc><sym>Bar</sym></wpt><wpt lat="44.217475" lon="-122.366096"><name>Sound Money Claim Cut</name><desc>MILO gold | gold, silver | unknown | discovered ? | prod started ? | size: n/a | src: DOGAMI MILO-4 ID_21928</desc><sym>Bar</sym></wpt><wpt lat="44.225001" lon="-122.354450"><name>unnamed or NA</name><desc>MILO gold | gold, silver | lode | discovered ? | prod started ? | size: n/a | src: DOGAMI MILO-4 ID_22553</desc><sym>Bar</sym></wpt><wpt lat="44.225163" lon="-122.354401"><name>unnamed or NA</name><desc>MILO gold | gold, silver | lode | discovered ? | prod started ? | size: n/a | src: DOGAMI MILO-4 ID_22554</desc><sym>Bar</sym></wpt><wpt lat="44.227316" lon="-122.353806"><name>unnamed or NA</name><desc>MILO gold | gold, silver | lode | discovered ? | prod started ? | size: n/a | src: DOGAMI MILO-4 ID_22555</desc><sym>Bar</sym></wpt><wpt lat="44.214429" lon="-122.358130"><name>Open Cut and Tunnel No.3 (Crede No.2 claim)</name><desc>MILO gold | gold, silver | unknown | discovered ? | prod started ? | size: n/a | src: DOGAMI MILO-4 ID_22556</desc><sym>Bar</sym></wpt><wpt lat="44.214532" lon="-122.358908"><name>Open Cut No.6 (Crede No.2 Claim)</name><desc>MILO gold | gold, silver | unknown | discovered ? | prod started ? | size: n/a | src: DOGAMI MILO-4 ID_22557</desc><sym>Bar</sym></wpt><wpt lat="44.214634" lon="-122.358882"><name>Open Cut No.5 (Crede No.2 Claim)</name><desc>MILO gold | gold, silver | unknown | discovered ? | prod started ? | size: n/a | src: DOGAMI MILO-4 ID_22558</desc><sym>Bar</sym></wpt><wpt lat="44.214732" lon="-122.358152"><name>Open Cut and Tunnel No.2 (Crede No.2 claim)</name><desc>MILO gold | gold, silver | unknown | discovered ? | prod started ? | size: n/a | src: DOGAMI MILO-4 ID_22559</desc><sym>Bar</sym></wpt><wpt lat="44.215603" lon="-122.358847"><name>Amelia Claim (Open Cut No.5)</name><desc>MILO gold | gold, silver | unknown | discovered ? | prod started ? | size: n/a | src: DOGAMI MILO-4 ID_22560</desc><sym>Bar</sym></wpt><wpt lat="44.214550" lon="-122.360065"><name>prospect</name><desc>MILO gold | gold, silver | unknown | discovered ? | prod started ? | size: n/a | src: DOGAMI MILO-4 ID_22561</desc><sym>Bar</sym></wpt><wpt lat="44.215704" lon="-122.358688"><name>Amelia Claim (Open Cut and Tunnel No.6)</name><desc>MILO gold | gold, silver | unknown | discovered ? | prod started ? | size: n/a | src: DOGAMI MILO-4 ID_22562</desc><sym>Bar</sym></wpt><wpt lat="44.215442" lon="-122.358799"><name>Amelia Claim (Open Cut No.3)</name><desc>MILO gold | gold, silver | unknown | discovered ? | prod started ? | size: n/a | src: DOGAMI MILO-4 ID_22563</desc><sym>Bar</sym></wpt><wpt lat="44.215682" lon="-122.359148"><name>Amelia Claim (Open Cut No.4)</name><desc>MILO gold | gold, silver | unknown | discovered ? | prod started ? | size: n/a | src: DOGAMI MILO-4 ID_22564</desc><sym>Bar</sym></wpt><wpt lat="44.215263" lon="-122.357889"><name>Amelia Claim (Discovery Cut and Shaft No.1)</name><desc>MILO gold | gold, silver | unknown | discovered ? | prod started ? | size: n/a | src: DOGAMI MILO-4 ID_22565</desc><sym>Bar</sym></wpt><wpt lat="44.215422" lon="-122.358002"><name>Amelia Claim (Open Cut No.2)</name><desc>MILO gold | gold, silver | unknown | discovered ? | prod started ? | size: n/a | src: DOGAMI MILO-4 ID_22566</desc><sym>Bar</sym></wpt><wpt lat="44.215194" lon="-122.357020"><name>prospect</name><desc>MILO gold | gold, silver | unknown | discovered ? | prod started ? | size: n/a | src: DOGAMI MILO-4 ID_22567</desc><sym>Bar</sym></wpt><wpt lat="44.216246" lon="-122.355860"><name>prospect</name><desc>MILO gold | gold, silver | unknown | discovered ? | prod started ? | size: n/a | src: DOGAMI MILO-4 ID_22568</desc><sym>Bar</sym></wpt><wpt lat="44.217857" lon="-122.355215"><name>prospect</name><desc>MILO gold | gold, silver | unknown | discovered ? | prod started ? | size: n/a | src: DOGAMI MILO-4 ID_22569</desc><sym>Bar</sym></wpt><wpt lat="44.214083" lon="-122.358297"><name>Open Cut No.4 (Crede No.2 Claim)</name><desc>MILO gold | gold, silver | unknown | discovered ? | prod started ? | size: n/a | src: DOGAMI MILO-4 ID_22570</desc><sym>Bar</sym></wpt><wpt lat="44.207894" lon="-122.343729"><name>Majestic Claim Cut</name><desc>MILO gold | gold, silver, copper, lead, zinc, antimony | lode | discovered 1887 | prod started ? | size: small | src: DOGAMI MILO-4 ID_22571</desc><sym>Bar</sym></wpt><wpt lat="44.230275" lon="-122.332014"><name>open pit mine</name><desc>MILO gold | gold | placer (heuristic: surface workings) | discovered ? | prod started ? | size: n/a | src: DOGAMI MILO-4 ID_23872</desc><sym>Bar</sym></wpt><wpt lat="44.224553" lon="-122.353880"><name>mine</name><desc>MILO gold | gold, silver | lode | discovered ? | prod started ? | size: n/a | src: DOGAMI MILO-4 ID_23873</desc><sym>Bar</sym></wpt><wpt lat="44.232920" lon="-122.378060"><name>Pearl</name><desc>MRDS gold occurrence | status: Prospect | commodities: AU | src: https://mrdata.usgs.gov/mrds/show-mrds.php?dep_id=10298753</desc><sym>Dot</sym></wpt><wpt lat="44.233150" lon="-122.378100"><name>Pearl</name><desc>MRDS gold occurrence | status: Occurrence | commodities: AU | src: https://mrdata.usgs.gov/mrds/show-mrds.php?dep_id=10095310</desc><sym>Dot</sym></wpt><wpt lat="44.230650" lon="-122.359490"><name>Red Buck</name><desc>MRDS gold occurrence | status: Occurrence | commodities: AU | src: https://mrdata.usgs.gov/mrds/show-mrds.php?dep_id=10036341</desc><sym>Dot</sym></wpt><wpt lat="44.229220" lon="-122.353060"><name>Sochwich Property</name><desc>MRDS gold occurrence | status: Prospect | commodities: AU | src: https://mrdata.usgs.gov/mrds/show-mrds.php?dep_id=10177685</desc><sym>Dot</sym></wpt><wpt lat="44.238120" lon="-122.333660"><name>Treadwell Prospect</name><desc>MRDS gold occurrence | status: Prospect | commodities: AU | src: https://mrdata.usgs.gov/mrds/show-mrds.php?dep_id=10273863</desc><sym>Dot</sym></wpt><wpt lat="44.199020" lon="-122.326450"><name>Tri-Metals Prospect</name><desc>MRDS gold occurrence | status: Prospect | commodities: AU | src: https://mrdata.usgs.gov/mrds/show-mrds.php?dep_id=10274459</desc><sym>Dot</sym></wpt><wpt lat="44.230620" lon="-122.359460"><name>Red Buck</name><desc>MRDS gold occurrence | status: Prospect | commodities: AU | src: https://mrdata.usgs.gov/mrds/show-mrds.php?dep_id=10280955</desc><sym>Dot</sym></wpt><wpt lat="44.230275" lon="-122.332014"><name>OPEN-calapooia-01</name><desc>open pit mine (placer (heuristic: surface workings)) | agency: USFS | 90m to stream | cluster: 8 nearby | src: MILO</desc><sym>Star</sym></wpt><wpt lat="44.226261" lon="-122.338450"><name>OPEN-calapooia-02</name><desc>USMIN Adit | agency: USFS | 79m to stream | cluster: 7 nearby | src: USMIN</desc><sym>Star</sym></wpt><wpt lat="44.224547" lon="-122.353866"><name>OPEN-calapooia-03</name><desc>USMIN Adit | agency: USFS | 63m to stream | cluster: 6 nearby | src: USMIN</desc><sym>Star</sym></wpt><wpt lat="44.205812" lon="-122.372081"><name>OPEN-calapooia-04</name><desc>USMIN Adit | agency: USFS | 20m to stream | cluster: 5 nearby | src: USMIN</desc><sym>Star</sym></wpt><wpt lat="44.228850" lon="-122.345638"><name>OPEN-calapooia-05</name><desc>unnamed or NA (lode) | agency: USFS | 105m to stream | cluster: 9 nearby | src: MILO</desc><sym>Star</sym></wpt><wpt lat="44.228798" lon="-122.345516"><name>OPEN-calapooia-06</name><desc>unnamed or NA (lode) | agency: USFS | 106m to stream | cluster: 9 nearby | src: MILO</desc><sym>Star</sym></wpt><wpt lat="44.227462" lon="-122.344444"><name>OPEN-calapooia-07</name><desc>unnamed or NA (lode) | agency: USFS | 23m to stream | cluster: 8 nearby | src: MILO</desc><sym>Star</sym></wpt><wpt lat="44.228032" lon="-122.343812"><name>OPEN-calapooia-08</name><desc>unnamed or NA (lode) | agency: USFS | 33m to stream | cluster: 8 nearby | src: MILO</desc><sym>Star</sym></wpt><wpt lat="44.229296" lon="-122.330164"><name>OPEN-calapooia-09</name><desc>Chief Claim, Cut and Shaft (lode) | agency: USFS | 89m to stream | cluster: 8 nearby | src: MILO</desc><sym>Star</sym></wpt><wpt lat="44.230269" lon="-122.332000"><name>OPEN-calapooia-10</name><desc>USMIN Open Pit Mine | agency: USFS | 91m to stream | cluster: 8 nearby | src: USMIN</desc><sym>Star</sym></wpt><wpt lat="44.226160" lon="-122.342753"><name>OPEN-calapooia-11</name><desc>unnamed or NA (lode) | agency: USFS | 127m to stream | cluster: 8 nearby | src: MILO</desc><sym>Star</sym></wpt><wpt lat="44.227443" lon="-122.346060"><name>OPEN-calapooia-12</name><desc>unnamed or NA (lode) | agency: USFS | 4m to stream | cluster: 7 nearby | src: MILO</desc><sym>Star</sym></wpt><wpt lat="44.227423" lon="-122.345688"><name>OPEN-calapooia-13</name><desc>unnamed or NA (lode) | agency: USFS | 7m to stream | cluster: 7 nearby | src: MILO</desc><sym>Star</sym></wpt><wpt lat="44.206961" lon="-122.379336"><name>OPEN-calapooia-14</name><desc>unnamed or NA (lode) | agency: USFS | 12m to stream | cluster: 7 nearby | src: MILO</desc><sym>Star</sym></wpt><wpt lat="44.207220" lon="-122.378980"><name>OPEN-calapooia-15</name><desc>unnamed or NA (lode) | agency: USFS | 16m to stream | cluster: 7 nearby | src: MILO</desc><sym>Star</sym></wpt><wpt lat="44.227580" lon="-122.345103"><name>OPEN-calapooia-16</name><desc>unnamed or NA (lode) | agency: USFS | 22m to stream | cluster: 7 nearby | src: MILO</desc><sym>Star</sym></wpt><wpt lat="44.207597" lon="-122.380164"><name>OPEN-calapooia-17</name><desc>Reaf Claim, Cut (lode) | agency: USFS | 36m to stream | cluster: 7 nearby | src: MILO</desc><sym>Star</sym></wpt><wpt lat="44.228270" lon="-122.329501"><name>OPEN-calapooia-18</name><desc>Chief Claim, Cut (lode) | agency: USFS | 69m to stream | cluster: 7 nearby | src: MILO</desc><sym>Star</sym></wpt><wpt lat="44.207828" lon="-122.380566"><name>OPEN-calapooia-19</name><desc>Reaf Claim, Cut (lode) | agency: USFS | 73m to stream | cluster: 7 nearby | src: MILO</desc><sym>Star</sym></wpt><wpt lat="44.226326" lon="-122.338510"><name>OPEN-calapooia-20</name><desc>Rialto (lode) | agency: USFS | 76m to stream | cluster: 7 nearby | src: MILO</desc><sym>Star</sym></wpt><wpt lat="44.207994" lon="-122.379788"><name>OPEN-calapooia-21</name><desc>Reaf Claim, Cut (lode) | agency: USFS | 82m to stream | cluster: 7 nearby | src: MILO</desc><sym>Star</sym></wpt><wpt lat="44.225163" lon="-122.354401"><name>OPEN-calapooia-22</name><desc>unnamed or NA (lode) | agency: USFS | 89m to stream | cluster: 7 nearby | src: MILO</desc><sym>Star</sym></wpt><wpt lat="44.208077" lon="-122.380292"><name>OPEN-calapooia-23</name><desc>Reaf Claim, Tunnel (lode) | agency: USFS | 91m to stream | cluster: 7 nearby | src: MILO</desc><sym>Star</sym></wpt><wpt lat="44.225001" lon="-122.354450"><name>OPEN-calapooia-24</name><desc>unnamed or NA (lode) | agency: USFS | 95m to stream | cluster: 7 nearby | src: MILO</desc><sym>Star</sym></wpt><wpt lat="44.224693" lon="-122.354370"><name>OPEN-calapooia-25</name><desc>unnamed or NA (lode) | agency: USFS | 95m to stream | cluster: 7 nearby | src: MILO</desc><sym>Star</sym></wpt><trk><name>Golden Dollar [APPROX quarter-section]</name><desc>WVM | serial ORMC168629 | placer | 20.0 ac | Active | APPROX (BLM quarter-section) | src: BLM MLRS</desc><trkseg><trkpt lat="44.238624" lon="-122.369089"></trkpt><trkpt lat="44.238497" lon="-122.364076"></trkpt><trkpt lat="44.234819" lon="-122.364093"></trkpt><trkpt lat="44.231141" lon="-122.364109"></trkpt><trkpt lat="44.231248" lon="-122.369121"></trkpt><trkpt lat="44.231354" lon="-122.374133"></trkpt><trkpt lat="44.231460" lon="-122.379156"></trkpt><trkpt lat="44.231575" lon="-122.384586"></trkpt><trkpt lat="44.235200" lon="-122.384594"></trkpt><trkpt lat="44.238825" lon="-122.384603"></trkpt><trkpt lat="44.238786" lon="-122.379127"></trkpt><trkpt lat="44.238750" lon="-122.374101"></trkpt><trkpt lat="44.238624" lon="-122.369089"></trkpt></trkseg></trk><trk><name>LAST CHANCE [APPROX quarter-section]</name><desc>lode | serial ORMC160387 | 10.33 ac | Active | qtr-sec OR 33 0150S 0040E 033 A NE|OR 33 0150S 0040E 028 A SE|OR 33 0150S 0040E 034 A NW | recorded~2021 (DB date, not legal located date) | src: BLM MLRS Not Closed | APPROX (BLM quarter-section)</desc><trkseg><trkpt lat="44.223806" lon="-122.318705"></trkpt><trkpt lat="44.223801" lon="-122.313621"></trkpt><trkpt lat="44.220182" lon="-122.313396"></trkpt><trkpt lat="44.216564" lon="-122.313170"></trkpt><trkpt lat="44.216573" lon="-122.318184"></trkpt><trkpt lat="44.216583" lon="-122.323197"></trkpt><trkpt lat="44.216582" lon="-122.328216"></trkpt><trkpt lat="44.216581" lon="-122.333236"></trkpt><trkpt lat="44.220191" lon="-122.333588"></trkpt><trkpt lat="44.223802" lon="-122.333941"></trkpt><trkpt lat="44.223807" lon="-122.328865"></trkpt><trkpt lat="44.227436" lon="-122.328904"></trkpt><trkpt lat="44.227446" lon="-122.323840"></trkpt><trkpt lat="44.223811" lon="-122.323788"></trkpt><trkpt lat="44.223806" lon="-122.318705"></trkpt></trkseg></trk><trk><name>ROWENA [APPROX quarter-section]</name><desc>lode | serial ORMC160388 | 10.33 ac | Active | qtr-sec OR 33 0150S 0040E 028 A SE|OR 33 0150S 0040E 027 A SW|OR 33 0150S 0040E 034 A NW | recorded~2021 (DB date, not legal located date) | src: BLM MLRS Not Closed | APPROX (BLM quarter-section)</desc><trkseg><trkpt lat="44.220197" lon="-122.323493"></trkpt><trkpt lat="44.223811" lon="-122.323788"></trkpt><trkpt lat="44.223807" lon="-122.328865"></trkpt><trkpt lat="44.227436" lon="-122.328904"></trkpt><trkpt lat="44.227446" lon="-122.323840"></trkpt><trkpt lat="44.231080" lon="-122.323891"></trkpt><trkpt lat="44.231071" lon="-122.318819"></trkpt><trkpt lat="44.231061" lon="-122.313747"></trkpt><trkpt lat="44.227431" lon="-122.313684"></trkpt><trkpt lat="44.223801" lon="-122.313621"></trkpt><trkpt lat="44.220182" lon="-122.313396"></trkpt><trkpt lat="44.216564" lon="-122.313170"></trkpt><trkpt lat="44.216573" lon="-122.318184"></trkpt><trkpt lat="44.216583" lon="-122.323197"></trkpt><trkpt lat="44.220197" lon="-122.323493"></trkpt></trkseg></trk><trk><name>ROWENA EXTENSION #1 [APPROX quarter-section]</name><desc>lode | serial ORMC160389 | 10.33 ac | Active | qtr-sec OR 33 0150S 0040E 034 A NW | recorded~2021 (DB date, not legal located date) | src: BLM MLRS Not Closed | APPROX (BLM quarter-section)</desc><trkseg><trkpt lat="44.220197" lon="-122.323493"></trkpt><trkpt lat="44.223811" lon="-122.323788"></trkpt><trkpt lat="44.223806" lon="-122.318705"></trkpt><trkpt lat="44.223801" lon="-122.313621"></trkpt><trkpt lat="44.220182" lon="-122.313396"></trkpt><trkpt lat="44.216564" lon="-122.313170"></trkpt><trkpt lat="44.216573" lon="-122.318184"></trkpt><trkpt lat="44.216583" lon="-122.323197"></trkpt><trkpt lat="44.220197" lon="-122.323493"></trkpt></trkseg></trk><trk><name>INFINITY MINE [APPROX quarter-section]</name><desc>lode | serial ORMC161887 | 17.22 ac | Active | qtr-sec OR 33 0150S 0040E 032 A NE | recorded~2021 (DB date, not legal located date) | src: BLM MLRS Not Closed | APPROX (BLM quarter-section)</desc><trkseg><trkpt lat="44.216593" lon="-122.344002"></trkpt><trkpt lat="44.217883" lon="-122.354045"></trkpt><trkpt lat="44.223790" lon="-122.354098"></trkpt><trkpt lat="44.223795" lon="-122.344053"></trkpt><trkpt lat="44.216593" lon="-122.344002"></trkpt></trkseg></trk><trk><name>Mister Pocket [APPROX quarter-section]</name><desc>lode | serial OR106328967 | 160.0 ac | Active | qtr-sec OR 33 0015S 0004E 029 A NE | OR 33 0150S 0040E 029 A NE | recorded~2023 (DB date, not legal located date) | src: BLM MLRS Not Closed | APPROX (BLM quarter-section)</desc><trkseg><trkpt lat="44.238302" lon="-122.349061"></trkpt><trkpt lat="44.238237" lon="-122.344056"></trkpt><trkpt lat="44.234627" lon="-122.344056"></trkpt><trkpt lat="44.231016" lon="-122.344055"></trkpt><trkpt lat="44.231048" lon="-122.349081"></trkpt><trkpt lat="44.231079" lon="-122.354107"></trkpt><trkpt lat="44.234723" lon="-122.354087"></trkpt><trkpt lat="44.238367" lon="-122.354066"></trkpt><trkpt lat="44.238302" lon="-122.349061"></trkpt></trkseg></trk><trk><name>Patriot Falls [APPROX quarter-section]</name><desc>placer | serial OR105229776 | 20.0 ac | Active | qtr-sec OR 33 0150S 0040E 020 A NESE|OR 33 0150S 0040E 020 A NWSE|OR 33 0150S 0040E 020 A NENW|OR 33 0150S 0040E 020 A NWNW|OR 33 0150S 0040E 020 A Remainder Aliquot Part SWSW|OR 33 0150S 0040E 020 A SENW|OR 33 0150S 0040E 020 A SENE|OR 33 0150S 0040…</desc><trkseg><trkpt lat="44.238367" lon="-122.354066"></trkpt><trkpt lat="44.238432" lon="-122.359071"></trkpt><trkpt lat="44.238497" lon="-122.364076"></trkpt><trkpt lat="44.242152" lon="-122.364073"></trkpt><trkpt lat="44.245807" lon="-122.364070"></trkpt><trkpt lat="44.249462" lon="-122.364067"></trkpt><trkpt lat="44.253117" lon="-122.364063"></trkpt><trkpt lat="44.253059" lon="-122.359041"></trkpt><trkpt lat="44.253001" lon="-122.354020"></trkpt><trkpt lat="44.252943" lon="-122.348998"></trkpt><trkpt lat="44.252886" lon="-122.343976"></trkpt><trkpt lat="44.249224" lon="-122.343996"></trkpt><trkpt lat="44.245561" lon="-122.344016"></trkpt><trkpt lat="44.241899" lon="-122.344036"></trkpt><trkpt lat="44.238237" lon="-122.344056"></trkpt><trkpt lat="44.238302" lon="-122.349061"></trkpt><trkpt lat="44.238367" lon="-122.354066"></trkpt></trkseg></trk><trk><name>GOLDEN DOLLAR [APPROX quarter-section]</name><desc>placer | serial ORMC168629 | 20.0 ac | Active | qtr-sec OR 33 0150S 0040E 030 A NW|OR 33 0150S 0040E 030 A NE | recorded~2021 (DB date, not legal located date) | src: BLM MLRS Not Closed | APPROX (BLM quarter-section)</desc><trkseg><trkpt lat="44.238624" lon="-122.369089"></trkpt><trkpt lat="44.238497" lon="-122.364076"></trkpt><trkpt lat="44.234819" lon="-122.364093"></trkpt><trkpt lat="44.231141" lon="-122.364109"></trkpt><trkpt lat="44.231248" lon="-122.369121"></trkpt><trkpt lat="44.231354" lon="-122.374133"></trkpt><trkpt lat="44.231460" lon="-122.379156"></trkpt><trkpt lat="44.231575" lon="-122.384586"></trkpt><trkpt lat="44.235200" lon="-122.384594"></trkpt><trkpt lat="44.238825" lon="-122.384603"></trkpt><trkpt lat="44.238786" lon="-122.379127"></trkpt><trkpt lat="44.238750" lon="-122.374101"></trkpt><trkpt lat="44.238624" lon="-122.369089"></trkpt></trkseg></trk><trk><name>TIDBITS #4 [APPROX quarter-section]</name><desc>placer | serial ORMC176844 | 20.0 ac | Active | qtr-sec OR 33 0150S 0040E 025 A NW | recorded~2021 (DB date, not legal located date) | src: BLM MLRS Not Closed | APPROX (BLM quarter-section)</desc><trkseg><trkpt lat="44.234614" lon="-122.283538"></trkpt><trkpt lat="44.238239" lon="-122.283611"></trkpt><trkpt lat="44.238225" lon="-122.280000"></trkpt><trkpt lat="44.230976" lon="-122.280000"></trkpt><trkpt lat="44.230988" lon="-122.283464"></trkpt><trkpt lat="44.234614" lon="-122.283538"></trkpt></trkseg></trk><trk><name>DUKE NORRIS #1 [APPROX quarter-section]</name><desc>placer | serial ORMC178194 | 40.0 ac | Active | qtr-sec OR 33 0150S 0040E 029 A NW | recorded~2021 (DB date, not legal located date) | src: BLM MLRS Not Closed | APPROX (BLM quarter-section)</desc><trkseg><trkpt lat="44.238497" lon="-122.364076"></trkpt><trkpt lat="44.238432" lon="-122.359071"></trkpt><trkpt lat="44.238367" lon="-122.354066"></trkpt><trkpt lat="44.234723" lon="-122.354087"></trkpt><trkpt lat="44.231079" lon="-122.354107"></trkpt><trkpt lat="44.231110" lon="-122.359108"></trkpt><trkpt lat="44.231141" lon="-122.364109"></trkpt><trkpt lat="44.234819" lon="-122.364093"></trkpt><trkpt lat="44.238497" lon="-122.364076"></trkpt></trkseg></trk><trk><name>Rendezvous [APPROX quarter-section]</name><desc>placer | serial OR106363922 | 20.0 ac | Active | qtr-sec OR 33 0160S 0040E 009 A SE | recorded~2024 (DB date, not legal located date) | src: BLM MLRS Not Closed | APPROX (BLM quarter-section)</desc><trkseg><trkpt lat="44.186239" lon="-122.333730"></trkpt><trkpt lat="44.186241" lon="-122.333730"></trkpt><trkpt lat="44.186323" lon="-122.333728"></trkpt><trkpt lat="44.189819" lon="-122.333670"></trkpt><trkpt lat="44.189840" lon="-122.328944"></trkpt><trkpt lat="44.189841" lon="-122.328638"></trkpt><trkpt lat="44.189864" lon="-122.323606"></trkpt><trkpt lat="44.186624" lon="-122.323716"></trkpt><trkpt lat="44.186277" lon="-122.323727"></trkpt><trkpt lat="44.183906" lon="-122.323808"></trkpt><trkpt lat="44.182691" lon="-122.323849"></trkpt><trkpt lat="44.182687" lon="-122.325039"></trkpt><trkpt lat="44.182675" lon="-122.328819"></trkpt><trkpt lat="44.182673" lon="-122.329431"></trkpt><trkpt lat="44.182666" lon="-122.331696"></trkpt><trkpt lat="44.182659" lon="-122.333789"></trkpt><trkpt lat="44.186179" lon="-122.333731"></trkpt><trkpt lat="44.186239" lon="-122.333730"></trkpt></trkseg></trk><trk><name>Big Chungus [APPROX quarter-section]</name><desc>placer | serial OR106363923 | 20.0 ac | Active | qtr-sec OR 33 0160S 0040E 009 A NE | recorded~2024 (DB date, not legal located date) | src: BLM MLRS Not Closed | APPROX (BLM quarter-section)</desc><trkseg><trkpt lat="44.193407" lon="-122.333611"></trkpt><trkpt lat="44.196994" lon="-122.333551"></trkpt><trkpt lat="44.197028" lon="-122.328582"></trkpt><trkpt lat="44.197062" lon="-122.323614"></trkpt><trkpt lat="44.194691" lon="-122.323611"></trkpt><trkpt lat="44.193463" lon="-122.323610"></trkpt><trkpt lat="44.189864" lon="-122.323606"></trkpt><trkpt lat="44.189841" lon="-122.328638"></trkpt><trkpt lat="44.189840" lon="-122.328944"></trkpt><trkpt lat="44.189819" lon="-122.333670"></trkpt><trkpt lat="44.193407" lon="-122.333611"></trkpt></trkseg></trk><trk><name>BOUNCING NUGGETTS [APPROX quarter-section]</name><desc>placer | serial OR106696189 | 20.0 ac | Active | qtr-sec OR 33 0150S 0040E 030 E NWNE | recorded~2024 (DB date, not legal located date) | src: BLM MLRS Not Closed | APPROX (BLM quarter-section)</desc><trkseg><trkpt lat="44.223785" lon="-122.364142"></trkpt><trkpt lat="44.223953" lon="-122.369153"></trkpt><trkpt lat="44.224120" lon="-122.374164"></trkpt><trkpt lat="44.224216" lon="-122.379187"></trkpt><trkpt lat="44.224324" lon="-122.384568"></trkpt><trkpt lat="44.227949" lon="-122.384577"></trkpt><trkpt lat="44.231575" lon="-122.384586"></trkpt><trkpt lat="44.235200" lon="-122.384594"></trkpt><trkpt lat="44.238825" lon="-122.384603"></trkpt><trkpt lat="44.238786" lon="-122.379127"></trkpt><trkpt lat="44.238750" lon="-122.374101"></trkpt><trkpt lat="44.238624" lon="-122.369089"></trkpt><trkpt lat="44.238497" lon="-122.364076"></trkpt><trkpt lat="44.234819" lon="-122.364093"></trkpt><trkpt lat="44.231141" lon="-122.364109"></trkpt><trkpt lat="44.227463" lon="-122.364126"></trkpt><trkpt lat="44.223785" lon="-122.364142"></trkpt></trkseg></trk><trk><name>Echo Ridge [APPROX quarter-section]</name><desc>lode | serial OR106750065 | 20.66 ac | Active | qtr-sec OR 33 0150S 0040E 032 L 1 | OR 33 0150S 0040E 032 L 2 | OR 33 0150S 0040E 032 B NWNE | OR 33 0150S 0040E 032 B NENE | OR 33 0150S 0040E 032 B NENE | OR 33 0150S 0040E 032 B NWNE | OR 33 0150S 0040E 032 | OR 33 0150S 0040E 032 | OR 33 0150S 004…</desc><trkseg><trkpt lat="44.216593" lon="-122.344002"></trkpt><trkpt lat="44.217883" lon="-122.354045"></trkpt><trkpt lat="44.223790" lon="-122.354098"></trkpt><trkpt lat="44.223795" lon="-122.344053"></trkpt><trkpt lat="44.216593" lon="-122.344002"></trkpt></trkseg></trk><trk><name>Sweetness 2 [APPROX quarter-section]</name><desc>placer | serial OR106781316 | 20.0 ac | Active | qtr-sec OR 33 0160S 0040E 004 A E2SWSE | recorded~2026 (DB date, not legal located date) | src: BLM MLRS Not Closed | APPROX (BLM quarter-section)</desc><trkseg><trkpt lat="44.197028" lon="-122.328582"></trkpt><trkpt lat="44.197011" lon="-122.331067"></trkpt><trkpt lat="44.198808" lon="-122.330864"></trkpt><trkpt lat="44.200604" lon="-122.330662"></trkpt><trkpt lat="44.200620" lon="-122.328167"></trkpt><trkpt lat="44.198824" lon="-122.328375"></trkpt><trkpt lat="44.197028" lon="-122.328582"></trkpt></trkseg></trk><trk><name>Sweetness [APPROX quarter-section]</name><desc>placer | serial OR106781315 | 20.0 ac | Active | qtr-sec OR 33 0160S 0040E 009 A E2E2NWNE | OR 33 0160S 0040E 009 A W2W2NENE | recorded~2026 (DB date, not legal located date) | src: BLM MLRS Not Closed | APPROX (BLM quarter-section)</desc><trkseg><trkpt lat="44.193428" lon="-122.329860"></trkpt><trkpt lat="44.195224" lon="-122.329842"></trkpt><trkpt lat="44.197020" lon="-122.329824"></trkpt><trkpt lat="44.197028" lon="-122.328582"></trkpt><trkpt lat="44.197037" lon="-122.327340"></trkpt><trkpt lat="44.195240" lon="-122.327350"></trkpt><trkpt lat="44.193442" lon="-122.327360"></trkpt><trkpt lat="44.193435" lon="-122.328610"></trkpt><trkpt lat="44.193428" lon="-122.329860"></trkpt></trkseg></trk><trk><name>Evil Dwarf Forever [APPROX quarter-section]</name><desc>placer | serial OR106783447 | 124.11 ac | Active | qtr-sec OR 33 0160S 0040E 004 L 3 | OR 33 0160S 0040E 004 L 4 | recorded~2026 (DB date, not legal located date) | src: BLM MLRS Not Closed | APPROX (BLM quarter-section)</desc><trkseg><trkpt lat="44.204109" lon="-122.344546"></trkpt><trkpt lat="44.206049" lon="-122.344338"></trkpt><trkpt lat="44.206781" lon="-122.343380"></trkpt><trkpt lat="44.206368" lon="-122.342763"></trkpt><trkpt lat="44.206958" lon="-122.341495"></trkpt><trkpt lat="44.206916" lon="-122.341423"></trkpt><trkpt lat="44.206921" lon="-122.341416"></trkpt><trkpt lat="44.206915" lon="-122.341405"></trkpt><trkpt lat="44.206798" lon="-122.341160"></trkpt><trkpt lat="44.206901" lon="-122.341070"></trkpt><trkpt lat="44.207003" lon="-122.340980"></trkpt><trkpt lat="44.208150" lon="-122.339973"></trkpt><trkpt lat="44.208019" lon="-122.339701"></trkpt><trkpt lat="44.208460" lon="-122.339191"></trkpt><trkpt lat="44.207720" lon="-122.337664"></trkpt><trkpt lat="44.207770" lon="-122.337572"></trkpt><trkpt lat="44.207938" lon="-122.337266"></trkpt><trkpt lat="44.208730" lon="-122.335817"></trkpt><trkpt lat="44.209359" lon="-122.337095"></trkpt><trkpt lat="44.209360" lon="-122.337097"></trkpt><trkpt lat="44.209411" lon="-122.337182"></trkpt><trkpt lat="44.209410" lon="-122.337078"></trkpt><trkpt lat="44.209393" lon="-122.332533"></trkpt><trkpt lat="44.209391" lon="-122.332144"></trkpt><trkpt lat="44.206909" lon="-122.332461"></trkpt><trkpt lat="44.206771" lon="-122.332476"></trkpt><trkpt lat="44.204182" lon="-122.332761"></trkpt><trkpt lat="44.204151" lon="-122.337722"></trkpt><trkpt lat="44.204146" lon="-122.338654"></trkpt><trkpt lat="44.204109" lon="-122.344546"></trkpt></trkseg></trk><trk><name>The golden trumpit #2 [APPROX quarter-section]</name><desc>placer | serial OR106784309 | 17.8 ac | Active | qtr-sec OR 33 0160S 0040E 004 L 3 | OR 33 0160S 0040E 004 L 2 | recorded~2026 (DB date, not legal located date) | src: BLM MLRS Not Closed | APPROX (BLM quarter-section)</desc><trkseg><trkpt lat="44.204164" lon="-122.335234"></trkpt><trkpt lat="44.205983" lon="-122.335009"></trkpt><trkpt lat="44.206030" lon="-122.330640"></trkpt><trkpt lat="44.204195" lon="-122.330836"></trkpt><trkpt lat="44.204164" lon="-122.335234"></trkpt></trkseg></trk><trk><name>The golden trumpit #1 [APPROX quarter-section]</name><desc>placer | serial OR106784308 | 20.0 ac | Active | qtr-sec OR 33 0160S 0040E 004 A W2NWSE | recorded~2026 (DB date, not legal located date) | src: BLM MLRS Not Closed | APPROX (BLM quarter-section)</desc><trkseg><trkpt lat="44.200604" lon="-122.330662"></trkpt><trkpt lat="44.200588" lon="-122.333156"></trkpt><trkpt lat="44.202385" lon="-122.332958"></trkpt><trkpt lat="44.204182" lon="-122.332761"></trkpt><trkpt lat="44.204197" lon="-122.330257"></trkpt><trkpt lat="44.202401" lon="-122.330459"></trkpt><trkpt lat="44.200604" lon="-122.330662"></trkpt></trkseg></trk><trk><name>G4 Mining [APPROX quarter-section]</name><desc>placer | serial OR106848810 | 120.0 ac | Active | qtr-sec OR 33 0150S 0040E 028 A SENW | OR 33 0150S 0040E 028 A SWNE | OR 33 0150S 0040E 028 A SWNW | recorded~2026 (DB date, not legal located date) | src: BLM MLRS Not Closed | APPROX (BLM quarter-section)</desc><trkseg><trkpt lat="44.231016" lon="-122.344055"></trkpt><trkpt lat="44.234627" lon="-122.344056"></trkpt><trkpt lat="44.234639" lon="-122.339039"></trkpt><trkpt lat="44.234650" lon="-122.334022"></trkpt><trkpt lat="44.234683" lon="-122.328982"></trkpt><trkpt lat="44.231065" lon="-122.328943"></trkpt><trkpt lat="44.231049" lon="-122.333995"></trkpt><trkpt lat="44.231033" lon="-122.339025"></trkpt><trkpt lat="44.231016" lon="-122.344055"></trkpt></trkseg></trk><trk><name>Frankie's Place [APPROX quarter-section]</name><desc>placer | serial OR106849598 | 20.0 ac | Filed | qtr-sec OR 33 0150S 0040E 030 AS2NWNW | recorded~2026 (DB date, not legal located date) | src: BLM MLRS Not Closed | APPROX (BLM quarter-section)</desc><trkseg><trkpt lat="44.235123" lon="-122.379142"></trkpt><trkpt lat="44.235200" lon="-122.384594"></trkpt><trkpt lat="44.238825" lon="-122.384603"></trkpt><trkpt lat="44.238786" lon="-122.379127"></trkpt><trkpt lat="44.235123" lon="-122.379142"></trkpt></trkseg></trk><trk><name>Frankie's Place [APPROX quarter-section]</name><desc>placer | serial OR106849599 | 20.0 ac | Filed | qtr-sec OR 33 0150S 0040E 030 AS2NWNW | recorded~2026 (DB date, not legal located date) | src: BLM MLRS Not Closed | APPROX (BLM quarter-section)</desc><trkseg><trkpt lat="44.235123" lon="-122.379142"></trkpt><trkpt lat="44.235200" lon="-122.384594"></trkpt><trkpt lat="44.238825" lon="-122.384603"></trkpt><trkpt lat="44.238786" lon="-122.379127"></trkpt><trkpt lat="44.235123" lon="-122.379142"></trkpt></trkseg></trk></gpx>