<?xml version="1.0" encoding="UTF-8"?>
<gpx xmlns:xsi="http://www.w3.org/2001/XMLSchema-instance" xmlns="http://www.topografix.com/GPX/1/1" xmlns:onx="http://www.onxmaps.com" xsi:schemaLocation="http://www.topografix.com/GPX/1/1 http://www.topografix.com/GPX/1/1/gpx.xsd" version="1.1" creator="onXmaps hunt ios"><wpt lat="44.230272" lon="-122.332007"><name>Placer - open pit mine</name><desc>2 source record(s) merged within 75m | src: MILO, USMIN</desc><extensions><onx:icon>Mineral Site</onx:icon><onx:color>rgba(0, 0, 0, 1)</onx:color></extensions></wpt><wpt lat="44.224762" lon="-122.354253"><name>Adit - Blue River</name><desc>6 source record(s) merged within 75m | src: MILO, USMIN</desc><extensions><onx:icon>Location</onx:icon><onx:color>rgba(0, 0, 0, 1)</onx:color></extensions></wpt><wpt lat="44.211755" lon="-122.343431"><name>Adit - Blue River</name><desc>6 source record(s) merged within 75m | src: MILO, USMIN</desc><extensions><onx:icon>Location</onx:icon><onx:color>rgba(0, 0, 0, 1)</onx:color></extensions></wpt><wpt lat="44.205695" lon="-122.372081"><name>Adit - Blue River</name><desc>6 source record(s) merged within 75m | src: MILO, USMIN</desc><extensions><onx:icon>Location</onx:icon><onx:color>rgba(0, 0, 0, 1)</onx:color></extensions></wpt><wpt lat="44.210719" lon="-122.342418"><name>Adit - Blue River</name><desc>4 source record(s) merged within 75m | src: MILO, USMIN</desc><extensions><onx:icon>Location</onx:icon><onx:color>rgba(0, 0, 0, 1)</onx:color></extensions></wpt><wpt lat="44.208036" lon="-122.342738"><name>Adit - Blue River</name><desc>4 source record(s) merged within 75m | src: MILO, USMIN</desc><extensions><onx:icon>Location</onx:icon><onx:color>rgba(0, 0, 0, 1)</onx:color></extensions></wpt><wpt lat="44.233315" lon="-122.341977"><name>Adit - Blue River</name><desc>3 source record(s) merged within 75m | src: MILO, USMIN</desc><extensions><onx:icon>Location</onx:icon><onx:color>rgba(0, 0, 0, 1)</onx:color></extensions></wpt><wpt lat="44.226293" lon="-122.338480"><name>Adit - Blue River</name><desc>2 source record(s) merged within 75m | src: MILO, USMIN</desc><extensions><onx:icon>Location</onx:icon><onx:color>rgba(0, 0, 0, 1)</onx:color></extensions></wpt><wpt lat="44.231230" lon="-122.332231"><name>Adit - Blue River</name><desc>2 source record(s) merged within 75m | src: MILO, USMIN</desc><extensions><onx:icon>Location</onx:icon><onx:color>rgba(0, 0, 0, 1)</onx:color></extensions></wpt><wpt lat="44.222182" lon="-122.328485"><name>Adit - Blue River</name><desc>2 source record(s) merged within 75m | src: MILO, USMIN</desc><extensions><onx:icon>Location</onx:icon><onx:color>rgba(0, 0, 0, 1)</onx:color></extensions></wpt><wpt lat="44.222666" lon="-122.330302"><name>Adit - Blue River</name><desc>2 source record(s) merged within 75m | src: MILO, USMIN</desc><extensions><onx:icon>Location</onx:icon><onx:color>rgba(0, 0, 0, 1)</onx:color></extensions></wpt><wpt lat="44.217239" lon="-122.365657"><name>Mine - Poorman Claim Cut</name><desc>5 source record(s) merged within 75m | src: MILO</desc><extensions><onx:icon>Location</onx:icon><onx:color>rgba(0, 0, 0, 1)</onx:color></extensions></wpt><wpt lat="44.224155" lon="-122.335552"><name>Pit - Blue River</name><desc>4 source record(s) merged within 75m | src: MILO, USMIN</desc><extensions><onx:icon>Location</onx:icon><onx:color>rgba(0, 0, 0, 1)</onx:color></extensions></wpt><wpt lat="44.231143" lon="-122.331473"><name>Mine - Cinderella Disc. Shaft</name><desc>4 source record(s) merged within 75m | src: MILO</desc><extensions><onx:icon>Location</onx:icon><onx:color>rgba(0, 0, 0, 1)</onx:color></extensions></wpt><wpt lat="44.214228" lon="-122.357764"><name>Mine - Discovery Shaft No.1 (Cr…</name><desc>4 source record(s) merged within 75m | src: MILO</desc><extensions><onx:icon>Location</onx:icon><onx:color>rgba(0, 0, 0, 1)</onx:color></extensions></wpt><wpt lat="44.205287" lon="-122.358111"><name>Mine - Leonard Claim Cut 4</name><desc>4 source record(s) merged within 75m | src: MILO</desc><extensions><onx:icon>Location</onx:icon><onx:color>rgba(0, 0, 0, 1)</onx:color></extensions></wpt><wpt lat="44.209306" lon="-122.361984"><name>Mine - Durango Claim Disc. Cut…</name><desc>4 source record(s) merged within 75m | src: MILO</desc><extensions><onx:icon>Location</onx:icon><onx:color>rgba(0, 0, 0, 1)</onx:color></extensions></wpt><wpt lat="44.215225" lon="-122.350097"><name>Mine - Louise Claim Tunnel No.1</name><desc>4 source record(s) merged within 75m | src: MILO</desc><extensions><onx:icon>Location</onx:icon><onx:color>rgba(0, 0, 0, 1)</onx:color></extensions></wpt><wpt lat="44.212207" lon="-122.355756"><name>Mine - Lone Star Claim Disc Sha…</name><desc>4 source record(s) merged within 75m | src: MILO</desc><extensions><onx:icon>Location</onx:icon><onx:color>rgba(0, 0, 0, 1)</onx:color></extensions></wpt><wpt lat="44.218391" lon="-122.351893"><name>Mine - Idaho Claim Cut No.1</name><desc>4 source record(s) merged within 75m | src: MILO</desc><extensions><onx:icon>Location</onx:icon><onx:color>rgba(0, 0, 0, 1)</onx:color></extensions></wpt><wpt lat="44.219530" lon="-122.353624"><name>Mine - Idaho Claim Tunnel No.7</name><desc>4 source record(s) merged within 75m | src: MILO</desc><extensions><onx:icon>Location</onx:icon><onx:color>rgba(0, 0, 0, 1)</onx:color></extensions></wpt><wpt lat="44.215409" lon="-122.357545"><name>Mine - The Badger Claim Shaft</name><desc>4 source record(s) merged within 75m | src: MILO</desc><extensions><onx:icon>Location</onx:icon><onx:color>rgba(0, 0, 0, 1)</onx:color></extensions></wpt><wpt lat="44.207874" lon="-122.380203"><name>Mine - Reaf Claim, Cut</name><desc>4 source record(s) merged within 75m | src: MILO</desc><extensions><onx:icon>Location</onx:icon><onx:color>rgba(0, 0, 0, 1)</onx:color></extensions></wpt><wpt lat="44.215608" lon="-122.358870"><name>Mine - Amelia Claim (Open Cut N…</name><desc>4 source record(s) merged within 75m | src: MILO</desc><extensions><onx:icon>Location</onx:icon><onx:color>rgba(0, 0, 0, 1)</onx:color></extensions></wpt><wpt lat="44.213119" lon="-122.360369"><name>Pit - Blue River</name><desc>3 source record(s) merged within 75m | src: MILO, USMIN</desc><extensions><onx:icon>Location</onx:icon><onx:color>rgba(0, 0, 0, 1)</onx:color></extensions></wpt><wpt lat="44.236252" lon="-122.328435"><name>Mine - Great Eastern, Disc. Cut…</name><desc>3 source record(s) merged within 75m | src: MILO</desc><extensions><onx:icon>Location</onx:icon><onx:color>rgba(0, 0, 0, 1)</onx:color></extensions></wpt><wpt lat="44.227482" lon="-122.345617"><name>Mine - unnamed or NA</name><desc>3 source record(s) merged within 75m | src: MILO</desc><extensions><onx:icon>Location</onx:icon><onx:color>rgba(0, 0, 0, 1)</onx:color></extensions></wpt><wpt lat="44.208536" lon="-122.349137"><name>Mine - S.P. Claim Tunnel and Cu…</name><desc>3 source record(s) merged within 75m | src: MILO</desc><extensions><onx:icon>Location</onx:icon><onx:color>rgba(0, 0, 0, 1)</onx:color></extensions></wpt><wpt lat="44.213825" lon="-122.354508"><name>Mine - Sunset Claim Cut and Tun…</name><desc>3 source record(s) merged within 75m | src: MILO</desc><extensions><onx:icon>Location</onx:icon><onx:color>rgba(0, 0, 0, 1)</onx:color></extensions></wpt><wpt lat="44.215772" lon="-122.353906"><name>Mine - Sun Claim Tunnel No.5</name><desc>3 source record(s) merged within 75m | src: MILO</desc><extensions><onx:icon>Location</onx:icon><onx:color>rgba(0, 0, 0, 1)</onx:color></extensions></wpt><wpt lat="44.219147" lon="-122.356690"><name>Mine - Dewey Claim Tunnel No.3</name><desc>3 source record(s) merged within 75m | src: MILO</desc><extensions><onx:icon>Location</onx:icon><onx:color>rgba(0, 0, 0, 1)</onx:color></extensions></wpt><wpt lat="44.219747" lon="-122.354450"><name>Mine - Geneva Claim Tunnel No.2</name><desc>3 source record(s) merged within 75m | src: MILO</desc><extensions><onx:icon>Location</onx:icon><onx:color>rgba(0, 0, 0, 1)</onx:color></extensions></wpt><wpt lat="44.217189" lon="-122.358524"><name>Mine - The Badger Claim Tunnel…</name><desc>3 source record(s) merged within 75m | src: MILO</desc><extensions><onx:icon>Location</onx:icon><onx:color>rgba(0, 0, 0, 1)</onx:color></extensions></wpt><wpt lat="44.227919" lon="-122.329534"><name>Mine - Chief Claim, Disc. Cut</name><desc>3 source record(s) merged within 75m | src: MILO</desc><extensions><onx:icon>Location</onx:icon><onx:color>rgba(0, 0, 0, 1)</onx:color></extensions></wpt><wpt lat="44.214633" lon="-122.358647"><name>Mine - Open Cut No.6 (Crede No.…</name><desc>3 source record(s) merged within 75m | src: MILO</desc><extensions><onx:icon>Location</onx:icon><onx:color>rgba(0, 0, 0, 1)</onx:color></extensions></wpt><wpt lat="44.221218" lon="-122.365659"><name>Mine - Poorman</name><desc>2 source record(s) merged within 75m | src: MILO</desc><extensions><onx:icon>Location</onx:icon><onx:color>rgba(0, 0, 0, 1)</onx:color></extensions></wpt><wpt lat="44.224952" lon="-122.355823"><name>Mine - unnamed or NA</name><desc>2 source record(s) merged within 75m | src: MILO</desc><extensions><onx:icon>Location</onx:icon><onx:color>rgba(0, 0, 0, 1)</onx:color></extensions></wpt><wpt lat="44.211667" lon="-122.358770"><name>Mine - Treasure</name><desc>2 source record(s) merged within 75m | src: MILO</desc><extensions><onx:icon>Location</onx:icon><onx:color>rgba(0, 0, 0, 1)</onx:color></extensions></wpt><wpt lat="44.228824" lon="-122.345577"><name>Mine - unnamed or NA</name><desc>2 source record(s) merged within 75m | src: MILO</desc><extensions><onx:icon>Location</onx:icon><onx:color>rgba(0, 0, 0, 1)</onx:color></extensions></wpt><wpt lat="44.212307" lon="-122.359283"><name>Mine - Eavning Claim Disc Cut</name><desc>2 source record(s) merged within 75m | src: MILO</desc><extensions><onx:icon>Location</onx:icon><onx:color>rgba(0, 0, 0, 1)</onx:color></extensions></wpt><wpt lat="44.210176" lon="-122.343616"><name>Mine - Boodle Claim Cut No.1</name><desc>2 source record(s) merged within 75m | src: MILO</desc><extensions><onx:icon>Location</onx:icon><onx:color>rgba(0, 0, 0, 1)</onx:color></extensions></wpt><wpt lat="44.204036" lon="-122.355896"><name>Mine - Top Claim Shaft</name><desc>2 source record(s) merged within 75m | src: MILO</desc><extensions><onx:icon>Location</onx:icon><onx:color>rgba(0, 0, 0, 1)</onx:color></extensions></wpt><wpt lat="44.210369" lon="-122.352366"><name>Mine - Shovel Blade Claim Disc.…</name><desc>2 source record(s) merged within 75m | src: MILO</desc><extensions><onx:icon>Location</onx:icon><onx:color>rgba(0, 0, 0, 1)</onx:color></extensions></wpt><wpt lat="44.210966" lon="-122.353540"><name>Mine - Shovel Blade Claim Disc.…</name><desc>2 source record(s) merged within 75m | src: MILO</desc><extensions><onx:icon>Location</onx:icon><onx:color>rgba(0, 0, 0, 1)</onx:color></extensions></wpt><wpt lat="44.209129" lon="-122.355318"><name>Mine - Havilla Claim Cut</name><desc>2 source record(s) merged within 75m | src: MILO</desc><extensions><onx:icon>Location</onx:icon><onx:color>rgba(0, 0, 0, 1)</onx:color></extensions></wpt><wpt lat="44.213397" lon="-122.353167"><name>Mine - Sunset Claim Tunnel No.2</name><desc>2 source record(s) merged within 75m | src: MILO</desc><extensions><onx:icon>Location</onx:icon><onx:color>rgba(0, 0, 0, 1)</onx:color></extensions></wpt><wpt lat="44.212878" lon="-122.351325"><name>Mine - Yankee Girl Tunnel No.3</name><desc>2 source record(s) merged within 75m | src: MILO</desc><extensions><onx:icon>Location</onx:icon><onx:color>rgba(0, 0, 0, 1)</onx:color></extensions></wpt><wpt lat="44.214692" lon="-122.352249"><name>Mine - Yankee Girl Disc. Cut No…</name><desc>2 source record(s) merged within 75m | src: MILO</desc><extensions><onx:icon>Location</onx:icon><onx:color>rgba(0, 0, 0, 1)</onx:color></extensions></wpt><wpt lat="44.217532" lon="-122.355192"><name>Mine - Sun Claim Tunnel No.5</name><desc>2 source record(s) merged within 75m | src: MILO</desc><extensions><onx:icon>Location</onx:icon><onx:color>rgba(0, 0, 0, 1)</onx:color></extensions></wpt><wpt lat="44.216325" lon="-122.355469"><name>Mine - Sun Claim Cut No.5</name><desc>2 source record(s) merged within 75m | src: MILO</desc><extensions><onx:icon>Location</onx:icon><onx:color>rgba(0, 0, 0, 1)</onx:color></extensions></wpt><wpt lat="44.226372" lon="-122.359143"><name>Mine - unnamed or NA</name><desc>2 source record(s) merged within 75m | src: MILO</desc><extensions><onx:icon>Location</onx:icon><onx:color>rgba(0, 0, 0, 1)</onx:color></extensions></wpt><wpt lat="44.228638" lon="-122.358186"><name>Mine - unnamed or NA</name><desc>2 source record(s) merged within 75m | src: MILO</desc><extensions><onx:icon>Location</onx:icon><onx:color>rgba(0, 0, 0, 1)</onx:color></extensions></wpt><wpt lat="44.202342" lon="-122.342475"><name>Mine - unnamed or NA</name><desc>2 source record(s) merged within 75m | src: MILO</desc><extensions><onx:icon>Location</onx:icon><onx:color>rgba(0, 0, 0, 1)</onx:color></extensions></wpt><wpt lat="44.203888" lon="-122.366960"><name>Mine - unnamed or NA</name><desc>2 source record(s) merged within 75m | src: MILO</desc><extensions><onx:icon>Location</onx:icon><onx:color>rgba(0, 0, 0, 1)</onx:color></extensions></wpt><wpt lat="44.209288" lon="-122.365962"><name>Mine - Lucky Dog Strike Claim</name><desc>2 source record(s) merged within 75m | src: MILO</desc><extensions><onx:icon>Location</onx:icon><onx:color>rgba(0, 0, 0, 1)</onx:color></extensions></wpt><wpt lat="44.208113" lon="-122.366496"><name>Mine - Lucky Dog Strike Claim</name><desc>2 source record(s) merged within 75m | src: MILO</desc><extensions><onx:icon>Location</onx:icon><onx:color>rgba(0, 0, 0, 1)</onx:color></extensions></wpt><wpt lat="44.238242" lon="-122.333991"><name>Mine - unnamed or NA</name><desc>2 source record(s) merged within 75m | src: MILO, MRDS</desc><extensions><onx:icon>Location</onx:icon><onx:color>rgba(0, 0, 0, 1)</onx:color></extensions></wpt><wpt lat="44.241085" lon="-122.343572"><name>Mine - unnamed or NA</name><desc>2 source record(s) merged within 75m | src: MILO</desc><extensions><onx:icon>Location</onx:icon><onx:color>rgba(0, 0, 0, 1)</onx:color></extensions></wpt><wpt lat="44.222372" lon="-122.374671"><name>Mine - unnamed or NA</name><desc>2 source record(s) merged within 75m | src: MILO</desc><extensions><onx:icon>Location</onx:icon><onx:color>rgba(0, 0, 0, 1)</onx:color></extensions></wpt><wpt lat="44.212663" lon="-122.379455"><name>Mine - unnamed or NA</name><desc>2 source record(s) merged within 75m | src: MILO</desc><extensions><onx:icon>Location</onx:icon><onx:color>rgba(0, 0, 0, 1)</onx:color></extensions></wpt><wpt lat="44.206432" lon="-122.377379"><name>Mine - unnamed or NA</name><desc>2 source record(s) merged within 75m | src: MILO</desc><extensions><onx:icon>Location</onx:icon><onx:color>rgba(0, 0, 0, 1)</onx:color></extensions></wpt><wpt lat="44.207091" lon="-122.379158"><name>Mine - unnamed or NA</name><desc>2 source record(s) merged within 75m | src: MILO</desc><extensions><onx:icon>Location</onx:icon><onx:color>rgba(0, 0, 0, 1)</onx:color></extensions></wpt><wpt lat="44.202589" lon="-122.351905"><name>Mine - unnamed or NA</name><desc>2 source record(s) merged within 75m | src: MILO</desc><extensions><onx:icon>Location</onx:icon><onx:color>rgba(0, 0, 0, 1)</onx:color></extensions></wpt><wpt lat="44.213794" lon="-122.344040"><name>Mine - unnamed or NA</name><desc>2 source record(s) merged within 75m | src: MILO</desc><extensions><onx:icon>Location</onx:icon><onx:color>rgba(0, 0, 0, 1)</onx:color></extensions></wpt><wpt lat="44.212763" lon="-122.343459"><name>Mine - unnamed or NA</name><desc>2 source record(s) merged within 75m | src: MILO</desc><extensions><onx:icon>Location</onx:icon><onx:color>rgba(0, 0, 0, 1)</onx:color></extensions></wpt><wpt lat="44.217594" lon="-122.345735"><name>Mine - Infinity Mine and Phanto…</name><desc>2 source record(s) merged within 75m | src: MILO</desc><extensions><onx:icon>Location</onx:icon><onx:color>rgba(0, 0, 0, 1)</onx:color></extensions></wpt><wpt lat="44.208140" lon="-122.336302"><name>Mine - unnamed or NA</name><desc>2 source record(s) merged within 75m | src: MILO</desc><extensions><onx:icon>Location</onx:icon><onx:color>rgba(0, 0, 0, 1)</onx:color></extensions></wpt><wpt lat="44.181088" lon="-122.341330"><name>Mine - unnamed or NA</name><desc>2 source record(s) merged within 75m | src: MILO</desc><extensions><onx:icon>Location</onx:icon><onx:color>rgba(0, 0, 0, 1)</onx:color></extensions></wpt><wpt lat="44.180885" lon="-122.339738"><name>Mine - unnamed or NA</name><desc>2 source record(s) merged within 75m | src: MILO</desc><extensions><onx:icon>Location</onx:icon><onx:color>rgba(0, 0, 0, 1)</onx:color></extensions></wpt><wpt lat="44.181388" lon="-122.339025"><name>Mine - unnamed or NA</name><desc>2 source record(s) merged within 75m | src: MILO</desc><extensions><onx:icon>Location</onx:icon><onx:color>rgba(0, 0, 0, 1)</onx:color></extensions></wpt><wpt lat="44.233035" lon="-122.378080"><name>Mine - Pearl</name><desc>2 source record(s) merged within 75m | src: MRDS</desc><extensions><onx:icon>Location</onx:icon><onx:color>rgba(0, 0, 0, 1)</onx:color></extensions></wpt><wpt lat="44.230635" lon="-122.359475"><name>Mine - Red Buck</name><desc>2 source record(s) merged within 75m | src: MRDS</desc><extensions><onx:icon>Location</onx:icon><onx:color>rgba(0, 0, 0, 1)</onx:color></extensions></wpt><wpt lat="44.234345" lon="-122.390968"><name>Mine - Pearl</name><desc>1 source record(s) merged within 75m | src: MILO</desc><extensions><onx:icon>Location</onx:icon><onx:color>rgba(0, 0, 0, 1)</onx:color></extensions></wpt><wpt lat="44.216586" lon="-122.364259"><name>Mine - Evening</name><desc>1 source record(s) merged within 75m | src: MILO</desc><extensions><onx:icon>Location</onx:icon><onx:color>rgba(0, 0, 0, 1)</onx:color></extensions></wpt><wpt lat="44.234053" lon="-122.359081"><name>Mine - Red Buck</name><desc>1 source record(s) merged within 75m | src: MILO</desc><extensions><onx:icon>Location</onx:icon><onx:color>rgba(0, 0, 0, 1)</onx:color></extensions></wpt><wpt lat="44.228183" lon="-122.354238"><name>Mine - Sochwich</name><desc>1 source record(s) merged within 75m | src: MILO</desc><extensions><onx:icon>Location</onx:icon><onx:color>rgba(0, 0, 0, 1)</onx:color></extensions></wpt><wpt lat="44.236680" lon="-122.357004"><name>Mine - Higgins</name><desc>1 source record(s) merged within 75m | src: MILO</desc><extensions><onx:icon>Location</onx:icon><onx:color>rgba(0, 0, 0, 1)</onx:color></extensions></wpt><wpt lat="44.237553" lon="-122.352722"><name>Mine - Everlasting Jack</name><desc>1 source record(s) merged within 75m | src: MILO</desc><extensions><onx:icon>Location</onx:icon><onx:color>rgba(0, 0, 0, 1)</onx:color></extensions></wpt><wpt lat="44.232782" lon="-122.343568"><name>Mine - Great Northern (upper ad…</name><desc>1 source record(s) merged within 75m | src: MILO</desc><extensions><onx:icon>Location</onx:icon><onx:color>rgba(0, 0, 0, 1)</onx:color></extensions></wpt><wpt lat="44.237841" lon="-122.334987"><name>Mine - Treadwell</name><desc>1 source record(s) merged within 75m | src: MILO</desc><extensions><onx:icon>Location</onx:icon><onx:color>rgba(0, 0, 0, 1)</onx:color></extensions></wpt><wpt lat="44.211328" lon="-122.366180"><name>Mine - Durango</name><desc>1 source record(s) merged within 75m | src: MILO</desc><extensions><onx:icon>Location</onx:icon><onx:color>rgba(0, 0, 0, 1)</onx:color></extensions></wpt><wpt lat="44.230458" lon="-122.327749"><name>Mine - Tate Property, Cut Shaft</name><desc>1 source record(s) merged within 75m | src: MILO</desc><extensions><onx:icon>Location</onx:icon><onx:color>rgba(0, 0, 0, 1)</onx:color></extensions></wpt><wpt lat="44.214506" lon="-122.350944"><name>Mine - Gold Dollar Claim</name><desc>1 source record(s) merged within 75m | src: MILO</desc><extensions><onx:icon>Location</onx:icon><onx:color>rgba(0, 0, 0, 1)</onx:color></extensions></wpt><wpt lat="44.208466" lon="-122.334805"><name>Mine - Lucky Girl</name><desc>1 source record(s) merged within 75m | src: MILO</desc><extensions><onx:icon>Location</onx:icon><onx:color>rgba(0, 0, 0, 1)</onx:color></extensions></wpt><wpt lat="44.198627" lon="-122.325373"><name>Mine - Tri-Metals</name><desc>1 source record(s) merged within 75m | src: MILO</desc><extensions><onx:icon>Location</onx:icon><onx:color>rgba(0, 0, 0, 1)</onx:color></extensions></wpt><wpt lat="44.188559" lon="-122.311787"><name>Mine - Great Western</name><desc>1 source record(s) merged within 75m | src: MILO</desc><extensions><onx:icon>Location</onx:icon><onx:color>rgba(0, 0, 0, 1)</onx:color></extensions></wpt><wpt lat="44.184045" lon="-122.303480"><name>Mine - Jry Group</name><desc>1 source record(s) merged within 75m | src: MILO</desc><extensions><onx:icon>Location</onx:icon><onx:color>rgba(0, 0, 0, 1)</onx:color></extensions></wpt><wpt lat="44.233649" lon="-122.344052"><name>Mine - Great Northern (lower ad…</name><desc>1 source record(s) merged within 75m | src: MILO</desc><extensions><onx:icon>Location</onx:icon><onx:color>rgba(0, 0, 0, 1)</onx:color></extensions></wpt><wpt lat="44.230848" lon="-122.348973"><name>Mine - unnamed or NA</name><desc>1 source record(s) merged within 75m | src: MILO</desc><extensions><onx:icon>Location</onx:icon><onx:color>rgba(0, 0, 0, 1)</onx:color></extensions></wpt><wpt lat="44.230280" lon="-122.348404"><name>Mine - unnamed or NA</name><desc>1 source record(s) merged within 75m | src: MILO</desc><extensions><onx:icon>Location</onx:icon><onx:color>rgba(0, 0, 0, 1)</onx:color></extensions></wpt><wpt lat="44.228032" lon="-122.343812"><name>Mine - unnamed or NA</name><desc>1 source record(s) merged within 75m | src: MILO</desc><extensions><onx:icon>Location</onx:icon><onx:color>rgba(0, 0, 0, 1)</onx:color></extensions></wpt><wpt lat="44.227462" lon="-122.344444"><name>Mine - unnamed or NA</name><desc>1 source record(s) merged within 75m | src: MILO</desc><extensions><onx:icon>Location</onx:icon><onx:color>rgba(0, 0, 0, 1)</onx:color></extensions></wpt><wpt lat="44.226160" lon="-122.342753"><name>Mine - unnamed or NA</name><desc>1 source record(s) merged within 75m | src: MILO</desc><extensions><onx:icon>Location</onx:icon><onx:color>rgba(0, 0, 0, 1)</onx:color></extensions></wpt><wpt lat="44.205913" lon="-122.358672"><name>Mine - Leonard Claim Cut 5</name><desc>1 source record(s) merged within 75m | src: MILO</desc><extensions><onx:icon>Location</onx:icon><onx:color>rgba(0, 0, 0, 1)</onx:color></extensions></wpt><wpt lat="44.207633" lon="-122.360700"><name>Mine - Leonard Claim Discovery…</name><desc>1 source record(s) merged within 75m | src: MILO</desc><extensions><onx:icon>Location</onx:icon><onx:color>rgba(0, 0, 0, 1)</onx:color></extensions></wpt><wpt lat="44.209800" lon="-122.362802"><name>Mine - Durango Claim Cut No.3</name><desc>1 source record(s) merged within 75m | src: MILO</desc><extensions><onx:icon>Location</onx:icon><onx:color>rgba(0, 0, 0, 1)</onx:color></extensions></wpt><wpt lat="44.211573" lon="-122.342394"><name>Mine - Lucky Boy Disc. Cut and…</name><desc>1 source record(s) merged within 75m | src: MILO</desc><extensions><onx:icon>Location</onx:icon><onx:color>rgba(0, 0, 0, 1)</onx:color></extensions></wpt><wpt lat="44.209874" lon="-122.345004"><name>Mine - Lucky Queen Claim Cut an…</name><desc>1 source record(s) merged within 75m | src: MILO</desc><extensions><onx:icon>Location</onx:icon><onx:color>rgba(0, 0, 0, 1)</onx:color></extensions></wpt><wpt lat="44.207611" lon="-122.347912"><name>Mine - S.P. Claim Tunnel and Cu…</name><desc>1 source record(s) merged within 75m | src: MILO</desc><extensions><onx:icon>Location</onx:icon><onx:color>rgba(0, 0, 0, 1)</onx:color></extensions></wpt><wpt lat="44.207900" lon="-122.346986"><name>Mine - S.P. Claim Shaft No.5</name><desc>1 source record(s) merged within 75m | src: MILO</desc><extensions><onx:icon>Location</onx:icon><onx:color>rgba(0, 0, 0, 1)</onx:color></extensions></wpt><wpt lat="44.209476" lon="-122.349583"><name>Mine - Lucky Queen Claim Tunnel…</name><desc>1 source record(s) merged within 75m | src: MILO</desc><extensions><onx:icon>Location</onx:icon><onx:color>rgba(0, 0, 0, 1)</onx:color></extensions></wpt><wpt lat="44.210179" lon="-122.346073"><name>Mine - Lucky Queen Claim Tunnel…</name><desc>1 source record(s) merged within 75m | src: MILO</desc><extensions><onx:icon>Location</onx:icon><onx:color>rgba(0, 0, 0, 1)</onx:color></extensions></wpt><wpt lat="44.213751" lon="-122.347186"><name>Mine - Louise Claim Disc. Cut</name><desc>1 source record(s) merged within 75m | src: MILO</desc><extensions><onx:icon>Location</onx:icon><onx:color>rgba(0, 0, 0, 1)</onx:color></extensions></wpt><wpt lat="44.216493" lon="-122.349895"><name>Mine - Louise Claim Tunnel</name><desc>1 source record(s) merged within 75m | src: MILO</desc><extensions><onx:icon>Location</onx:icon><onx:color>rgba(0, 0, 0, 1)</onx:color></extensions></wpt><wpt lat="44.213545" lon="-122.349589"><name>Mine - Gold Dollar Claim Disc.…</name><desc>1 source record(s) merged within 75m | src: MILO</desc><extensions><onx:icon>Location</onx:icon><onx:color>rgba(0, 0, 0, 1)</onx:color></extensions></wpt><wpt lat="44.220425" lon="-122.368352"><name>Mine - Golconda Claim Tunnel</name><desc>1 source record(s) merged within 75m | src: MILO</desc><extensions><onx:icon>Location</onx:icon><onx:color>rgba(0, 0, 0, 1)</onx:color></extensions></wpt><wpt lat="44.220541" lon="-122.369440"><name>Mine - Golconda Claim Tunnel</name><desc>1 source record(s) merged within 75m | src: MILO</desc><extensions><onx:icon>Location</onx:icon><onx:color>rgba(0, 0, 0, 1)</onx:color></extensions></wpt><wpt lat="44.216737" lon="-122.362899"><name>Mine - The Helena Claim Disc. C…</name><desc>1 source record(s) merged within 75m | src: MILO</desc><extensions><onx:icon>Location</onx:icon><onx:color>rgba(0, 0, 0, 1)</onx:color></extensions></wpt><wpt lat="44.215783" lon="-122.365911"><name>Mine - Red Boy Claim Cut</name><desc>1 source record(s) merged within 75m | src: MILO</desc><extensions><onx:icon>Location</onx:icon><onx:color>rgba(0, 0, 0, 1)</onx:color></extensions></wpt><wpt lat="44.214162" lon="-122.362337"><name>Mine - Eavning Claim Cut No.4</name><desc>1 source record(s) merged within 75m | src: MILO</desc><extensions><onx:icon>Location</onx:icon><onx:color>rgba(0, 0, 0, 1)</onx:color></extensions></wpt><wpt lat="44.206231" lon="-122.353436"><name>Mine - Oro Fino Claim Disc. Cut</name><desc>1 source record(s) merged within 75m | src: MILO</desc><extensions><onx:icon>Location</onx:icon><onx:color>rgba(0, 0, 0, 1)</onx:color></extensions></wpt><wpt lat="44.207488" lon="-122.353052"><name>Mine - Oro Fino Claim Cross Cut…</name><desc>1 source record(s) merged within 75m | src: MILO</desc><extensions><onx:icon>Location</onx:icon><onx:color>rgba(0, 0, 0, 1)</onx:color></extensions></wpt><wpt lat="44.207952" lon="-122.354331"><name>Mine - Oro Fino Claim Tunnel</name><desc>1 source record(s) merged within 75m | src: MILO</desc><extensions><onx:icon>Location</onx:icon><onx:color>rgba(0, 0, 0, 1)</onx:color></extensions></wpt><wpt lat="44.210922" lon="-122.355143"><name>Mine - Lone Star Claim Cut</name><desc>1 source record(s) merged within 75m | src: MILO</desc><extensions><onx:icon>Location</onx:icon><onx:color>rgba(0, 0, 0, 1)</onx:color></extensions></wpt><wpt lat="44.209131" lon="-122.354333"><name>Mine - Havilla Claim Disc. Cut…</name><desc>1 source record(s) merged within 75m | src: MILO</desc><extensions><onx:icon>Location</onx:icon><onx:color>rgba(0, 0, 0, 1)</onx:color></extensions></wpt><wpt lat="44.210104" lon="-122.354318"><name>Mine - Havilla Claim Tunnel Lev…</name><desc>1 source record(s) merged within 75m | src: MILO</desc><extensions><onx:icon>Location</onx:icon><onx:color>rgba(0, 0, 0, 1)</onx:color></extensions></wpt><wpt lat="44.213804" lon="-122.351546"><name>Mine - Yankee Girl Tunnel No.6</name><desc>1 source record(s) merged within 75m | src: MILO</desc><extensions><onx:icon>Location</onx:icon><onx:color>rgba(0, 0, 0, 1)</onx:color></extensions></wpt><wpt lat="44.215940" lon="-122.352055"><name>Mine - Yankee Girl Tunnel No.5</name><desc>1 source record(s) merged within 75m | src: MILO</desc><extensions><onx:icon>Location</onx:icon><onx:color>rgba(0, 0, 0, 1)</onx:color></extensions></wpt><wpt lat="44.220931" lon="-122.353797"><name>Mine - Grubstake Claim Disc. Cu…</name><desc>1 source record(s) merged within 75m | src: MILO</desc><extensions><onx:icon>Location</onx:icon><onx:color>rgba(0, 0, 0, 1)</onx:color></extensions></wpt><wpt lat="44.217488" lon="-122.354174"><name>Mine - Dewey Claim Disc. Cut an…</name><desc>1 source record(s) merged within 75m | src: MILO</desc><extensions><onx:icon>Location</onx:icon><onx:color>rgba(0, 0, 0, 1)</onx:color></extensions></wpt><wpt lat="44.222349" lon="-122.359793"><name>Mine - Huckleberry Claim Cut No…</name><desc>1 source record(s) merged within 75m | src: MILO</desc><extensions><onx:icon>Location</onx:icon><onx:color>rgba(0, 0, 0, 1)</onx:color></extensions></wpt><wpt lat="44.220005" lon="-122.358171"><name>Mine - Huckleberry Claim Shaft…</name><desc>1 source record(s) merged within 75m | src: MILO</desc><extensions><onx:icon>Location</onx:icon><onx:color>rgba(0, 0, 0, 1)</onx:color></extensions></wpt><wpt lat="44.221339" lon="-122.358417"><name>Mine - Huckleberry Claim Tunnel…</name><desc>1 source record(s) merged within 75m | src: MILO</desc><extensions><onx:icon>Location</onx:icon><onx:color>rgba(0, 0, 0, 1)</onx:color></extensions></wpt><wpt lat="44.216488" lon="-122.357884"><name>Mine - The Badger Claim Tunnel…</name><desc>1 source record(s) merged within 75m | src: MILO</desc><extensions><onx:icon>Location</onx:icon><onx:color>rgba(0, 0, 0, 1)</onx:color></extensions></wpt><wpt lat="44.217899" lon="-122.362022"><name>Mine - Yamhill Claim</name><desc>1 source record(s) merged within 75m | src: MILO</desc><extensions><onx:icon>Location</onx:icon><onx:color>rgba(0, 0, 0, 1)</onx:color></extensions></wpt><wpt lat="44.218615" lon="-122.361945"><name>Mine - Yamhill Claim</name><desc>1 source record(s) merged within 75m | src: MILO</desc><extensions><onx:icon>Location</onx:icon><onx:color>rgba(0, 0, 0, 1)</onx:color></extensions></wpt><wpt lat="44.219562" lon="-122.360709"><name>Mine - Southern Pacific Claim</name><desc>1 source record(s) merged within 75m | src: MILO</desc><extensions><onx:icon>Location</onx:icon><onx:color>rgba(0, 0, 0, 1)</onx:color></extensions></wpt><wpt lat="44.229296" lon="-122.330164"><name>Mine - Chief Claim, Cut and Sha…</name><desc>1 source record(s) merged within 75m | src: MILO</desc><extensions><onx:icon>Location</onx:icon><onx:color>rgba(0, 0, 0, 1)</onx:color></extensions></wpt><wpt lat="44.226501" lon="-122.329082"><name>Mine - Chief Claim, Cut</name><desc>1 source record(s) merged within 75m | src: MILO</desc><extensions><onx:icon>Location</onx:icon><onx:color>rgba(0, 0, 0, 1)</onx:color></extensions></wpt><wpt lat="44.233097" lon="-122.332678"><name>Mine - Cinderella Cut</name><desc>1 source record(s) merged within 75m | src: MILO</desc><extensions><onx:icon>Location</onx:icon><onx:color>rgba(0, 0, 0, 1)</onx:color></extensions></wpt><wpt lat="44.230549" lon="-122.329965"><name>Mine - Cinderella Cut</name><desc>1 source record(s) merged within 75m | src: MILO</desc><extensions><onx:icon>Location</onx:icon><onx:color>rgba(0, 0, 0, 1)</onx:color></extensions></wpt><wpt lat="44.223527" lon="-122.356851"><name>Mine - unnamed or NA</name><desc>1 source record(s) merged within 75m | src: MILO</desc><extensions><onx:icon>Location</onx:icon><onx:color>rgba(0, 0, 0, 1)</onx:color></extensions></wpt><wpt lat="44.225037" lon="-122.358464"><name>Mine - unnamed or NA</name><desc>1 source record(s) merged within 75m | src: MILO</desc><extensions><onx:icon>Location</onx:icon><onx:color>rgba(0, 0, 0, 1)</onx:color></extensions></wpt><wpt lat="44.223719" lon="-122.358223"><name>Mine - unnamed or NA</name><desc>1 source record(s) merged within 75m | src: MILO</desc><extensions><onx:icon>Location</onx:icon><onx:color>rgba(0, 0, 0, 1)</onx:color></extensions></wpt><wpt lat="44.225238" lon="-122.336236"><name>Mine - Rialto</name><desc>1 source record(s) merged within 75m | src: MILO</desc><extensions><onx:icon>Location</onx:icon><onx:color>rgba(0, 0, 0, 1)</onx:color></extensions></wpt><wpt lat="44.203345" lon="-122.342908"><name>Mine - unnamed or NA</name><desc>1 source record(s) merged within 75m | src: MILO</desc><extensions><onx:icon>Location</onx:icon><onx:color>rgba(0, 0, 0, 1)</onx:color></extensions></wpt><wpt lat="44.208549" lon="-122.380994"><name>Mine - Reaf Claim, Cut</name><desc>1 source record(s) merged within 75m | src: MILO</desc><extensions><onx:icon>Location</onx:icon><onx:color>rgba(0, 0, 0, 1)</onx:color></extensions></wpt><wpt lat="44.209629" lon="-122.373814"><name>Mine - unnamed or NA</name><desc>1 source record(s) merged within 75m | src: MILO</desc><extensions><onx:icon>Location</onx:icon><onx:color>rgba(0, 0, 0, 1)</onx:color></extensions></wpt><wpt lat="44.208955" lon="-122.371477"><name>Mine - Lucky Dog Strike Claim</name><desc>1 source record(s) merged within 75m | src: MILO</desc><extensions><onx:icon>Location</onx:icon><onx:color>rgba(0, 0, 0, 1)</onx:color></extensions></wpt><wpt lat="44.210552" lon="-122.368034"><name>Mine - unnamed or NA</name><desc>1 source record(s) merged within 75m | src: MILO</desc><extensions><onx:icon>Location</onx:icon><onx:color>rgba(0, 0, 0, 1)</onx:color></extensions></wpt><wpt lat="44.208812" lon="-122.367074"><name>Mine - Lucky Dog Strike Claim</name><desc>1 source record(s) merged within 75m | src: MILO</desc><extensions><onx:icon>Location</onx:icon><onx:color>rgba(0, 0, 0, 1)</onx:color></extensions></wpt><wpt lat="44.208516" lon="-122.368051"><name>Mine - Lucky Dog Strike Claim</name><desc>1 source record(s) merged within 75m | src: MILO</desc><extensions><onx:icon>Location</onx:icon><onx:color>rgba(0, 0, 0, 1)</onx:color></extensions></wpt><wpt lat="44.210899" lon="-122.360937"><name>Mine - unnamed or NA</name><desc>1 source record(s) merged within 75m | src: MILO</desc><extensions><onx:icon>Location</onx:icon><onx:color>rgba(0, 0, 0, 1)</onx:color></extensions></wpt><wpt lat="44.220494" lon="-122.366180"><name>Mine - unnamed or NA</name><desc>1 source record(s) merged within 75m | src: MILO</desc><extensions><onx:icon>Location</onx:icon><onx:color>rgba(0, 0, 0, 1)</onx:color></extensions></wpt><wpt lat="44.233232" lon="-122.330953"><name>Mine - Cinderella Cut</name><desc>1 source record(s) merged within 75m | src: MILO</desc><extensions><onx:icon>Location</onx:icon><onx:color>rgba(0, 0, 0, 1)</onx:color></extensions></wpt><wpt lat="44.221699" lon="-122.367901"><name>Mine - unnamed or NA</name><desc>1 source record(s) merged within 75m | src: MILO</desc><extensions><onx:icon>Location</onx:icon><onx:color>rgba(0, 0, 0, 1)</onx:color></extensions></wpt><wpt lat="44.206001" lon="-122.365124"><name>Mine - Lucky Dog Strike Claim</name><desc>1 source record(s) merged within 75m | src: MILO</desc><extensions><onx:icon>Location</onx:icon><onx:color>rgba(0, 0, 0, 1)</onx:color></extensions></wpt><wpt lat="44.222544" lon="-122.369120"><name>Mine - unnamed or NA</name><desc>1 source record(s) merged within 75m | src: MILO</desc><extensions><onx:icon>Location</onx:icon><onx:color>rgba(0, 0, 0, 1)</onx:color></extensions></wpt><wpt lat="44.207364" lon="-122.350700"><name>Mine - unnamed or NA</name><desc>1 source record(s) merged within 75m | src: MILO</desc><extensions><onx:icon>Location</onx:icon><onx:color>rgba(0, 0, 0, 1)</onx:color></extensions></wpt><wpt lat="44.217020" lon="-122.352807"><name>Mine - unnamed or NA</name><desc>1 source record(s) merged within 75m | src: MILO</desc><extensions><onx:icon>Location</onx:icon><onx:color>rgba(0, 0, 0, 1)</onx:color></extensions></wpt></gpx>