<?xml version="1.0" encoding="UTF-8"?>
<gpx xmlns:xsi="http://www.w3.org/2001/XMLSchema-instance" xmlns="http://www.topografix.com/GPX/1/1" xmlns:onx="http://www.onxmaps.com" xsi:schemaLocation="http://www.topografix.com/GPX/1/1 http://www.topografix.com/GPX/1/1/gpx.xsd" version="1.1" creator="onXmaps hunt ios"><wpt lat="44.230275" lon="-122.332014"><name>SCOUT 1 - Placer bench</name><desc>open pit mine (placer (heuristic: surface workings)) | agency: USFS | 90m to stream | cluster: 8 nearby | src: MILO</desc><extensions><onx:icon>Location</onx:icon><onx:color>rgba(255, 51, 0, 1)</onx:color></extensions></wpt><wpt lat="44.226261" lon="-122.338450"><name>SCOUT 2 - Lode/unknown outcrop</name><desc>USMIN Adit | agency: USFS | 79m to stream | cluster: 7 nearby | src: USMIN</desc><extensions><onx:icon>Location</onx:icon><onx:color>rgba(255, 51, 0, 1)</onx:color></extensions></wpt><wpt lat="44.224547" lon="-122.353866"><name>SCOUT 3 - Lode/unknown outcrop</name><desc>USMIN Adit | agency: USFS | 63m to stream | cluster: 6 nearby | src: USMIN</desc><extensions><onx:icon>Location</onx:icon><onx:color>rgba(255, 51, 0, 1)</onx:color></extensions></wpt><wpt lat="44.205812" lon="-122.372081"><name>SCOUT 4 - Lode/unknown outcrop</name><desc>USMIN Adit | agency: USFS | 20m to stream | cluster: 5 nearby | src: USMIN</desc><extensions><onx:icon>Location</onx:icon><onx:color>rgba(255, 51, 0, 1)</onx:color></extensions></wpt><wpt lat="44.228850" lon="-122.345638"><name>SCOUT 5 - Lode/unknown outcrop</name><desc>unnamed or NA (lode) | agency: USFS | 105m to stream | cluster: 9 nearby | src: MILO</desc><extensions><onx:icon>Location</onx:icon><onx:color>rgba(255, 51, 0, 1)</onx:color></extensions></wpt><wpt lat="44.227462" lon="-122.344444"><name>SCOUT 6 - Lode/unknown outcrop</name><desc>unnamed or NA (lode) | agency: USFS | 23m to stream | cluster: 8 nearby | src: MILO</desc><extensions><onx:icon>Location</onx:icon><onx:color>rgba(255, 51, 0, 1)</onx:color></extensions></wpt><wpt lat="44.229296" lon="-122.330164"><name>SCOUT 7 - Lode/unknown outcrop</name><desc>Chief Claim, Cut and Shaft (lode) | agency: USFS | 89m to stream | cluster: 8 nearby | src: MILO</desc><extensions><onx:icon>Location</onx:icon><onx:color>rgba(255, 51, 0, 1)</onx:color></extensions></wpt><wpt lat="44.226160" lon="-122.342753"><name>SCOUT 8 - Lode/unknown outcrop</name><desc>unnamed or NA (lode) | agency: USFS | 127m to stream | cluster: 8 nearby | src: MILO</desc><extensions><onx:icon>Location</onx:icon><onx:color>rgba(255, 51, 0, 1)</onx:color></extensions></wpt><wpt lat="44.206961" lon="-122.379336"><name>SCOUT 9 - Lode/unknown outcrop</name><desc>unnamed or NA (lode) | agency: USFS | 12m to stream | cluster: 7 nearby | src: MILO</desc><extensions><onx:icon>Location</onx:icon><onx:color>rgba(255, 51, 0, 1)</onx:color></extensions></wpt></gpx>