<?xml version="1.0" encoding="UTF-8"?><kml xmlns="http://www.opengis.net/kml/2.2"><Document><name>calapooia Historical sites</name><Style id="s0"><IconStyle><color>ff000000</color><scale>1.0</scale><Icon><href>http://maps.google.com/mapfiles/kml/shapes/placemark_circle.png</href></Icon></IconStyle></Style><Folder><name>Historical sites</name><Placemark><name>Placer - open pit mine</name><description>2 source record(s) merged within 75m | src: MILO, USMIN</description><styleUrl>#s0</styleUrl><Point><coordinates>-122.332007,44.230272,0</coordinates></Point></Placemark><Placemark><name>Adit - Blue River</name><description>6 source record(s) merged within 75m | src: MILO, USMIN</description><styleUrl>#s0</styleUrl><Point><coordinates>-122.354253,44.224762,0</coordinates></Point></Placemark><Placemark><name>Adit - Blue River</name><description>6 source record(s) merged within 75m | src: MILO, USMIN</description><styleUrl>#s0</styleUrl><Point><coordinates>-122.343431,44.211755,0</coordinates></Point></Placemark><Placemark><name>Adit - Blue River</name><description>6 source record(s) merged within 75m | src: MILO, USMIN</description><styleUrl>#s0</styleUrl><Point><coordinates>-122.372081,44.205695,0</coordinates></Point></Placemark><Placemark><name>Adit - Blue River</name><description>4 source record(s) merged within 75m | src: MILO, USMIN</description><styleUrl>#s0</styleUrl><Point><coordinates>-122.342418,44.210719,0</coordinates></Point></Placemark><Placemark><name>Adit - Blue River</name><description>4 source record(s) merged within 75m | src: MILO, USMIN</description><styleUrl>#s0</styleUrl><Point><coordinates>-122.342738,44.208036,0</coordinates></Point></Placemark><Placemark><name>Adit - Blue River</name><description>3 source record(s) merged within 75m | src: MILO, USMIN</description><styleUrl>#s0</styleUrl><Point><coordinates>-122.341977,44.233315,0</coordinates></Point></Placemark><Placemark><name>Adit - Blue River</name><description>2 source record(s) merged within 75m | src: MILO, USMIN</description><styleUrl>#s0</styleUrl><Point><coordinates>-122.338480,44.226293,0</coordinates></Point></Placemark><Placemark><name>Adit - Blue River</name><description>2 source record(s) merged within 75m | src: MILO, USMIN</description><styleUrl>#s0</styleUrl><Point><coordinates>-122.332231,44.231230,0</coordinates></Point></Placemark><Placemark><name>Adit - Blue River</name><description>2 source record(s) merged within 75m | src: MILO, USMIN</description><styleUrl>#s0</styleUrl><Point><coordinates>-122.328485,44.222182,0</coordinates></Point></Placemark><Placemark><name>Adit - Blue River</name><description>2 source record(s) merged within 75m | src: MILO, USMIN</description><styleUrl>#s0</styleUrl><Point><coordinates>-122.330302,44.222666,0</coordinates></Point></Placemark><Placemark><name>Mine - Poorman Claim Cut</name><description>5 source record(s) merged within 75m | src: MILO</description><styleUrl>#s0</styleUrl><Point><coordinates>-122.365657,44.217239,0</coordinates></Point></Placemark><Placemark><name>Pit - Blue River</name><description>4 source record(s) merged within 75m | src: MILO, USMIN</description><styleUrl>#s0</styleUrl><Point><coordinates>-122.335552,44.224155,0</coordinates></Point></Placemark><Placemark><name>Mine - Cinderella Disc. Shaft</name><description>4 source record(s) merged within 75m | src: MILO</description><styleUrl>#s0</styleUrl><Point><coordinates>-122.331473,44.231143,0</coordinates></Point></Placemark><Placemark><name>Mine - Discovery Shaft No.1 (Crede No.2 claim)</name><description>4 source record(s) merged within 75m | src: MILO</description><styleUrl>#s0</styleUrl><Point><coordinates>-122.357764,44.214228,0</coordinates></Point></Placemark><Placemark><name>Mine - Leonard Claim Cut 4</name><description>4 source record(s) merged within 75m | src: MILO</description><styleUrl>#s0</styleUrl><Point><coordinates>-122.358111,44.205287,0</coordinates></Point></Placemark><Placemark><name>Mine - Durango Claim Disc. Cut and Tunnel No.1</name><description>4 source record(s) merged within 75m | src: MILO</description><styleUrl>#s0</styleUrl><Point><coordinates>-122.361984,44.209306,0</coordinates></Point></Placemark><Placemark><name>Mine - Louise Claim Tunnel No.1</name><description>4 source record(s) merged within 75m | src: MILO</description><styleUrl>#s0</styleUrl><Point><coordinates>-122.350097,44.215225,0</coordinates></Point></Placemark><Placemark><name>Mine - Lone Star Claim Disc Shaft</name><description>4 source record(s) merged within 75m | src: MILO</description><styleUrl>#s0</styleUrl><Point><coordinates>-122.355756,44.212207,0</coordinates></Point></Placemark><Placemark><name>Mine - Idaho Claim Cut No.1</name><description>4 source record(s) merged within 75m | src: MILO</description><styleUrl>#s0</styleUrl><Point><coordinates>-122.351893,44.218391,0</coordinates></Point></Placemark><Placemark><name>Mine - Idaho Claim Tunnel No.7</name><description>4 source record(s) merged within 75m | src: MILO</description><styleUrl>#s0</styleUrl><Point><coordinates>-122.353624,44.219530,0</coordinates></Point></Placemark><Placemark><name>Mine - The Badger Claim Shaft</name><description>4 source record(s) merged within 75m | src: MILO</description><styleUrl>#s0</styleUrl><Point><coordinates>-122.357545,44.215409,0</coordinates></Point></Placemark><Placemark><name>Mine - Reaf Claim, Cut</name><description>4 source record(s) merged within 75m | src: MILO</description><styleUrl>#s0</styleUrl><Point><coordinates>-122.380203,44.207874,0</coordinates></Point></Placemark><Placemark><name>Mine - Amelia Claim (Open Cut No.5)</name><description>4 source record(s) merged within 75m | src: MILO</description><styleUrl>#s0</styleUrl><Point><coordinates>-122.358870,44.215608,0</coordinates></Point></Placemark><Placemark><name>Pit - Blue River</name><description>3 source record(s) merged within 75m | src: MILO, USMIN</description><styleUrl>#s0</styleUrl><Point><coordinates>-122.360369,44.213119,0</coordinates></Point></Placemark><Placemark><name>Mine - Great Eastern, Disc. Cut and Tunnel</name><description>3 source record(s) merged within 75m | src: MILO</description><styleUrl>#s0</styleUrl><Point><coordinates>-122.328435,44.236252,0</coordinates></Point></Placemark><Placemark><name>Mine - unnamed or NA</name><description>3 source record(s) merged within 75m | src: MILO</description><styleUrl>#s0</styleUrl><Point><coordinates>-122.345617,44.227482,0</coordinates></Point></Placemark><Placemark><name>Mine - S.P. Claim Tunnel and Cut No.4</name><description>3 source record(s) merged within 75m | src: MILO</description><styleUrl>#s0</styleUrl><Point><coordinates>-122.349137,44.208536,0</coordinates></Point></Placemark><Placemark><name>Mine - Sunset Claim Cut and Tunnel No.4</name><description>3 source record(s) merged within 75m | src: MILO</description><styleUrl>#s0</styleUrl><Point><coordinates>-122.354508,44.213825,0</coordinates></Point></Placemark><Placemark><name>Mine - Sun Claim Tunnel No.5</name><description>3 source record(s) merged within 75m | src: MILO</description><styleUrl>#s0</styleUrl><Point><coordinates>-122.353906,44.215772,0</coordinates></Point></Placemark><Placemark><name>Mine - Dewey Claim Tunnel No.3</name><description>3 source record(s) merged within 75m | src: MILO</description><styleUrl>#s0</styleUrl><Point><coordinates>-122.356690,44.219147,0</coordinates></Point></Placemark><Placemark><name>Mine - Geneva Claim Tunnel No.2</name><description>3 source record(s) merged within 75m | src: MILO</description><styleUrl>#s0</styleUrl><Point><coordinates>-122.354450,44.219747,0</coordinates></Point></Placemark><Placemark><name>Mine - The Badger Claim Tunnel No.1</name><description>3 source record(s) merged within 75m | src: MILO</description><styleUrl>#s0</styleUrl><Point><coordinates>-122.358524,44.217189,0</coordinates></Point></Placemark><Placemark><name>Mine - Chief Claim, Disc. Cut</name><description>3 source record(s) merged within 75m | src: MILO</description><styleUrl>#s0</styleUrl><Point><coordinates>-122.329534,44.227919,0</coordinates></Point></Placemark><Placemark><name>Mine - Open Cut No.6 (Crede No.2 Claim)</name><description>3 source record(s) merged within 75m | src: MILO</description><styleUrl>#s0</styleUrl><Point><coordinates>-122.358647,44.214633,0</coordinates></Point></Placemark><Placemark><name>Mine - Poorman</name><description>2 source record(s) merged within 75m | src: MILO</description><styleUrl>#s0</styleUrl><Point><coordinates>-122.365659,44.221218,0</coordinates></Point></Placemark><Placemark><name>Mine - unnamed or NA</name><description>2 source record(s) merged within 75m | src: MILO</description><styleUrl>#s0</styleUrl><Point><coordinates>-122.355823,44.224952,0</coordinates></Point></Placemark><Placemark><name>Mine - Treasure</name><description>2 source record(s) merged within 75m | src: MILO</description><styleUrl>#s0</styleUrl><Point><coordinates>-122.358770,44.211667,0</coordinates></Point></Placemark><Placemark><name>Mine - unnamed or NA</name><description>2 source record(s) merged within 75m | src: MILO</description><styleUrl>#s0</styleUrl><Point><coordinates>-122.345577,44.228824,0</coordinates></Point></Placemark><Placemark><name>Mine - Eavning Claim Disc Cut</name><description>2 source record(s) merged within 75m | src: MILO</description><styleUrl>#s0</styleUrl><Point><coordinates>-122.359283,44.212307,0</coordinates></Point></Placemark><Placemark><name>Mine - Boodle Claim Cut No.1</name><description>2 source record(s) merged within 75m | src: MILO</description><styleUrl>#s0</styleUrl><Point><coordinates>-122.343616,44.210176,0</coordinates></Point></Placemark><Placemark><name>Mine - Top Claim Shaft</name><description>2 source record(s) merged within 75m | src: MILO</description><styleUrl>#s0</styleUrl><Point><coordinates>-122.355896,44.204036,0</coordinates></Point></Placemark><Placemark><name>Mine - Shovel Blade Claim Disc. Cut and Tunnel No.4</name><description>2 source record(s) merged within 75m | src: MILO</description><styleUrl>#s0</styleUrl><Point><coordinates>-122.352366,44.210369,0</coordinates></Point></Placemark><Placemark><name>Mine - Shovel Blade Claim Disc. Cut and Tunnel No.1</name><description>2 source record(s) merged within 75m | src: MILO</description><styleUrl>#s0</styleUrl><Point><coordinates>-122.353540,44.210966,0</coordinates></Point></Placemark><Placemark><name>Mine - Havilla Claim Cut</name><description>2 source record(s) merged within 75m | src: MILO</description><styleUrl>#s0</styleUrl><Point><coordinates>-122.355318,44.209129,0</coordinates></Point></Placemark><Placemark><name>Mine - Sunset Claim Tunnel No.2</name><description>2 source record(s) merged within 75m | src: MILO</description><styleUrl>#s0</styleUrl><Point><coordinates>-122.353167,44.213397,0</coordinates></Point></Placemark><Placemark><name>Mine - Yankee Girl Tunnel No.3</name><description>2 source record(s) merged within 75m | src: MILO</description><styleUrl>#s0</styleUrl><Point><coordinates>-122.351325,44.212878,0</coordinates></Point></Placemark><Placemark><name>Mine - Yankee Girl Disc. Cut No.1</name><description>2 source record(s) merged within 75m | src: MILO</description><styleUrl>#s0</styleUrl><Point><coordinates>-122.352249,44.214692,0</coordinates></Point></Placemark><Placemark><name>Mine - Sun Claim Tunnel No.5</name><description>2 source record(s) merged within 75m | src: MILO</description><styleUrl>#s0</styleUrl><Point><coordinates>-122.355192,44.217532,0</coordinates></Point></Placemark><Placemark><name>Mine - Sun Claim Cut No.5</name><description>2 source record(s) merged within 75m | src: MILO</description><styleUrl>#s0</styleUrl><Point><coordinates>-122.355469,44.216325,0</coordinates></Point></Placemark><Placemark><name>Mine - unnamed or NA</name><description>2 source record(s) merged within 75m | src: MILO</description><styleUrl>#s0</styleUrl><Point><coordinates>-122.359143,44.226372,0</coordinates></Point></Placemark><Placemark><name>Mine - unnamed or NA</name><description>2 source record(s) merged within 75m | src: MILO</description><styleUrl>#s0</styleUrl><Point><coordinates>-122.358186,44.228638,0</coordinates></Point></Placemark><Placemark><name>Mine - unnamed or NA</name><description>2 source record(s) merged within 75m | src: MILO</description><styleUrl>#s0</styleUrl><Point><coordinates>-122.342475,44.202342,0</coordinates></Point></Placemark><Placemark><name>Mine - unnamed or NA</name><description>2 source record(s) merged within 75m | src: MILO</description><styleUrl>#s0</styleUrl><Point><coordinates>-122.366960,44.203888,0</coordinates></Point></Placemark><Placemark><name>Mine - Lucky Dog Strike Claim</name><description>2 source record(s) merged within 75m | src: MILO</description><styleUrl>#s0</styleUrl><Point><coordinates>-122.365962,44.209288,0</coordinates></Point></Placemark><Placemark><name>Mine - Lucky Dog Strike Claim</name><description>2 source record(s) merged within 75m | src: MILO</description><styleUrl>#s0</styleUrl><Point><coordinates>-122.366496,44.208113,0</coordinates></Point></Placemark><Placemark><name>Mine - unnamed or NA</name><description>2 source record(s) merged within 75m | src: MILO, MRDS</description><styleUrl>#s0</styleUrl><Point><coordinates>-122.333991,44.238242,0</coordinates></Point></Placemark><Placemark><name>Mine - unnamed or NA</name><description>2 source record(s) merged within 75m | src: MILO</description><styleUrl>#s0</styleUrl><Point><coordinates>-122.343572,44.241085,0</coordinates></Point></Placemark><Placemark><name>Mine - unnamed or NA</name><description>2 source record(s) merged within 75m | src: MILO</description><styleUrl>#s0</styleUrl><Point><coordinates>-122.374671,44.222372,0</coordinates></Point></Placemark><Placemark><name>Mine - unnamed or NA</name><description>2 source record(s) merged within 75m | src: MILO</description><styleUrl>#s0</styleUrl><Point><coordinates>-122.379455,44.212663,0</coordinates></Point></Placemark><Placemark><name>Mine - unnamed or NA</name><description>2 source record(s) merged within 75m | src: MILO</description><styleUrl>#s0</styleUrl><Point><coordinates>-122.377379,44.206432,0</coordinates></Point></Placemark><Placemark><name>Mine - unnamed or NA</name><description>2 source record(s) merged within 75m | src: MILO</description><styleUrl>#s0</styleUrl><Point><coordinates>-122.379158,44.207091,0</coordinates></Point></Placemark><Placemark><name>Mine - unnamed or NA</name><description>2 source record(s) merged within 75m | src: MILO</description><styleUrl>#s0</styleUrl><Point><coordinates>-122.351905,44.202589,0</coordinates></Point></Placemark><Placemark><name>Mine - unnamed or NA</name><description>2 source record(s) merged within 75m | src: MILO</description><styleUrl>#s0</styleUrl><Point><coordinates>-122.344040,44.213794,0</coordinates></Point></Placemark><Placemark><name>Mine - unnamed or NA</name><description>2 source record(s) merged within 75m | src: MILO</description><styleUrl>#s0</styleUrl><Point><coordinates>-122.343459,44.212763,0</coordinates></Point></Placemark><Placemark><name>Mine - Infinity Mine and Phantom Ridge Lode Claim</name><description>2 source record(s) merged within 75m | src: MILO</description><styleUrl>#s0</styleUrl><Point><coordinates>-122.345735,44.217594,0</coordinates></Point></Placemark><Placemark><name>Mine - unnamed or NA</name><description>2 source record(s) merged within 75m | src: MILO</description><styleUrl>#s0</styleUrl><Point><coordinates>-122.336302,44.208140,0</coordinates></Point></Placemark><Placemark><name>Mine - unnamed or NA</name><description>2 source record(s) merged within 75m | src: MILO</description><styleUrl>#s0</styleUrl><Point><coordinates>-122.341330,44.181088,0</coordinates></Point></Placemark><Placemark><name>Mine - unnamed or NA</name><description>2 source record(s) merged within 75m | src: MILO</description><styleUrl>#s0</styleUrl><Point><coordinates>-122.339738,44.180885,0</coordinates></Point></Placemark><Placemark><name>Mine - unnamed or NA</name><description>2 source record(s) merged within 75m | src: MILO</description><styleUrl>#s0</styleUrl><Point><coordinates>-122.339025,44.181388,0</coordinates></Point></Placemark><Placemark><name>Mine - Pearl</name><description>2 source record(s) merged within 75m | src: MRDS</description><styleUrl>#s0</styleUrl><Point><coordinates>-122.378080,44.233035,0</coordinates></Point></Placemark><Placemark><name>Mine - Red Buck</name><description>2 source record(s) merged within 75m | src: MRDS</description><styleUrl>#s0</styleUrl><Point><coordinates>-122.359475,44.230635,0</coordinates></Point></Placemark><Placemark><name>Mine - Pearl</name><description>1 source record(s) merged within 75m | src: MILO</description><styleUrl>#s0</styleUrl><Point><coordinates>-122.390968,44.234345,0</coordinates></Point></Placemark><Placemark><name>Mine - Evening</name><description>1 source record(s) merged within 75m | src: MILO</description><styleUrl>#s0</styleUrl><Point><coordinates>-122.364259,44.216586,0</coordinates></Point></Placemark><Placemark><name>Mine - Red Buck</name><description>1 source record(s) merged within 75m | src: MILO</description><styleUrl>#s0</styleUrl><Point><coordinates>-122.359081,44.234053,0</coordinates></Point></Placemark><Placemark><name>Mine - Sochwich</name><description>1 source record(s) merged within 75m | src: MILO</description><styleUrl>#s0</styleUrl><Point><coordinates>-122.354238,44.228183,0</coordinates></Point></Placemark><Placemark><name>Mine - Higgins</name><description>1 source record(s) merged within 75m | src: MILO</description><styleUrl>#s0</styleUrl><Point><coordinates>-122.357004,44.236680,0</coordinates></Point></Placemark><Placemark><name>Mine - Everlasting Jack</name><description>1 source record(s) merged within 75m | src: MILO</description><styleUrl>#s0</styleUrl><Point><coordinates>-122.352722,44.237553,0</coordinates></Point></Placemark><Placemark><name>Mine - Great Northern (upper adit)</name><description>1 source record(s) merged within 75m | src: MILO</description><styleUrl>#s0</styleUrl><Point><coordinates>-122.343568,44.232782,0</coordinates></Point></Placemark><Placemark><name>Mine - Treadwell</name><description>1 source record(s) merged within 75m | src: MILO</description><styleUrl>#s0</styleUrl><Point><coordinates>-122.334987,44.237841,0</coordinates></Point></Placemark><Placemark><name>Mine - Durango</name><description>1 source record(s) merged within 75m | src: MILO</description><styleUrl>#s0</styleUrl><Point><coordinates>-122.366180,44.211328,0</coordinates></Point></Placemark><Placemark><name>Mine - Tate Property, Cut Shaft</name><description>1 source record(s) merged within 75m | src: MILO</description><styleUrl>#s0</styleUrl><Point><coordinates>-122.327749,44.230458,0</coordinates></Point></Placemark><Placemark><name>Mine - Gold Dollar Claim</name><description>1 source record(s) merged within 75m | src: MILO</description><styleUrl>#s0</styleUrl><Point><coordinates>-122.350944,44.214506,0</coordinates></Point></Placemark><Placemark><name>Mine - Lucky Girl</name><description>1 source record(s) merged within 75m | src: MILO</description><styleUrl>#s0</styleUrl><Point><coordinates>-122.334805,44.208466,0</coordinates></Point></Placemark><Placemark><name>Mine - Tri-Metals</name><description>1 source record(s) merged within 75m | src: MILO</description><styleUrl>#s0</styleUrl><Point><coordinates>-122.325373,44.198627,0</coordinates></Point></Placemark><Placemark><name>Mine - Great Western</name><description>1 source record(s) merged within 75m | src: MILO</description><styleUrl>#s0</styleUrl><Point><coordinates>-122.311787,44.188559,0</coordinates></Point></Placemark><Placemark><name>Mine - Jry Group</name><description>1 source record(s) merged within 75m | src: MILO</description><styleUrl>#s0</styleUrl><Point><coordinates>-122.303480,44.184045,0</coordinates></Point></Placemark><Placemark><name>Mine - Great Northern (lower adit)</name><description>1 source record(s) merged within 75m | src: MILO</description><styleUrl>#s0</styleUrl><Point><coordinates>-122.344052,44.233649,0</coordinates></Point></Placemark><Placemark><name>Mine - unnamed or NA</name><description>1 source record(s) merged within 75m | src: MILO</description><styleUrl>#s0</styleUrl><Point><coordinates>-122.348973,44.230848,0</coordinates></Point></Placemark><Placemark><name>Mine - unnamed or NA</name><description>1 source record(s) merged within 75m | src: MILO</description><styleUrl>#s0</styleUrl><Point><coordinates>-122.348404,44.230280,0</coordinates></Point></Placemark><Placemark><name>Mine - unnamed or NA</name><description>1 source record(s) merged within 75m | src: MILO</description><styleUrl>#s0</styleUrl><Point><coordinates>-122.343812,44.228032,0</coordinates></Point></Placemark><Placemark><name>Mine - unnamed or NA</name><description>1 source record(s) merged within 75m | src: MILO</description><styleUrl>#s0</styleUrl><Point><coordinates>-122.344444,44.227462,0</coordinates></Point></Placemark><Placemark><name>Mine - unnamed or NA</name><description>1 source record(s) merged within 75m | src: MILO</description><styleUrl>#s0</styleUrl><Point><coordinates>-122.342753,44.226160,0</coordinates></Point></Placemark><Placemark><name>Mine - Leonard Claim Cut 5</name><description>1 source record(s) merged within 75m | src: MILO</description><styleUrl>#s0</styleUrl><Point><coordinates>-122.358672,44.205913,0</coordinates></Point></Placemark><Placemark><name>Mine - Leonard Claim Discovery Cut</name><description>1 source record(s) merged within 75m | src: MILO</description><styleUrl>#s0</styleUrl><Point><coordinates>-122.360700,44.207633,0</coordinates></Point></Placemark><Placemark><name>Mine - Durango Claim Cut No.3</name><description>1 source record(s) merged within 75m | src: MILO</description><styleUrl>#s0</styleUrl><Point><coordinates>-122.362802,44.209800,0</coordinates></Point></Placemark><Placemark><name>Mine - Lucky Boy Disc. Cut and Tunnel No.1</name><description>1 source record(s) merged within 75m | src: MILO</description><styleUrl>#s0</styleUrl><Point><coordinates>-122.342394,44.211573,0</coordinates></Point></Placemark><Placemark><name>Mine - Lucky Queen Claim Cut and Tunnel No.?</name><description>1 source record(s) merged within 75m | src: MILO</description><styleUrl>#s0</styleUrl><Point><coordinates>-122.345004,44.209874,0</coordinates></Point></Placemark><Placemark><name>Mine - S.P. Claim Tunnel and Cut No.8</name><description>1 source record(s) merged within 75m | src: MILO</description><styleUrl>#s0</styleUrl><Point><coordinates>-122.347912,44.207611,0</coordinates></Point></Placemark><Placemark><name>Mine - S.P. Claim Shaft No.5</name><description>1 source record(s) merged within 75m | src: MILO</description><styleUrl>#s0</styleUrl><Point><coordinates>-122.346986,44.207900,0</coordinates></Point></Placemark><Placemark><name>Mine - Lucky Queen Claim Tunnel and Cut No.2</name><description>1 source record(s) merged within 75m | src: MILO</description><styleUrl>#s0</styleUrl><Point><coordinates>-122.349583,44.209476,0</coordinates></Point></Placemark><Placemark><name>Mine - Lucky Queen Claim Tunnel and Cut No.3</name><description>1 source record(s) merged within 75m | src: MILO</description><styleUrl>#s0</styleUrl><Point><coordinates>-122.346073,44.210179,0</coordinates></Point></Placemark><Placemark><name>Mine - Louise Claim Disc. Cut</name><description>1 source record(s) merged within 75m | src: MILO</description><styleUrl>#s0</styleUrl><Point><coordinates>-122.347186,44.213751,0</coordinates></Point></Placemark><Placemark><name>Mine - Louise Claim Tunnel</name><description>1 source record(s) merged within 75m | src: MILO</description><styleUrl>#s0</styleUrl><Point><coordinates>-122.349895,44.216493,0</coordinates></Point></Placemark><Placemark><name>Mine - Gold Dollar Claim Disc. Cut</name><description>1 source record(s) merged within 75m | src: MILO</description><styleUrl>#s0</styleUrl><Point><coordinates>-122.349589,44.213545,0</coordinates></Point></Placemark><Placemark><name>Mine - Golconda Claim Tunnel</name><description>1 source record(s) merged within 75m | src: MILO</description><styleUrl>#s0</styleUrl><Point><coordinates>-122.368352,44.220425,0</coordinates></Point></Placemark><Placemark><name>Mine - Golconda Claim Tunnel</name><description>1 source record(s) merged within 75m | src: MILO</description><styleUrl>#s0</styleUrl><Point><coordinates>-122.369440,44.220541,0</coordinates></Point></Placemark><Placemark><name>Mine - The Helena Claim Disc. Cut</name><description>1 source record(s) merged within 75m | src: MILO</description><styleUrl>#s0</styleUrl><Point><coordinates>-122.362899,44.216737,0</coordinates></Point></Placemark><Placemark><name>Mine - Red Boy Claim Cut</name><description>1 source record(s) merged within 75m | src: MILO</description><styleUrl>#s0</styleUrl><Point><coordinates>-122.365911,44.215783,0</coordinates></Point></Placemark><Placemark><name>Mine - Eavning Claim Cut No.4</name><description>1 source record(s) merged within 75m | src: MILO</description><styleUrl>#s0</styleUrl><Point><coordinates>-122.362337,44.214162,0</coordinates></Point></Placemark><Placemark><name>Mine - Oro Fino Claim Disc. Cut</name><description>1 source record(s) merged within 75m | src: MILO</description><styleUrl>#s0</styleUrl><Point><coordinates>-122.353436,44.206231,0</coordinates></Point></Placemark><Placemark><name>Mine - Oro Fino Claim Cross Cut and Tunnel</name><description>1 source record(s) merged within 75m | src: MILO</description><styleUrl>#s0</styleUrl><Point><coordinates>-122.353052,44.207488,0</coordinates></Point></Placemark><Placemark><name>Mine - Oro Fino Claim Tunnel</name><description>1 source record(s) merged within 75m | src: MILO</description><styleUrl>#s0</styleUrl><Point><coordinates>-122.354331,44.207952,0</coordinates></Point></Placemark><Placemark><name>Mine - Lone Star Claim Cut</name><description>1 source record(s) merged within 75m | src: MILO</description><styleUrl>#s0</styleUrl><Point><coordinates>-122.355143,44.210922,0</coordinates></Point></Placemark><Placemark><name>Mine - Havilla Claim Disc. Cut and Tunnel</name><description>1 source record(s) merged within 75m | src: MILO</description><styleUrl>#s0</styleUrl><Point><coordinates>-122.354333,44.209131,0</coordinates></Point></Placemark><Placemark><name>Mine - Havilla Claim Tunnel Level No.4</name><description>1 source record(s) merged within 75m | src: MILO</description><styleUrl>#s0</styleUrl><Point><coordinates>-122.354318,44.210104,0</coordinates></Point></Placemark><Placemark><name>Mine - Yankee Girl Tunnel No.6</name><description>1 source record(s) merged within 75m | src: MILO</description><styleUrl>#s0</styleUrl><Point><coordinates>-122.351546,44.213804,0</coordinates></Point></Placemark><Placemark><name>Mine - Yankee Girl Tunnel No.5</name><description>1 source record(s) merged within 75m | src: MILO</description><styleUrl>#s0</styleUrl><Point><coordinates>-122.352055,44.215940,0</coordinates></Point></Placemark><Placemark><name>Mine - Grubstake Claim Disc. Cut and Tunnel No.1</name><description>1 source record(s) merged within 75m | src: MILO</description><styleUrl>#s0</styleUrl><Point><coordinates>-122.353797,44.220931,0</coordinates></Point></Placemark><Placemark><name>Mine - Dewey Claim Disc. Cut and Tunnel No.1</name><description>1 source record(s) merged within 75m | src: MILO</description><styleUrl>#s0</styleUrl><Point><coordinates>-122.354174,44.217488,0</coordinates></Point></Placemark><Placemark><name>Mine - Huckleberry Claim Cut No.4</name><description>1 source record(s) merged within 75m | src: MILO</description><styleUrl>#s0</styleUrl><Point><coordinates>-122.359793,44.222349,0</coordinates></Point></Placemark><Placemark><name>Mine - Huckleberry Claim Shaft No.3</name><description>1 source record(s) merged within 75m | src: MILO</description><styleUrl>#s0</styleUrl><Point><coordinates>-122.358171,44.220005,0</coordinates></Point></Placemark><Placemark><name>Mine - Huckleberry Claim Tunnel No.2</name><description>1 source record(s) merged within 75m | src: MILO</description><styleUrl>#s0</styleUrl><Point><coordinates>-122.358417,44.221339,0</coordinates></Point></Placemark><Placemark><name>Mine - The Badger Claim Tunnel No.3</name><description>1 source record(s) merged within 75m | src: MILO</description><styleUrl>#s0</styleUrl><Point><coordinates>-122.357884,44.216488,0</coordinates></Point></Placemark><Placemark><name>Mine - Yamhill Claim</name><description>1 source record(s) merged within 75m | src: MILO</description><styleUrl>#s0</styleUrl><Point><coordinates>-122.362022,44.217899,0</coordinates></Point></Placemark><Placemark><name>Mine - Yamhill Claim</name><description>1 source record(s) merged within 75m | src: MILO</description><styleUrl>#s0</styleUrl><Point><coordinates>-122.361945,44.218615,0</coordinates></Point></Placemark><Placemark><name>Mine - Southern Pacific Claim</name><description>1 source record(s) merged within 75m | src: MILO</description><styleUrl>#s0</styleUrl><Point><coordinates>-122.360709,44.219562,0</coordinates></Point></Placemark><Placemark><name>Mine - Chief Claim, Cut and Shaft</name><description>1 source record(s) merged within 75m | src: MILO</description><styleUrl>#s0</styleUrl><Point><coordinates>-122.330164,44.229296,0</coordinates></Point></Placemark><Placemark><name>Mine - Chief Claim, Cut</name><description>1 source record(s) merged within 75m | src: MILO</description><styleUrl>#s0</styleUrl><Point><coordinates>-122.329082,44.226501,0</coordinates></Point></Placemark><Placemark><name>Mine - Cinderella Cut</name><description>1 source record(s) merged within 75m | src: MILO</description><styleUrl>#s0</styleUrl><Point><coordinates>-122.332678,44.233097,0</coordinates></Point></Placemark><Placemark><name>Mine - Cinderella Cut</name><description>1 source record(s) merged within 75m | src: MILO</description><styleUrl>#s0</styleUrl><Point><coordinates>-122.329965,44.230549,0</coordinates></Point></Placemark><Placemark><name>Mine - unnamed or NA</name><description>1 source record(s) merged within 75m | src: MILO</description><styleUrl>#s0</styleUrl><Point><coordinates>-122.356851,44.223527,0</coordinates></Point></Placemark><Placemark><name>Mine - unnamed or NA</name><description>1 source record(s) merged within 75m | src: MILO</description><styleUrl>#s0</styleUrl><Point><coordinates>-122.358464,44.225037,0</coordinates></Point></Placemark><Placemark><name>Mine - unnamed or NA</name><description>1 source record(s) merged within 75m | src: MILO</description><styleUrl>#s0</styleUrl><Point><coordinates>-122.358223,44.223719,0</coordinates></Point></Placemark><Placemark><name>Mine - Rialto</name><description>1 source record(s) merged within 75m | src: MILO</description><styleUrl>#s0</styleUrl><Point><coordinates>-122.336236,44.225238,0</coordinates></Point></Placemark><Placemark><name>Mine - unnamed or NA</name><description>1 source record(s) merged within 75m | src: MILO</description><styleUrl>#s0</styleUrl><Point><coordinates>-122.342908,44.203345,0</coordinates></Point></Placemark><Placemark><name>Mine - Reaf Claim, Cut</name><description>1 source record(s) merged within 75m | src: MILO</description><styleUrl>#s0</styleUrl><Point><coordinates>-122.380994,44.208549,0</coordinates></Point></Placemark><Placemark><name>Mine - unnamed or NA</name><description>1 source record(s) merged within 75m | src: MILO</description><styleUrl>#s0</styleUrl><Point><coordinates>-122.373814,44.209629,0</coordinates></Point></Placemark><Placemark><name>Mine - Lucky Dog Strike Claim</name><description>1 source record(s) merged within 75m | src: MILO</description><styleUrl>#s0</styleUrl><Point><coordinates>-122.371477,44.208955,0</coordinates></Point></Placemark><Placemark><name>Mine - unnamed or NA</name><description>1 source record(s) merged within 75m | src: MILO</description><styleUrl>#s0</styleUrl><Point><coordinates>-122.368034,44.210552,0</coordinates></Point></Placemark><Placemark><name>Mine - Lucky Dog Strike Claim</name><description>1 source record(s) merged within 75m | src: MILO</description><styleUrl>#s0</styleUrl><Point><coordinates>-122.367074,44.208812,0</coordinates></Point></Placemark><Placemark><name>Mine - Lucky Dog Strike Claim</name><description>1 source record(s) merged within 75m | src: MILO</description><styleUrl>#s0</styleUrl><Point><coordinates>-122.368051,44.208516,0</coordinates></Point></Placemark><Placemark><name>Mine - unnamed or NA</name><description>1 source record(s) merged within 75m | src: MILO</description><styleUrl>#s0</styleUrl><Point><coordinates>-122.360937,44.210899,0</coordinates></Point></Placemark><Placemark><name>Mine - unnamed or NA</name><description>1 source record(s) merged within 75m | src: MILO</description><styleUrl>#s0</styleUrl><Point><coordinates>-122.366180,44.220494,0</coordinates></Point></Placemark><Placemark><name>Mine - Cinderella Cut</name><description>1 source record(s) merged within 75m | src: MILO</description><styleUrl>#s0</styleUrl><Point><coordinates>-122.330953,44.233232,0</coordinates></Point></Placemark><Placemark><name>Mine - unnamed or NA</name><description>1 source record(s) merged within 75m | src: MILO</description><styleUrl>#s0</styleUrl><Point><coordinates>-122.367901,44.221699,0</coordinates></Point></Placemark><Placemark><name>Mine - Lucky Dog Strike Claim</name><description>1 source record(s) merged within 75m | src: MILO</description><styleUrl>#s0</styleUrl><Point><coordinates>-122.365124,44.206001,0</coordinates></Point></Placemark><Placemark><name>Mine - unnamed or NA</name><description>1 source record(s) merged within 75m | src: MILO</description><styleUrl>#s0</styleUrl><Point><coordinates>-122.369120,44.222544,0</coordinates></Point></Placemark><Placemark><name>Mine - unnamed or NA</name><description>1 source record(s) merged within 75m | src: MILO</description><styleUrl>#s0</styleUrl><Point><coordinates>-122.350700,44.207364,0</coordinates></Point></Placemark><Placemark><name>Mine - unnamed or NA</name><description>1 source record(s) merged within 75m | src: MILO</description><styleUrl>#s0</styleUrl><Point><coordinates>-122.352807,44.217020,0</coordinates></Point></Placemark></Folder></Document></kml>