<?xml version="1.0" encoding="UTF-8"?>
<gpx xmlns:xsi="http://www.w3.org/2001/XMLSchema-instance" xmlns="http://www.topografix.com/GPX/1/1" xmlns:onx="http://www.onxmaps.com" xsi:schemaLocation="http://www.topografix.com/GPX/1/1 http://www.topografix.com/GPX/1/1/gpx.xsd" version="1.1" creator="onXmaps hunt ios"><rte><name>LAST CHANCE</name><type>Area</type><extensions><onx:style>dot</onx:style><onx:weight>4.0</onx:weight><onx:color>rgba(255, 51, 0, 1)</onx:color></extensions><rtept lat="44.223806" lon="-122.318705"></rtept><rtept lat="44.223801" lon="-122.313621"></rtept><rtept lat="44.220182" lon="-122.313396"></rtept><rtept lat="44.216564" lon="-122.313170"></rtept><rtept lat="44.216573" lon="-122.318184"></rtept><rtept lat="44.216583" lon="-122.323197"></rtept><rtept lat="44.216582" lon="-122.328216"></rtept><rtept lat="44.216581" lon="-122.333236"></rtept><rtept lat="44.220191" lon="-122.333588"></rtept><rtept lat="44.223802" lon="-122.333941"></rtept><rtept lat="44.223807" lon="-122.328865"></rtept><rtept lat="44.227436" lon="-122.328904"></rtept><rtept lat="44.227446" lon="-122.323840"></rtept><rtept lat="44.223811" lon="-122.323788"></rtept><rtept lat="44.223806" lon="-122.318705"></rtept></rte><rte><name>ROWENA</name><type>Area</type><extensions><onx:style>dot</onx:style><onx:weight>4.0</onx:weight><onx:color>rgba(255, 51, 0, 1)</onx:color></extensions><rtept lat="44.220197" lon="-122.323493"></rtept><rtept lat="44.223811" lon="-122.323788"></rtept><rtept lat="44.223807" lon="-122.328865"></rtept><rtept lat="44.227436" lon="-122.328904"></rtept><rtept lat="44.227446" lon="-122.323840"></rtept><rtept lat="44.231080" lon="-122.323891"></rtept><rtept lat="44.231071" lon="-122.318819"></rtept><rtept lat="44.231061" lon="-122.313747"></rtept><rtept lat="44.227431" lon="-122.313684"></rtept><rtept lat="44.223801" lon="-122.313621"></rtept><rtept lat="44.220182" lon="-122.313396"></rtept><rtept lat="44.216564" lon="-122.313170"></rtept><rtept lat="44.216573" lon="-122.318184"></rtept><rtept lat="44.216583" lon="-122.323197"></rtept><rtept lat="44.220197" lon="-122.323493"></rtept></rte><rte><name>ROWENA EXTENSION 1</name><type>Area</type><extensions><onx:style>dot</onx:style><onx:weight>4.0</onx:weight><onx:color>rgba(255, 51, 0, 1)</onx:color></extensions><rtept lat="44.220197" lon="-122.323493"></rtept><rtept lat="44.223811" lon="-122.323788"></rtept><rtept lat="44.223806" lon="-122.318705"></rtept><rtept lat="44.223801" lon="-122.313621"></rtept><rtept lat="44.220182" lon="-122.313396"></rtept><rtept lat="44.216564" lon="-122.313170"></rtept><rtept lat="44.216573" lon="-122.318184"></rtept><rtept lat="44.216583" lon="-122.323197"></rtept><rtept lat="44.220197" lon="-122.323493"></rtept></rte><rte><name>INFINITY MINE</name><type>Area</type><extensions><onx:style>dot</onx:style><onx:weight>4.0</onx:weight><onx:color>rgba(255, 51, 0, 1)</onx:color></extensions><rtept lat="44.216593" lon="-122.344002"></rtept><rtept lat="44.217883" lon="-122.354045"></rtept><rtept lat="44.223790" lon="-122.354098"></rtept><rtept lat="44.223795" lon="-122.344053"></rtept><rtept lat="44.216593" lon="-122.344002"></rtept></rte><rte><name>Mister Pocket</name><type>Area</type><extensions><onx:style>dot</onx:style><onx:weight>4.0</onx:weight><onx:color>rgba(255, 51, 0, 1)</onx:color></extensions><rtept lat="44.238302" lon="-122.349061"></rtept><rtept lat="44.238237" lon="-122.344056"></rtept><rtept lat="44.234627" lon="-122.344056"></rtept><rtept lat="44.231016" lon="-122.344055"></rtept><rtept lat="44.231048" lon="-122.349081"></rtept><rtept lat="44.231079" lon="-122.354107"></rtept><rtept lat="44.234723" lon="-122.354087"></rtept><rtept lat="44.238367" lon="-122.354066"></rtept><rtept lat="44.238302" lon="-122.349061"></rtept></rte><rte><name>Patriot Falls</name><type>Area</type><extensions><onx:style>dot</onx:style><onx:weight>4.0</onx:weight><onx:color>rgba(255, 51, 0, 1)</onx:color></extensions><rtept lat="44.238367" lon="-122.354066"></rtept><rtept lat="44.238432" lon="-122.359071"></rtept><rtept lat="44.238497" lon="-122.364076"></rtept><rtept lat="44.242152" lon="-122.364073"></rtept><rtept lat="44.245807" lon="-122.364070"></rtept><rtept lat="44.249462" lon="-122.364067"></rtept><rtept lat="44.253117" lon="-122.364063"></rtept><rtept lat="44.253059" lon="-122.359041"></rtept><rtept lat="44.253001" lon="-122.354020"></rtept><rtept lat="44.252943" lon="-122.348998"></rtept><rtept lat="44.252886" lon="-122.343976"></rtept><rtept lat="44.249224" lon="-122.343996"></rtept><rtept lat="44.245561" lon="-122.344016"></rtept><rtept lat="44.241899" lon="-122.344036"></rtept><rtept lat="44.238237" lon="-122.344056"></rtept><rtept lat="44.238302" lon="-122.349061"></rtept><rtept lat="44.238367" lon="-122.354066"></rtept></rte><rte><name>TIDBITS 4</name><type>Area</type><extensions><onx:style>dot</onx:style><onx:weight>4.0</onx:weight><onx:color>rgba(255, 51, 0, 1)</onx:color></extensions><rtept lat="44.234614" lon="-122.283538"></rtept><rtept lat="44.238239" lon="-122.283611"></rtept><rtept lat="44.238225" lon="-122.280000"></rtept><rtept lat="44.230976" lon="-122.280000"></rtept><rtept lat="44.230988" lon="-122.283464"></rtept><rtept lat="44.234614" lon="-122.283538"></rtept></rte><rte><name>DUKE NORRIS 1</name><type>Area</type><extensions><onx:style>dot</onx:style><onx:weight>4.0</onx:weight><onx:color>rgba(255, 51, 0, 1)</onx:color></extensions><rtept lat="44.238497" lon="-122.364076"></rtept><rtept lat="44.238432" lon="-122.359071"></rtept><rtept lat="44.238367" lon="-122.354066"></rtept><rtept lat="44.234723" lon="-122.354087"></rtept><rtept lat="44.231079" lon="-122.354107"></rtept><rtept lat="44.231110" lon="-122.359108"></rtept><rtept lat="44.231141" lon="-122.364109"></rtept><rtept lat="44.234819" lon="-122.364093"></rtept><rtept lat="44.238497" lon="-122.364076"></rtept></rte><rte><name>Rendezvous</name><type>Area</type><extensions><onx:style>dot</onx:style><onx:weight>4.0</onx:weight><onx:color>rgba(255, 51, 0, 1)</onx:color></extensions><rtept lat="44.186239" lon="-122.333730"></rtept><rtept lat="44.186241" lon="-122.333730"></rtept><rtept lat="44.186323" lon="-122.333728"></rtept><rtept lat="44.189819" lon="-122.333670"></rtept><rtept lat="44.189840" lon="-122.328944"></rtept><rtept lat="44.189841" lon="-122.328638"></rtept><rtept lat="44.189864" lon="-122.323606"></rtept><rtept lat="44.186624" lon="-122.323716"></rtept><rtept lat="44.186277" lon="-122.323727"></rtept><rtept lat="44.183906" lon="-122.323808"></rtept><rtept lat="44.182691" lon="-122.323849"></rtept><rtept lat="44.182687" lon="-122.325039"></rtept><rtept lat="44.182675" lon="-122.328819"></rtept><rtept lat="44.182673" lon="-122.329431"></rtept><rtept lat="44.182666" lon="-122.331696"></rtept><rtept lat="44.182659" lon="-122.333789"></rtept><rtept lat="44.186179" lon="-122.333731"></rtept><rtept lat="44.186239" lon="-122.333730"></rtept></rte><rte><name>Big Chungus</name><type>Area</type><extensions><onx:style>dot</onx:style><onx:weight>4.0</onx:weight><onx:color>rgba(255, 51, 0, 1)</onx:color></extensions><rtept lat="44.193407" lon="-122.333611"></rtept><rtept lat="44.196994" lon="-122.333551"></rtept><rtept lat="44.197028" lon="-122.328582"></rtept><rtept lat="44.197062" lon="-122.323614"></rtept><rtept lat="44.194691" lon="-122.323611"></rtept><rtept lat="44.193463" lon="-122.323610"></rtept><rtept lat="44.189864" lon="-122.323606"></rtept><rtept lat="44.189841" lon="-122.328638"></rtept><rtept lat="44.189840" lon="-122.328944"></rtept><rtept lat="44.189819" lon="-122.333670"></rtept><rtept lat="44.193407" lon="-122.333611"></rtept></rte><rte><name>BOUNCING NUGGETTS</name><type>Area</type><extensions><onx:style>dot</onx:style><onx:weight>4.0</onx:weight><onx:color>rgba(255, 51, 0, 1)</onx:color></extensions><rtept lat="44.223785" lon="-122.364142"></rtept><rtept lat="44.223953" lon="-122.369153"></rtept><rtept lat="44.224120" lon="-122.374164"></rtept><rtept lat="44.224216" lon="-122.379187"></rtept><rtept lat="44.224324" lon="-122.384568"></rtept><rtept lat="44.227949" lon="-122.384577"></rtept><rtept lat="44.231575" lon="-122.384586"></rtept><rtept lat="44.235200" lon="-122.384594"></rtept><rtept lat="44.238825" lon="-122.384603"></rtept><rtept lat="44.238786" lon="-122.379127"></rtept><rtept lat="44.238750" lon="-122.374101"></rtept><rtept lat="44.238624" lon="-122.369089"></rtept><rtept lat="44.238497" lon="-122.364076"></rtept><rtept lat="44.234819" lon="-122.364093"></rtept><rtept lat="44.231141" lon="-122.364109"></rtept><rtept lat="44.227463" lon="-122.364126"></rtept><rtept lat="44.223785" lon="-122.364142"></rtept></rte><rte><name>Echo Ridge</name><type>Area</type><extensions><onx:style>dot</onx:style><onx:weight>4.0</onx:weight><onx:color>rgba(255, 51, 0, 1)</onx:color></extensions><rtept lat="44.216593" lon="-122.344002"></rtept><rtept lat="44.217883" lon="-122.354045"></rtept><rtept lat="44.223790" lon="-122.354098"></rtept><rtept lat="44.223795" lon="-122.344053"></rtept><rtept lat="44.216593" lon="-122.344002"></rtept></rte><rte><name>Sweetness 2</name><type>Area</type><extensions><onx:style>dot</onx:style><onx:weight>4.0</onx:weight><onx:color>rgba(255, 51, 0, 1)</onx:color></extensions><rtept lat="44.197028" lon="-122.328582"></rtept><rtept lat="44.197011" lon="-122.331067"></rtept><rtept lat="44.198808" lon="-122.330864"></rtept><rtept lat="44.200604" lon="-122.330662"></rtept><rtept lat="44.200620" lon="-122.328167"></rtept><rtept lat="44.198824" lon="-122.328375"></rtept><rtept lat="44.197028" lon="-122.328582"></rtept></rte><rte><name>Sweetness</name><type>Area</type><extensions><onx:style>dot</onx:style><onx:weight>4.0</onx:weight><onx:color>rgba(255, 51, 0, 1)</onx:color></extensions><rtept lat="44.193428" lon="-122.329860"></rtept><rtept lat="44.195224" lon="-122.329842"></rtept><rtept lat="44.197020" lon="-122.329824"></rtept><rtept lat="44.197028" lon="-122.328582"></rtept><rtept lat="44.197037" lon="-122.327340"></rtept><rtept lat="44.195240" lon="-122.327350"></rtept><rtept lat="44.193442" lon="-122.327360"></rtept><rtept lat="44.193435" lon="-122.328610"></rtept><rtept lat="44.193428" lon="-122.329860"></rtept></rte><rte><name>Evil Dwarf Forever</name><type>Area</type><extensions><onx:style>dot</onx:style><onx:weight>4.0</onx:weight><onx:color>rgba(255, 51, 0, 1)</onx:color></extensions><rtept lat="44.204109" lon="-122.344546"></rtept><rtept lat="44.206049" lon="-122.344338"></rtept><rtept lat="44.206781" lon="-122.343380"></rtept><rtept lat="44.206368" lon="-122.342763"></rtept><rtept lat="44.206958" lon="-122.341495"></rtept><rtept lat="44.206916" lon="-122.341423"></rtept><rtept lat="44.206921" lon="-122.341416"></rtept><rtept lat="44.206915" lon="-122.341405"></rtept><rtept lat="44.206798" lon="-122.341160"></rtept><rtept lat="44.206901" lon="-122.341070"></rtept><rtept lat="44.207003" lon="-122.340980"></rtept><rtept lat="44.208150" lon="-122.339973"></rtept><rtept lat="44.208019" lon="-122.339701"></rtept><rtept lat="44.208460" lon="-122.339191"></rtept><rtept lat="44.207720" lon="-122.337664"></rtept><rtept lat="44.207770" lon="-122.337572"></rtept><rtept lat="44.207938" lon="-122.337266"></rtept><rtept lat="44.208730" lon="-122.335817"></rtept><rtept lat="44.209359" lon="-122.337095"></rtept><rtept lat="44.209360" lon="-122.337097"></rtept><rtept lat="44.209411" lon="-122.337182"></rtept><rtept lat="44.209410" lon="-122.337078"></rtept><rtept lat="44.209393" lon="-122.332533"></rtept><rtept lat="44.209391" lon="-122.332144"></rtept><rtept lat="44.206909" lon="-122.332461"></rtept><rtept lat="44.206771" lon="-122.332476"></rtept><rtept lat="44.204182" lon="-122.332761"></rtept><rtept lat="44.204151" lon="-122.337722"></rtept><rtept lat="44.204146" lon="-122.338654"></rtept><rtept lat="44.204109" lon="-122.344546"></rtept></rte><rte><name>The golden trumpit 2</name><type>Area</type><extensions><onx:style>dot</onx:style><onx:weight>4.0</onx:weight><onx:color>rgba(255, 51, 0, 1)</onx:color></extensions><rtept lat="44.204164" lon="-122.335234"></rtept><rtept lat="44.205983" lon="-122.335009"></rtept><rtept lat="44.206030" lon="-122.330640"></rtept><rtept lat="44.204195" lon="-122.330836"></rtept><rtept lat="44.204164" lon="-122.335234"></rtept></rte><rte><name>The golden trumpit 1</name><type>Area</type><extensions><onx:style>dot</onx:style><onx:weight>4.0</onx:weight><onx:color>rgba(255, 51, 0, 1)</onx:color></extensions><rtept lat="44.200604" lon="-122.330662"></rtept><rtept lat="44.200588" lon="-122.333156"></rtept><rtept lat="44.202385" lon="-122.332958"></rtept><rtept lat="44.204182" lon="-122.332761"></rtept><rtept lat="44.204197" lon="-122.330257"></rtept><rtept lat="44.202401" lon="-122.330459"></rtept><rtept lat="44.200604" lon="-122.330662"></rtept></rte><rte><name>G4 Mining</name><type>Area</type><extensions><onx:style>dot</onx:style><onx:weight>4.0</onx:weight><onx:color>rgba(255, 51, 0, 1)</onx:color></extensions><rtept lat="44.231016" lon="-122.344055"></rtept><rtept lat="44.234627" lon="-122.344056"></rtept><rtept lat="44.234639" lon="-122.339039"></rtept><rtept lat="44.234650" lon="-122.334022"></rtept><rtept lat="44.234683" lon="-122.328982"></rtept><rtept lat="44.231065" lon="-122.328943"></rtept><rtept lat="44.231049" lon="-122.333995"></rtept><rtept lat="44.231033" lon="-122.339025"></rtept><rtept lat="44.231016" lon="-122.344055"></rtept></rte><rte><name>Frankie's Place</name><type>Area</type><extensions><onx:style>dot</onx:style><onx:weight>4.0</onx:weight><onx:color>rgba(255, 51, 0, 1)</onx:color></extensions><rtept lat="44.235123" lon="-122.379142"></rtept><rtept lat="44.235200" lon="-122.384594"></rtept><rtept lat="44.238825" lon="-122.384603"></rtept><rtept lat="44.238786" lon="-122.379127"></rtept><rtept lat="44.235123" lon="-122.379142"></rtept></rte><rte><name>Frankie's Place</name><type>Area</type><extensions><onx:style>dot</onx:style><onx:weight>4.0</onx:weight><onx:color>rgba(255, 51, 0, 1)</onx:color></extensions><rtept lat="44.235123" lon="-122.379142"></rtept><rtept lat="44.235200" lon="-122.384594"></rtept><rtept lat="44.238825" lon="-122.384603"></rtept><rtept lat="44.238786" lon="-122.379127"></rtept><rtept lat="44.235123" lon="-122.379142"></rtept></rte></gpx>