<?xml version="1.0" encoding="UTF-8"?><kml xmlns="http://www.opengis.net/kml/2.2"><Document><name>calapooia Other active claims</name><Style id="s0"><LineStyle><color>ff0033ff</color><width>2</width></LineStyle><PolyStyle><color>400033ff</color></PolyStyle></Style><Folder><name>Other active claims</name><Placemark><name>LAST CHANCE</name><description>lode | serial ORMC160387 | 10.33 ac | Active | qtr-sec OR 33 0150S 0040E 033 A NE|OR 33 0150S 0040E 028 A SE|OR 33 0150S 0040E 034 A NW | recorded~2021 (DB date, not legal located date) | src: BLM MLRS Not Closed | boundary approx (BLM quarter-section) | do not dig here (active claim)</description><styleUrl>#s0</styleUrl><Polygon><outerBoundaryIs><LinearRing><coordinates>-122.318705,44.223806,0 -122.313621,44.223801,0 -122.313396,44.220182,0 -122.313170,44.216564,0 -122.318184,44.216573,0 -122.323197,44.216583,0 -122.328216,44.216582,0 -122.333236,44.216581,0 -122.333588,44.220191,0 -122.333941,44.223802,0 -122.328865,44.223807,0 -122.328904,44.227436,0 -122.323840,44.227446,0 -122.323788,44.223811,0 -122.318705,44.223806,0</coordinates></LinearRing></outerBoundaryIs></Polygon></Placemark><Placemark><name>ROWENA</name><description>lode | serial ORMC160388 | 10.33 ac | Active | qtr-sec OR 33 0150S 0040E 028 A SE|OR 33 0150S 0040E 027 A SW|OR 33 0150S 0040E 034 A NW | recorded~2021 (DB date, not legal located date) | src: BLM MLRS Not Closed | boundary approx (BLM quarter-section) | do not dig here (active claim)</description><styleUrl>#s0</styleUrl><Polygon><outerBoundaryIs><LinearRing><coordinates>-122.323493,44.220197,0 -122.323788,44.223811,0 -122.328865,44.223807,0 -122.328904,44.227436,0 -122.323840,44.227446,0 -122.323891,44.231080,0 -122.318819,44.231071,0 -122.313747,44.231061,0 -122.313684,44.227431,0 -122.313621,44.223801,0 -122.313396,44.220182,0 -122.313170,44.216564,0 -122.318184,44.216573,0 -122.323197,44.216583,0 -122.323493,44.220197,0</coordinates></LinearRing></outerBoundaryIs></Polygon></Placemark><Placemark><name>ROWENA EXTENSION 1</name><description>lode | serial ORMC160389 | 10.33 ac | Active | qtr-sec OR 33 0150S 0040E 034 A NW | recorded~2021 (DB date, not legal located date) | src: BLM MLRS Not Closed | boundary approx (BLM quarter-section) | do not dig here (active claim)</description><styleUrl>#s0</styleUrl><Polygon><outerBoundaryIs><LinearRing><coordinates>-122.323493,44.220197,0 -122.323788,44.223811,0 -122.318705,44.223806,0 -122.313621,44.223801,0 -122.313396,44.220182,0 -122.313170,44.216564,0 -122.318184,44.216573,0 -122.323197,44.216583,0 -122.323493,44.220197,0</coordinates></LinearRing></outerBoundaryIs></Polygon></Placemark><Placemark><name>INFINITY MINE</name><description>lode | serial ORMC161887 | 17.22 ac | Active | qtr-sec OR 33 0150S 0040E 032 A NE | recorded~2021 (DB date, not legal located date) | src: BLM MLRS Not Closed | boundary approx (BLM quarter-section) | do not dig here (active claim)</description><styleUrl>#s0</styleUrl><Polygon><outerBoundaryIs><LinearRing><coordinates>-122.344002,44.216593,0 -122.354045,44.217883,0 -122.354098,44.223790,0 -122.344053,44.223795,0 -122.344002,44.216593,0</coordinates></LinearRing></outerBoundaryIs></Polygon></Placemark><Placemark><name>Mister Pocket</name><description>lode | serial OR106328967 | 160.0 ac | Active | qtr-sec OR 33 0015S 0004E 029 A NE | OR 33 0150S 0040E 029 A NE | recorded~2023 (DB date, not legal located date) | src: BLM MLRS Not Closed | boundary approx (BLM quarter-section) | do not dig here (active claim)</description><styleUrl>#s0</styleUrl><Polygon><outerBoundaryIs><LinearRing><coordinates>-122.349061,44.238302,0 -122.344056,44.238237,0 -122.344056,44.234627,0 -122.344055,44.231016,0 -122.349081,44.231048,0 -122.354107,44.231079,0 -122.354087,44.234723,0 -122.354066,44.238367,0 -122.349061,44.238302,0</coordinates></LinearRing></outerBoundaryIs></Polygon></Placemark><Placemark><name>Patriot Falls</name><description>placer | serial OR105229776 | 20.0 ac | Active | qtr-sec OR 33 0150S 0040E 020 A NESE|OR 33 0150S 0040E 020 A NWSE|OR 33 0150S 0040E 020 A NENW|OR 33 0150S 0040E 020 A NWNW|OR 33 0150S 0040E 020 A Remainder Aliquot Part SWSW|OR 33 0150S 0040E 020 A SENW|OR 33 0150S 0040E 020 A SENE|OR 33 0150S 0040…</description><styleUrl>#s0</styleUrl><Polygon><outerBoundaryIs><LinearRing><coordinates>-122.354066,44.238367,0 -122.359071,44.238432,0 -122.364076,44.238497,0 -122.364073,44.242152,0 -122.364070,44.245807,0 -122.364067,44.249462,0 -122.364063,44.253117,0 -122.359041,44.253059,0 -122.354020,44.253001,0 -122.348998,44.252943,0 -122.343976,44.252886,0 -122.343996,44.249224,0 -122.344016,44.245561,0 -122.344036,44.241899,0 -122.344056,44.238237,0 -122.349061,44.238302,0 -122.354066,44.238367,0</coordinates></LinearRing></outerBoundaryIs></Polygon></Placemark><Placemark><name>TIDBITS 4</name><description>placer | serial ORMC176844 | 20.0 ac | Active | qtr-sec OR 33 0150S 0040E 025 A NW | recorded~2021 (DB date, not legal located date) | src: BLM MLRS Not Closed | boundary approx (BLM quarter-section) | do not dig here (active claim)</description><styleUrl>#s0</styleUrl><Polygon><outerBoundaryIs><LinearRing><coordinates>-122.283538,44.234614,0 -122.283611,44.238239,0 -122.280000,44.238225,0 -122.280000,44.230976,0 -122.283464,44.230988,0 -122.283538,44.234614,0</coordinates></LinearRing></outerBoundaryIs></Polygon></Placemark><Placemark><name>DUKE NORRIS 1</name><description>placer | serial ORMC178194 | 40.0 ac | Active | qtr-sec OR 33 0150S 0040E 029 A NW | recorded~2021 (DB date, not legal located date) | src: BLM MLRS Not Closed | boundary approx (BLM quarter-section) | do not dig here (active claim)</description><styleUrl>#s0</styleUrl><Polygon><outerBoundaryIs><LinearRing><coordinates>-122.364076,44.238497,0 -122.359071,44.238432,0 -122.354066,44.238367,0 -122.354087,44.234723,0 -122.354107,44.231079,0 -122.359108,44.231110,0 -122.364109,44.231141,0 -122.364093,44.234819,0 -122.364076,44.238497,0</coordinates></LinearRing></outerBoundaryIs></Polygon></Placemark><Placemark><name>Rendezvous</name><description>placer | serial OR106363922 | 20.0 ac | Active | qtr-sec OR 33 0160S 0040E 009 A SE | recorded~2024 (DB date, not legal located date) | src: BLM MLRS Not Closed | boundary approx (BLM quarter-section) | do not dig here (active claim)</description><styleUrl>#s0</styleUrl><Polygon><outerBoundaryIs><LinearRing><coordinates>-122.333730,44.186239,0 -122.333730,44.186241,0 -122.333728,44.186323,0 -122.333670,44.189819,0 -122.328944,44.189840,0 -122.328638,44.189841,0 -122.323606,44.189864,0 -122.323716,44.186624,0 -122.323727,44.186277,0 -122.323808,44.183906,0 -122.323849,44.182691,0 -122.325039,44.182687,0 -122.328819,44.182675,0 -122.329431,44.182673,0 -122.331696,44.182666,0 -122.333789,44.182659,0 -122.333731,44.186179,0 -122.333730,44.186239,0</coordinates></LinearRing></outerBoundaryIs></Polygon></Placemark><Placemark><name>Big Chungus</name><description>placer | serial OR106363923 | 20.0 ac | Active | qtr-sec OR 33 0160S 0040E 009 A NE | recorded~2024 (DB date, not legal located date) | src: BLM MLRS Not Closed | boundary approx (BLM quarter-section) | do not dig here (active claim)</description><styleUrl>#s0</styleUrl><Polygon><outerBoundaryIs><LinearRing><coordinates>-122.333611,44.193407,0 -122.333551,44.196994,0 -122.328582,44.197028,0 -122.323614,44.197062,0 -122.323611,44.194691,0 -122.323610,44.193463,0 -122.323606,44.189864,0 -122.328638,44.189841,0 -122.328944,44.189840,0 -122.333670,44.189819,0 -122.333611,44.193407,0</coordinates></LinearRing></outerBoundaryIs></Polygon></Placemark><Placemark><name>BOUNCING NUGGETTS</name><description>placer | serial OR106696189 | 20.0 ac | Active | qtr-sec OR 33 0150S 0040E 030 E NWNE | recorded~2024 (DB date, not legal located date) | src: BLM MLRS Not Closed | boundary approx (BLM quarter-section) | do not dig here (active claim)</description><styleUrl>#s0</styleUrl><Polygon><outerBoundaryIs><LinearRing><coordinates>-122.364142,44.223785,0 -122.369153,44.223953,0 -122.374164,44.224120,0 -122.379187,44.224216,0 -122.384568,44.224324,0 -122.384577,44.227949,0 -122.384586,44.231575,0 -122.384594,44.235200,0 -122.384603,44.238825,0 -122.379127,44.238786,0 -122.374101,44.238750,0 -122.369089,44.238624,0 -122.364076,44.238497,0 -122.364093,44.234819,0 -122.364109,44.231141,0 -122.364126,44.227463,0 -122.364142,44.223785,0</coordinates></LinearRing></outerBoundaryIs></Polygon></Placemark><Placemark><name>Echo Ridge</name><description>lode | serial OR106750065 | 20.66 ac | Active | qtr-sec OR 33 0150S 0040E 032 L 1 | OR 33 0150S 0040E 032 L 2 | OR 33 0150S 0040E 032 B NWNE | OR 33 0150S 0040E 032 B NENE | OR 33 0150S 0040E 032 B NENE | OR 33 0150S 0040E 032 B NWNE | OR 33 0150S 0040E 032 | OR 33 0150S 0040E 032 | OR 33 0150S 004…</description><styleUrl>#s0</styleUrl><Polygon><outerBoundaryIs><LinearRing><coordinates>-122.344002,44.216593,0 -122.354045,44.217883,0 -122.354098,44.223790,0 -122.344053,44.223795,0 -122.344002,44.216593,0</coordinates></LinearRing></outerBoundaryIs></Polygon></Placemark><Placemark><name>Sweetness 2</name><description>placer | serial OR106781316 | 20.0 ac | Active | qtr-sec OR 33 0160S 0040E 004 A E2SWSE | recorded~2026 (DB date, not legal located date) | src: BLM MLRS Not Closed | boundary approx (BLM quarter-section) | do not dig here (active claim)</description><styleUrl>#s0</styleUrl><Polygon><outerBoundaryIs><LinearRing><coordinates>-122.328582,44.197028,0 -122.331067,44.197011,0 -122.330864,44.198808,0 -122.330662,44.200604,0 -122.328167,44.200620,0 -122.328375,44.198824,0 -122.328582,44.197028,0</coordinates></LinearRing></outerBoundaryIs></Polygon></Placemark><Placemark><name>Sweetness</name><description>placer | serial OR106781315 | 20.0 ac | Active | qtr-sec OR 33 0160S 0040E 009 A E2E2NWNE | OR 33 0160S 0040E 009 A W2W2NENE | recorded~2026 (DB date, not legal located date) | src: BLM MLRS Not Closed | boundary approx (BLM quarter-section) | do not dig here (active claim)</description><styleUrl>#s0</styleUrl><Polygon><outerBoundaryIs><LinearRing><coordinates>-122.329860,44.193428,0 -122.329842,44.195224,0 -122.329824,44.197020,0 -122.328582,44.197028,0 -122.327340,44.197037,0 -122.327350,44.195240,0 -122.327360,44.193442,0 -122.328610,44.193435,0 -122.329860,44.193428,0</coordinates></LinearRing></outerBoundaryIs></Polygon></Placemark><Placemark><name>Evil Dwarf Forever</name><description>placer | serial OR106783447 | 124.11 ac | Active | qtr-sec OR 33 0160S 0040E 004 L 3 | OR 33 0160S 0040E 004 L 4 | recorded~2026 (DB date, not legal located date) | src: BLM MLRS Not Closed | boundary approx (BLM quarter-section) | do not dig here (active claim)</description><styleUrl>#s0</styleUrl><Polygon><outerBoundaryIs><LinearRing><coordinates>-122.344546,44.204109,0 -122.344338,44.206049,0 -122.343380,44.206781,0 -122.342763,44.206368,0 -122.341495,44.206958,0 -122.341423,44.206916,0 -122.341416,44.206921,0 -122.341405,44.206915,0 -122.341160,44.206798,0 -122.341070,44.206901,0 -122.340980,44.207003,0 -122.339973,44.208150,0 -122.339701,44.208019,0 -122.339191,44.208460,0 -122.337664,44.207720,0 -122.337572,44.207770,0 -122.337266,44.207938,0 -122.335817,44.208730,0 -122.337095,44.209359,0 -122.337097,44.209360,0 -122.337182,44.209411,0 -122.337078,44.209410,0 -122.332533,44.209393,0 -122.332144,44.209391,0 -122.332461,44.206909,0 -122.332476,44.206771,0 -122.332761,44.204182,0 -122.337722,44.204151,0 -122.338654,44.204146,0 -122.344546,44.204109,0</coordinates></LinearRing></outerBoundaryIs></Polygon></Placemark><Placemark><name>The golden trumpit 2</name><description>placer | serial OR106784309 | 17.8 ac | Active | qtr-sec OR 33 0160S 0040E 004 L 3 | OR 33 0160S 0040E 004 L 2 | recorded~2026 (DB date, not legal located date) | src: BLM MLRS Not Closed | boundary approx (BLM quarter-section) | do not dig here (active claim)</description><styleUrl>#s0</styleUrl><Polygon><outerBoundaryIs><LinearRing><coordinates>-122.335234,44.204164,0 -122.335009,44.205983,0 -122.330640,44.206030,0 -122.330836,44.204195,0 -122.335234,44.204164,0</coordinates></LinearRing></outerBoundaryIs></Polygon></Placemark><Placemark><name>The golden trumpit 1</name><description>placer | serial OR106784308 | 20.0 ac | Active | qtr-sec OR 33 0160S 0040E 004 A W2NWSE | recorded~2026 (DB date, not legal located date) | src: BLM MLRS Not Closed | boundary approx (BLM quarter-section) | do not dig here (active claim)</description><styleUrl>#s0</styleUrl><Polygon><outerBoundaryIs><LinearRing><coordinates>-122.330662,44.200604,0 -122.333156,44.200588,0 -122.332958,44.202385,0 -122.332761,44.204182,0 -122.330257,44.204197,0 -122.330459,44.202401,0 -122.330662,44.200604,0</coordinates></LinearRing></outerBoundaryIs></Polygon></Placemark><Placemark><name>G4 Mining</name><description>placer | serial OR106848810 | 120.0 ac | Active | qtr-sec OR 33 0150S 0040E 028 A SENW | OR 33 0150S 0040E 028 A SWNE | OR 33 0150S 0040E 028 A SWNW | recorded~2026 (DB date, not legal located date) | src: BLM MLRS Not Closed | boundary approx (BLM quarter-section) | do not dig here (active claim)</description><styleUrl>#s0</styleUrl><Polygon><outerBoundaryIs><LinearRing><coordinates>-122.344055,44.231016,0 -122.344056,44.234627,0 -122.339039,44.234639,0 -122.334022,44.234650,0 -122.328982,44.234683,0 -122.328943,44.231065,0 -122.333995,44.231049,0 -122.339025,44.231033,0 -122.344055,44.231016,0</coordinates></LinearRing></outerBoundaryIs></Polygon></Placemark><Placemark><name>Frankie's Place</name><description>placer | serial OR106849598 | 20.0 ac | Filed | qtr-sec OR 33 0150S 0040E 030 AS2NWNW | recorded~2026 (DB date, not legal located date) | src: BLM MLRS Not Closed | boundary approx (BLM quarter-section) | do not dig here (active claim)</description><styleUrl>#s0</styleUrl><Polygon><outerBoundaryIs><LinearRing><coordinates>-122.379142,44.235123,0 -122.384594,44.235200,0 -122.384603,44.238825,0 -122.379127,44.238786,0 -122.379142,44.235123,0</coordinates></LinearRing></outerBoundaryIs></Polygon></Placemark><Placemark><name>Frankie's Place</name><description>placer | serial OR106849599 | 20.0 ac | Filed | qtr-sec OR 33 0150S 0040E 030 AS2NWNW | recorded~2026 (DB date, not legal located date) | src: BLM MLRS Not Closed | boundary approx (BLM quarter-section) | do not dig here (active claim)</description><styleUrl>#s0</styleUrl><Polygon><outerBoundaryIs><LinearRing><coordinates>-122.379142,44.235123,0 -122.384594,44.235200,0 -122.384603,44.238825,0 -122.379127,44.238786,0 -122.379142,44.235123,0</coordinates></LinearRing></outerBoundaryIs></Polygon></Placemark></Folder></Document></kml>