<?xml version="1.0" encoding="UTF-8"?><kml xmlns="http://www.opengis.net/kml/2.2"><Document><name>calapooia Scout candidates</name><Style id="s0"><IconStyle><color>ff0033ff</color><scale>1.0</scale><Icon><href>http://maps.google.com/mapfiles/kml/shapes/placemark_circle.png</href></Icon></IconStyle></Style><Folder><name>Scout candidates</name><Placemark><name>SCOUT 1 - Placer bench</name><description>open pit mine (placer (heuristic: surface workings)) | agency: USFS | 90m to stream | cluster: 8 nearby | src: MILO</description><styleUrl>#s0</styleUrl><Point><coordinates>-122.332014,44.230275,0</coordinates></Point></Placemark><Placemark><name>SCOUT 2 - Lode/unknown outcrop</name><description>USMIN Adit | agency: USFS | 79m to stream | cluster: 7 nearby | src: USMIN</description><styleUrl>#s0</styleUrl><Point><coordinates>-122.338450,44.226261,0</coordinates></Point></Placemark><Placemark><name>SCOUT 3 - Lode/unknown outcrop</name><description>USMIN Adit | agency: USFS | 63m to stream | cluster: 6 nearby | src: USMIN</description><styleUrl>#s0</styleUrl><Point><coordinates>-122.353866,44.224547,0</coordinates></Point></Placemark><Placemark><name>SCOUT 4 - Lode/unknown outcrop</name><description>USMIN Adit | agency: USFS | 20m to stream | cluster: 5 nearby | src: USMIN</description><styleUrl>#s0</styleUrl><Point><coordinates>-122.372081,44.205812,0</coordinates></Point></Placemark><Placemark><name>SCOUT 5 - Lode/unknown outcrop</name><description>unnamed or NA (lode) | agency: USFS | 105m to stream | cluster: 9 nearby | src: MILO</description><styleUrl>#s0</styleUrl><Point><coordinates>-122.345638,44.228850,0</coordinates></Point></Placemark><Placemark><name>SCOUT 6 - Lode/unknown outcrop</name><description>unnamed or NA (lode) | agency: USFS | 23m to stream | cluster: 8 nearby | src: MILO</description><styleUrl>#s0</styleUrl><Point><coordinates>-122.344444,44.227462,0</coordinates></Point></Placemark><Placemark><name>SCOUT 7 - Lode/unknown outcrop</name><description>Chief Claim, Cut and Shaft (lode) | agency: USFS | 89m to stream | cluster: 8 nearby | src: MILO</description><styleUrl>#s0</styleUrl><Point><coordinates>-122.330164,44.229296,0</coordinates></Point></Placemark><Placemark><name>SCOUT 8 - Lode/unknown outcrop</name><description>unnamed or NA (lode) | agency: USFS | 127m to stream | cluster: 8 nearby | src: MILO</description><styleUrl>#s0</styleUrl><Point><coordinates>-122.342753,44.226160,0</coordinates></Point></Placemark><Placemark><name>SCOUT 9 - Lode/unknown outcrop</name><description>unnamed or NA (lode) | agency: USFS | 12m to stream | cluster: 7 nearby | src: MILO</description><styleUrl>#s0</styleUrl><Point><coordinates>-122.379336,44.206961,0</coordinates></Point></Placemark></Folder></Document></kml>