<?xml version="1.0" encoding="UTF-8"?>
<gpx xmlns:xsi="http://www.w3.org/2001/XMLSchema-instance" xmlns="http://www.topografix.com/GPX/1/1" xmlns:onx="http://www.onxmaps.com" xsi:schemaLocation="http://www.topografix.com/GPX/1/1 http://www.topografix.com/GPX/1/1/gpx.xsd" version="1.1" creator="onXmaps hunt ios"><wpt lat="44.235034" lon="-122.374318"><name>Golden Dollar</name><desc>club: Willamette Valley Miners (WVM) | serial: ORMC168629 | acres: 20.0 | directions: not available (no club handbook source in this build) | boundary approx (BLM quarter-section)</desc><extensions><onx:icon>Mineral Site</onx:icon><onx:color>rgba(255, 255, 0, 1)</onx:color></extensions></wpt><rte><name>Golden Dollar</name><type>Area</type><extensions><onx:style>solid</onx:style><onx:weight>4.0</onx:weight><onx:color>rgba(255, 255, 0, 1)</onx:color></extensions><rtept lat="44.238624" lon="-122.369089"></rtept><rtept lat="44.238497" lon="-122.364076"></rtept><rtept lat="44.234819" lon="-122.364093"></rtept><rtept lat="44.231141" lon="-122.364109"></rtept><rtept lat="44.231248" lon="-122.369121"></rtept><rtept lat="44.231354" lon="-122.374133"></rtept><rtept lat="44.231460" lon="-122.379156"></rtept><rtept lat="44.231575" lon="-122.384586"></rtept><rtept lat="44.235200" lon="-122.384594"></rtept><rtept lat="44.238825" lon="-122.384603"></rtept><rtept lat="44.238786" lon="-122.379127"></rtept><rtept lat="44.238750" lon="-122.374101"></rtept><rtept lat="44.238624" lon="-122.369089"></rtept></rte></gpx>