<?xml version="1.0" encoding="UTF-8"?><kml xmlns="http://www.opengis.net/kml/2.2"><Document><name>calapooia My claims</name><Style id="s0"><LineStyle><color>ff00ffff</color><width>2</width></LineStyle><PolyStyle><color>4000ffff</color></PolyStyle></Style><Style id="s1"><IconStyle><color>ff00ffff</color><scale>1.0</scale><Icon><href>http://maps.google.com/mapfiles/kml/shapes/placemark_circle.png</href></Icon></IconStyle></Style><Folder><name>My claims</name><Placemark><name>Golden Dollar</name><description>club: Willamette Valley Miners (WVM) | serial: ORMC168629 | acres: 20.0 | directions: not available (no club handbook source in this build) | boundary approx (BLM quarter-section)</description><styleUrl>#s0</styleUrl><Polygon><outerBoundaryIs><LinearRing><coordinates>-122.369089,44.238624,0 -122.364076,44.238497,0 -122.364093,44.234819,0 -122.364109,44.231141,0 -122.369121,44.231248,0 -122.374133,44.231354,0 -122.379156,44.231460,0 -122.384586,44.231575,0 -122.384594,44.235200,0 -122.384603,44.238825,0 -122.379127,44.238786,0 -122.374101,44.238750,0 -122.369089,44.238624,0</coordinates></LinearRing></outerBoundaryIs></Polygon></Placemark><Placemark><name>Golden Dollar</name><description>club: Willamette Valley Miners (WVM) | serial: ORMC168629 | acres: 20.0 | directions: not available (no club handbook source in this build) | boundary approx (BLM quarter-section)</description><styleUrl>#s1</styleUrl><Point><coordinates>-122.374318,44.235034,0</coordinates></Point></Placemark></Folder></Document></kml>