{"type": "FeatureCollection", "features": [{"type": "Feature", "geometry": {"type": "Polygon", "coordinates": [[[-122.36908880702435, 44.23862372436389], [-122.36407620922127, 44.2384972328462], [-122.36409274552797, 44.23481920561314], [-122.3641092528348, 44.231141177379996], [-122.36912107163391, 44.2312476158967], [-122.37413289043285, 44.23135380341327], [-122.37915646023343, 44.23146004692872], [-122.38458571009853, 44.23157462440503], [-122.38459433378571, 44.23519984263211], [-122.38460295747306, 44.23882503285908], [-122.37912657661484, 44.23878554039227], [-122.37410140482734, 44.238750215881566], [-122.36908880702435, 44.23862372436389]]]}, "properties": {"title": "Golden Dollar", "description": "club: Willamette Valley Miners (WVM) | serial: ORMC168629 | acres: 20.0 | directions: not available (no club handbook source in this build) | boundary approx (BLM quarter-section)", "stroke": "#ffff00", "stroke-width": 2, "fill": "#ffff00", "fill-opacity": 0.25}}, {"type": "Feature", "geometry": {"type": "Point", "coordinates": [-122.37431815286375, 44.23503390678899]}, "properties": {"title": "Golden Dollar", "description": "club: Willamette Valley Miners (WVM) | serial: ORMC168629 | acres: 20.0 | directions: not available (no club handbook source in this build) | boundary approx (BLM quarter-section)", "marker-color": "#ffff00", "marker-symbol": "circle"}}, {"type": "Feature", "geometry": {"type": "Polygon", "coordinates": [[[-122.31870468438505, 44.223805851355856], [-122.31362103959266, 44.22380060785226], [-122.31339567987388, 44.220182267645754], [-122.31317032115527, 44.2165639264392], [-122.31818365893758, 44.216573392950075], [-122.32319696971963, 44.216582638460864], [-122.32821625050057, 44.21658179897044], [-122.33323553228139, 44.21658073847994], [-122.33358830901841, 44.220191409673326], [-122.33394111475565, 44.22380208086662], [-122.32886474896657, 44.223806588363], [-122.3289038236586, 44.22743570358816], [-122.32383962687233, 44.227445767083765], [-122.3237883561774, 44.2238110948594], [-122.31870468438505, 44.223805851355856]]]}, "properties": {"title": "LAST CHANCE", "description": "lode | serial ORMC160387 | 10.33 ac | Active | qtr-sec OR 33 0150S 0040E 033 A NE|OR 33 0150S 0040E 028 A SE|OR 33 0150S 0040E 034 A NW | recorded~2021 (DB date, not legal located date) | src: BLM MLRS Not Closed | boundary approx (BLM quarter-section) | do not dig here (active claim)", "stroke": "#ff3300", "stroke-width": 2, "fill": "#ff3300", "fill-opacity": 0.05, "stroke-dasharray": "1,6"}}, {"type": "Feature", "geometry": {"type": "Polygon", "coordinates": [[[-122.32349266244842, 44.22019686666015], [-122.3237883561774, 44.2238110948594], [-122.32886474896657, 44.223806588363], [-122.3289038236586, 44.22743570358816], [-122.32383962687233, 44.227445767083765], [-122.32389087056747, 44.23108041030809], [-122.3188189217761, 44.231070751803266], [-122.31374697198456, 44.231060898298416], [-122.31368400528851, 44.227430754075385], [-122.31362103959266, 44.22380060785226], [-122.31339567987388, 44.220182267645754], [-122.31317032115527, 44.2165639264392], [-122.31818365893758, 44.216573392950075], [-122.32319696971963, 44.216582638460864], [-122.32349266244842, 44.22019686666015]]]}, "properties": {"title": "ROWENA", "description": "lode | serial ORMC160388 | 10.33 ac | Active | qtr-sec OR 33 0150S 0040E 028 A SE|OR 33 0150S 0040E 027 A SW|OR 33 0150S 0040E 034 A NW | recorded~2021 (DB date, not legal located date) | src: BLM MLRS Not Closed | boundary approx (BLM quarter-section) | do not dig here (active claim)", "stroke": "#ff3300", "stroke-width": 2, "fill": "#ff3300", "fill-opacity": 0.05, "stroke-dasharray": "1,6"}}, {"type": "Feature", "geometry": {"type": "Polygon", "coordinates": [[[-122.32349266244842, 44.22019686666015], [-122.3237883561774, 44.2238110948594], [-122.31870468438505, 44.223805851355856], [-122.31362103959266, 44.22380060785226], [-122.31339567987388, 44.220182267645754], [-122.31317032115527, 44.2165639264392], [-122.31818365893758, 44.216573392950075], [-122.32319696971963, 44.216582638460864], [-122.32349266244842, 44.22019686666015]]]}, "properties": {"title": "ROWENA EXTENSION 1", "description": "lode | serial ORMC160389 | 10.33 ac | Active | qtr-sec OR 33 0150S 0040E 034 A NW | recorded~2021 (DB date, not legal located date) | src: BLM MLRS Not Closed | boundary approx (BLM quarter-section) | do not dig here (active claim)", "stroke": "#ff3300", "stroke-width": 2, "fill": "#ff3300", "fill-opacity": 0.05, "stroke-dasharray": "1,6"}}, {"type": "Feature", "geometry": {"type": "Polygon", "coordinates": [[[-122.3440015509584, 44.216592870428805], [-122.35404485476393, 44.217882899528746], [-122.35409782088853, 44.2237902068958], [-122.34405334432742, 44.22379526187784], [-122.3440015509584, 44.216592870428805]]]}, "properties": {"title": "INFINITY MINE", "description": "lode | serial ORMC161887 | 17.22 ac | Active | qtr-sec OR 33 0150S 0040E 032 A NE | recorded~2021 (DB date, not legal located date) | src: BLM MLRS Not Closed | boundary approx (BLM quarter-section) | do not dig here (active claim)", "stroke": "#ff3300", "stroke-width": 2, "fill": "#ff3300", "fill-opacity": 0.05, "stroke-dasharray": "1,6"}}, {"type": "Feature", "geometry": {"type": "Polygon", "coordinates": [[[-122.34906124284974, 44.2383023153024], [-122.34405623405895, 44.23823735178771], [-122.34405552637583, 44.23462682256034], [-122.34405478969288, 44.23101629333287], [-122.34908087748056, 44.231047923843526], [-122.35410696726807, 44.23107933335405], [-122.35408659395412, 44.23472330558556], [-122.35406622164038, 44.238367277817034], [-122.34906124284974, 44.2383023153024]]]}, "properties": {"title": "Mister Pocket", "description": "lode | serial OR106328967 | 160.0 ac | Active | qtr-sec OR 33 0015S 0004E 029 A NE | OR 33 0150S 0040E 029 A NE | recorded~2023 (DB date, not legal located date) | src: BLM MLRS Not Closed | boundary approx (BLM quarter-section) | do not dig here (active claim)", "stroke": "#ff3300", "stroke-width": 2, "fill": "#ff3300", "fill-opacity": 0.05, "stroke-dasharray": "1,6"}}, {"type": "Feature", "geometry": {"type": "Polygon", "coordinates": [[[-122.35406622164038, 44.238367277817034], [-122.3590712294309, 44.238432269331604], [-122.36407620922127, 44.2384972328462], [-122.3640730869125, 44.242152148076485], [-122.3640699386039, 44.24580703630669], [-122.36406681629548, 44.2494619515369], [-122.3640633809872, 44.25311674676706], [-122.35904149219543, 44.25305895525483], [-122.35401960340357, 44.2530011347426], [-122.34899771461153, 44.25294331523035], [-122.34397582581938, 44.252885522718096], [-122.34399612712903, 44.2492235244855], [-122.34401616343884, 44.24556146725297], [-122.34403619874884, 44.2418994090204], [-122.34405623405895, 44.23823735178771], [-122.34906124284974, 44.2383023153024], [-122.35406622164038, 44.238367277817034]]]}, "properties": {"title": "Patriot Falls", "description": "placer | serial OR105229776 | 20.0 ac | Active | qtr-sec OR 33 0150S 0040E 020 A NESE|OR 33 0150S 0040E 020 A NWSE|OR 33 0150S 0040E 020 A NENW|OR 33 0150S 0040E 020 A NWNW|OR 33 0150S 0040E 020 A Remainder Aliquot Part SWSW|OR 33 0150S 0040E 020 A SENW|OR 33 0150S 0040E 020 A SENE|OR 33 0150S 0040E 020 A NENE|OR 33 0150S 0040E 020 A NWSW|OR 33 0150S 0040E 020 A SW|OR 33 0150S 0040E 020 A SESW|OR 33 0150S 0040E 020 A SWNW|OR 33 0150S 0040E 020 A NESW|OR 33 0150S 0040E 020 A NWNE|OR 33 0150S 0040E 020 A SWSE|OR 33 0150S 0040E 020 A SWNE|OR 33 0150S 0040E 020 A SESE | recorded~2021 (DB date, not legal located date) | src: BLM MLRS Not Closed | boundary approx (BLM quarter-section) | do not dig here (active claim)", "stroke": "#ff3300", "stroke-width": 2, "fill": "#ff3300", "fill-opacity": 0.05, "stroke-dasharray": "1,6"}}, {"type": "Feature", "geometry": {"type": "Polygon", "coordinates": [[[-122.28353755595003, 44.234613653475634], [-122.28361096964703, 44.23823896969761], [-122.28, 44.23822459184534], [-122.28, 44.23097646729545], [-122.28346411525321, 44.23098830825352], [-122.28353755595003, 44.234613653475634]]]}, "properties": {"title": "TIDBITS 4", "description": "placer | serial ORMC176844 | 20.0 ac | Active | qtr-sec OR 33 0150S 0040E 025 A NW | recorded~2021 (DB date, not legal located date) | src: BLM MLRS Not Closed | boundary approx (BLM quarter-section) | do not dig here (active claim)", "stroke": "#ff3300", "stroke-width": 2, "fill": "#ff3300", "fill-opacity": 0.05, "stroke-dasharray": "1,6"}}, {"type": "Feature", "geometry": {"type": "Polygon", "coordinates": [[[-122.36407620922127, 44.2384972328462], [-122.3590712294309, 44.238432269331604], [-122.35406622164038, 44.238367277817034], [-122.35408659395412, 44.23472330558556], [-122.35410696726807, 44.23107933335405], [-122.3591081100515, 44.231110352867056], [-122.3641092528348, 44.231141177379996], [-122.36409274552797, 44.23481920561314], [-122.36407620922127, 44.2384972328462]]]}, "properties": {"title": "DUKE NORRIS 1", "description": "placer | serial ORMC178194 | 40.0 ac | Active | qtr-sec OR 33 0150S 0040E 029 A NW | recorded~2021 (DB date, not legal located date) | src: BLM MLRS Not Closed | boundary approx (BLM quarter-section) | do not dig here (active claim)", "stroke": "#ff3300", "stroke-width": 2, "fill": "#ff3300", "fill-opacity": 0.05, "stroke-dasharray": "1,6"}}, {"type": "Feature", "geometry": {"type": "Polygon", "coordinates": [[[-122.33372989963296, 44.1862388595156], [-122.33372985563346, 44.18624140051572], [-122.33372849964863, 44.18632296752106], [-122.33367035429858, 44.18981875074758], [-122.32894443556742, 44.18983995721024], [-122.32863812752002, 44.189841445240255], [-122.32360587074135, 44.18986394473278], [-122.32371570914775, 44.186624462517265], [-122.32372747308415, 44.186277497494174], [-122.32380788764972, 44.18390586033635], [-122.32384907442724, 44.182691077255484], [-122.32503858561154, 44.18268723313917], [-122.32881927419746, 44.18267502276952], [-122.32943090129221, 44.18267304770969], [-122.33169576464316, 44.18266573048823], [-122.33378947296761, 44.182658968283505], [-122.33373090262177, 44.18617852651166], [-122.33372989963296, 44.1862388595156]]]}, "properties": {"title": "Rendezvous", "description": "placer | serial OR106363922 | 20.0 ac | Active | qtr-sec OR 33 0160S 0040E 009 A SE | recorded~2024 (DB date, not legal located date) | src: BLM MLRS Not Closed | boundary approx (BLM quarter-section) | do not dig here (active claim)", "stroke": "#ff3300", "stroke-width": 2, "fill": "#ff3300", "fill-opacity": 0.05, "stroke-dasharray": "1,6"}}, {"type": "Feature", "geometry": {"type": "Polygon", "coordinates": [[[-122.33361064296582, 44.1934066139801], [-122.33355093163325, 44.196994450212586], [-122.3285823468667, 44.197028479699824], [-122.32361376409997, 44.19706248218707], [-122.32361117265229, 44.194690838037424], [-122.32360983142053, 44.19346322795995], [-122.32360587074135, 44.18986394473278], [-122.32863812752002, 44.189841445240255], [-122.32894443556742, 44.18983995721024], [-122.33367035429858, 44.18981875074758], [-122.33361064296582, 44.1934066139801]]]}, "properties": {"title": "Big Chungus", "description": "placer | serial OR106363923 | 20.0 ac | Active | qtr-sec OR 33 0160S 0040E 009 A NE | recorded~2024 (DB date, not legal located date) | src: BLM MLRS Not Closed | boundary approx (BLM quarter-section) | do not dig here (active claim)", "stroke": "#ff3300", "stroke-width": 2, "fill": "#ff3300", "fill-opacity": 0.05, "stroke-dasharray": "1,6"}}, {"type": "Feature", "geometry": {"type": "Polygon", "coordinates": [[[-122.36414229744902, 44.223785151913674], [-122.3691530132595, 44.223952758434415], [-122.37416370106979, 44.22412036495516], [-122.37918696486834, 44.224216164470114], [-122.38456849072475, 44.22432424495077], [-122.38457711441156, 44.22794943517794], [-122.38458571009853, 44.23157462440503], [-122.38459433378571, 44.23519984263211], [-122.38460295747306, 44.23882503285908], [-122.37912657661484, 44.23878554039227], [-122.37410140482734, 44.238750215881566], [-122.36908880702435, 44.23862372436389], [-122.36407620922127, 44.2384972328462], [-122.36409274552797, 44.23481920561314], [-122.3641092528348, 44.231141177379996], [-122.36412579014184, 44.22746317914685], [-122.36414229744902, 44.223785151913674]]]}, "properties": {"title": "BOUNCING NUGGETTS", "description": "placer | serial OR106696189 | 20.0 ac | Active | qtr-sec OR 33 0150S 0040E 030 E NWNE | recorded~2024 (DB date, not legal located date) | src: BLM MLRS Not Closed | boundary approx (BLM quarter-section) | do not dig here (active claim)", "stroke": "#ff3300", "stroke-width": 2, "fill": "#ff3300", "fill-opacity": 0.05, "stroke-dasharray": "1,6"}}, {"type": "Feature", "geometry": {"type": "Polygon", "coordinates": [[[-122.3440015509584, 44.216592870428805], [-122.35404485476393, 44.217882899528746], [-122.35409782088853, 44.2237902068958], [-122.34405334432742, 44.22379526187784], [-122.3440015509584, 44.216592870428805]]]}, "properties": {"title": "Echo Ridge", "description": "lode | serial OR106750065 | 20.66 ac | Active | qtr-sec OR 33 0150S 0040E 032 L 1 | OR 33 0150S 0040E 032 L 2 | OR 33 0150S 0040E 032 B NWNE | OR 33 0150S 0040E 032 B NENE | OR 33 0150S 0040E 032 B NENE | OR 33 0150S 0040E 032 B NWNE | OR 33 0150S 0040E 032 | OR 33 0150S 0040E 032 | OR 33 0150S 0040E 032 | OR 33 0150S 0040E 032 | OR 33 0150S 0040E 032 | OR 33 0150S 0040E 032 | OR 33 0150S 0040E 032 | OR 33 0150S 0040E 032 | OR 33 0150S 0040E 032 | OR 33 0150S 0040E 032 | OR 33 0150S 0040E 032 | OR 33 0150S 0040E 032 | OR 33 0150S 0040E 032 | OR 33 0150S 0040E 032 | OR 33 0150S 0040E 032 | recorded~2025 (DB date, not legal located date) | src: BLM MLRS Not Closed | boundary approx (BLM quarter-section) | do not dig here (active claim)", "stroke": "#ff3300", "stroke-width": 2, "fill": "#ff3300", "fill-opacity": 0.05, "stroke-dasharray": "1,6"}}, {"type": "Feature", "geometry": {"type": "Polygon", "coordinates": [[[-122.3285823468667, 44.197028479699824], [-122.33106663924995, 44.197011464456246], [-122.33086416755738, 44.19880790358947], [-122.33066169686478, 44.2006043417227], [-122.32816743647979, 44.20062047396725], [-122.3283748921732, 44.198824476833536], [-122.3285823468667, 44.197028479699824]]]}, "properties": {"title": "Sweetness 2", "description": "placer | serial OR106781316 | 20.0 ac | Active | qtr-sec OR 33 0160S 0040E 004 A E2SWSE | recorded~2026 (DB date, not legal located date) | src: BLM MLRS Not Closed | boundary approx (BLM quarter-section) | do not dig here (active claim)", "stroke": "#ff3300", "stroke-width": 2, "fill": "#ff3300", "fill-opacity": 0.05, "stroke-dasharray": "1,6"}}, {"type": "Feature", "geometry": {"type": "Polygon", "coordinates": [[[-122.32986032838642, 44.19342790634759], [-122.32984241072239, 44.19522393946277], [-122.32982449305833, 44.19701997257798], [-122.3285823468667, 44.197028479699824], [-122.327340200675, 44.197036979821604], [-122.32735016333754, 44.19523952070707], [-122.32736012500008, 44.19344206059253], [-122.32861022319325, 44.19343500447004], [-122.32986032838642, 44.19342790634759]]]}, "properties": {"title": "Sweetness", "description": "placer | serial OR106781315 | 20.0 ac | Active | qtr-sec OR 33 0160S 0040E 009 A E2E2NWNE | OR 33 0160S 0040E 009 A W2W2NENE | recorded~2026 (DB date, not legal located date) | src: BLM MLRS Not Closed | boundary approx (BLM quarter-section) | do not dig here (active claim)", "stroke": "#ff3300", "stroke-width": 2, "fill": "#ff3300", "fill-opacity": 0.05, "stroke-dasharray": "1,6"}}, {"type": "Feature", "geometry": {"type": "Polygon", "coordinates": [[[-122.34454635568589, 44.20410906458808], [-122.3443376760195, 44.20604870573083], [-122.34338047600889, 44.206780962870496], [-122.34276274183492, 44.20636820290485], [-122.3414952357492, 44.20695842806588], [-122.34142336773006, 44.20691631607023], [-122.3414158277297, 44.20692050407123], [-122.34140517772705, 44.206915386071934], [-122.34116042866681, 44.20679784108842], [-122.3410699376722, 44.20690087010375], [-122.34098017467754, 44.20700310611901], [-122.3399733177374, 44.20814969028968], [-122.3397013486704, 44.208019186308036], [-122.33919104767438, 44.20846049638571], [-122.33766355129711, 44.207720421488204], [-122.3375719712923, 44.20777047750032], [-122.33726577627624, 44.207937853540784], [-122.33581737920044, 44.208729595732216], [-122.33709472651796, 44.20935899764719], [-122.33709749451864, 44.209360361647015], [-122.3371818635412, 44.209410529641914], [-122.33707838752504, 44.20941008465203], [-122.33253334181468, 44.20939264709483], [-122.3321439937538, 44.20939095013282], [-122.33246113133463, 44.206909414945144], [-122.33247632331096, 44.206771297934935], [-122.3327609588665, 44.204181969743644], [-122.33772150063238, 44.20415130725724], [-122.33865365777628, 44.20414567516588], [-122.34454635568589, 44.20410906458808]]]}, "properties": {"title": "Evil Dwarf Forever", "description": "placer | serial OR106783447 | 124.11 ac | Active | qtr-sec OR 33 0160S 0040E 004 L 3 | OR 33 0160S 0040E 004 L 4 | recorded~2026 (DB date, not legal located date) | src: BLM MLRS Not Closed | boundary approx (BLM quarter-section) | do not dig here (active claim)", "stroke": "#ff3300", "stroke-width": 2, "fill": "#ff3300", "fill-opacity": 0.05, "stroke-dasharray": "1,6"}}, {"type": "Feature", "geometry": {"type": "Polygon", "coordinates": [[[-122.33523400024781, 44.204164000500995], [-122.33500900055614, 44.20598300063782], [-122.3306399998853, 44.20603000006751], [-122.33083599956947, 44.20419499993246], [-122.33523400024781, 44.204164000500995]]]}, "properties": {"title": "The golden trumpit 2", "description": "placer | serial OR106784309 | 17.8 ac | Active | qtr-sec OR 33 0160S 0040E 004 L 3 | OR 33 0160S 0040E 004 L 2 | recorded~2026 (DB date, not legal located date) | src: BLM MLRS Not Closed | boundary approx (BLM quarter-section) | do not dig here (active claim)", "stroke": "#ff3300", "stroke-width": 2, "fill": "#ff3300", "fill-opacity": 0.05, "stroke-dasharray": "1,6"}}, {"type": "Feature", "geometry": {"type": "Polygon", "coordinates": [[[-122.33066169686478, 44.2006043417227], [-122.33315595724979, 44.20058821047813], [-122.33295845755809, 44.20238508961087], [-122.3327609588665, 44.204181969743644], [-122.33025671547973, 44.204197222989194], [-122.33045920617226, 44.20240078285593], [-122.33066169686478, 44.2006043417227]]]}, "properties": {"title": "The golden trumpit 1", "description": "placer | serial OR106784308 | 20.0 ac | Active | qtr-sec OR 33 0160S 0040E 004 A W2NWSE | recorded~2026 (DB date, not legal located date) | src: BLM MLRS Not Closed | boundary approx (BLM quarter-section) | do not dig here (active claim)", "stroke": "#ff3300", "stroke-width": 2, "fill": "#ff3300", "fill-opacity": 0.05, "stroke-dasharray": "1,6"}}, {"type": "Feature", "geometry": {"type": "Polygon", "coordinates": [[[-122.34405478969288, 44.23101629333287], [-122.34405552637583, 44.23462682256034], [-122.33903858159759, 44.23463852605161], [-122.33402166481918, 44.23465000754284], [-122.32898175004104, 44.23468265603764], [-122.32894289935078, 44.23106467981327], [-122.33399492813393, 44.23104872731839], [-122.3390248449135, 44.231032634825645], [-122.34405478969288, 44.23101629333287]]]}, "properties": {"title": "G4 Mining", "description": "placer | serial OR106848810 | 120.0 ac | Active | qtr-sec OR 33 0150S 0040E 028 A SENW | OR 33 0150S 0040E 028 A SWNE | OR 33 0150S 0040E 028 A SWNW | recorded~2026 (DB date, not legal located date) | src: BLM MLRS Not Closed | boundary approx (BLM quarter-section) | do not dig here (active claim)", "stroke": "#ff3300", "stroke-width": 2, "fill": "#ff3300", "fill-opacity": 0.05, "stroke-dasharray": "1,6"}}, {"type": "Feature", "geometry": {"type": "Polygon", "coordinates": [[[-122.37914150392409, 44.235123016160536], [-122.38459433378571, 44.23519984263211], [-122.38460295747306, 44.23882503285908], [-122.37912657661484, 44.23878554039227], [-122.37914150392409, 44.235123016160536]]]}, "properties": {"title": "Frankie's Place", "description": "placer | serial OR106849598 | 20.0 ac | Filed | qtr-sec OR 33 0150S 0040E 030 AS2NWNW | recorded~2026 (DB date, not legal located date) | src: BLM MLRS Not Closed | boundary approx (BLM quarter-section) | do not dig here (active claim)", "stroke": "#ff3300", "stroke-width": 2, "fill": "#ff3300", "fill-opacity": 0.05, "stroke-dasharray": "1,6"}}, {"type": "Feature", "geometry": {"type": "Polygon", "coordinates": [[[-122.37914150392409, 44.235123016160536], [-122.38459433378571, 44.23519984263211], [-122.38460295747306, 44.23882503285908], [-122.37912657661484, 44.23878554039227], [-122.37914150392409, 44.235123016160536]]]}, "properties": {"title": "Frankie's Place", "description": "placer | serial OR106849599 | 20.0 ac | Filed | qtr-sec OR 33 0150S 0040E 030 AS2NWNW | recorded~2026 (DB date, not legal located date) | src: BLM MLRS Not Closed | boundary approx (BLM quarter-section) | do not dig here (active claim)", "stroke": "#ff3300", "stroke-width": 2, "fill": "#ff3300", "fill-opacity": 0.05, "stroke-dasharray": "1,6"}}, {"type": "Feature", "geometry": {"type": "Point", "coordinates": [-122.33200695140138, 44.230271978726265]}, "properties": {"title": "Placer - open pit mine", "description": "2 source record(s) merged within 75m | src: MILO, USMIN", "marker-color": "#000000", "marker-symbol": "circle"}}, {"type": "Feature", "geometry": {"type": "Point", "coordinates": [-122.35425261473965, 44.22476238845653]}, "properties": {"title": "Adit - Blue River", "description": "6 source record(s) merged within 75m | src: MILO, USMIN", "marker-color": "#000000", "marker-symbol": "circle"}}, {"type": "Feature", "geometry": {"type": "Point", "coordinates": [-122.34343149245619, 44.21175533991762]}, "properties": {"title": "Adit - Blue River", "description": "6 source record(s) merged within 75m | src: MILO, USMIN", "marker-color": "#000000", "marker-symbol": "circle"}}, {"type": "Feature", "geometry": {"type": "Point", "coordinates": [-122.37208067327323, 44.20569481295204]}, "properties": {"title": "Adit - Blue River", "description": "6 source record(s) merged within 75m | src: MILO, USMIN", "marker-color": "#000000", "marker-symbol": "circle"}}, {"type": "Feature", "geometry": {"type": "Point", "coordinates": [-122.34241833927399, 44.21071945358956]}, "properties": {"title": "Adit - Blue River", "description": "4 source record(s) merged within 75m | src: MILO, USMIN", "marker-color": "#000000", "marker-symbol": "circle"}}, {"type": "Feature", "geometry": {"type": "Point", "coordinates": [-122.34273819682427, 44.208035868647215]}, "properties": {"title": "Adit - Blue River", "description": "4 source record(s) merged within 75m | src: MILO, USMIN", "marker-color": "#000000", "marker-symbol": "circle"}}, {"type": "Feature", "geometry": {"type": "Point", "coordinates": [-122.34197735023999, 44.233314900784244]}, "properties": {"title": "Adit - Blue River", "description": "3 source record(s) merged within 75m | src: MILO, USMIN", "marker-color": "#000000", "marker-symbol": "circle"}}, {"type": "Feature", "geometry": {"type": "Point", "coordinates": [-122.3384797555227, 44.22629334977408]}, "properties": {"title": "Adit - Blue River", "description": "2 source record(s) merged within 75m | src: MILO, USMIN", "marker-color": "#000000", "marker-symbol": "circle"}}, {"type": "Feature", "geometry": {"type": "Point", "coordinates": [-122.33223124932611, 44.23123020198686]}, "properties": {"title": "Adit - Blue River", "description": "2 source record(s) merged within 75m | src: MILO, USMIN", "marker-color": "#000000", "marker-symbol": "circle"}}, {"type": "Feature", "geometry": {"type": "Point", "coordinates": [-122.32848480598263, 44.222181865029654]}, "properties": {"title": "Adit - Blue River", "description": "2 source record(s) merged within 75m | src: MILO, USMIN", "marker-color": "#000000", "marker-symbol": "circle"}}, {"type": "Feature", "geometry": {"type": "Point", "coordinates": [-122.33030184739704, 44.22266639588116]}, "properties": {"title": "Adit - Blue River", "description": "2 source record(s) merged within 75m | src: MILO, USMIN", "marker-color": "#000000", "marker-symbol": "circle"}}, {"type": "Feature", "geometry": {"type": "Point", "coordinates": [-122.36565684111397, 44.2172394881608]}, "properties": {"title": "Mine - Poorman Claim Cut", "description": "5 source record(s) merged within 75m | src: MILO", "marker-color": "#000000", "marker-symbol": "circle"}}, {"type": "Feature", "geometry": {"type": "Point", "coordinates": [-122.3355523178482, 44.22415491947227]}, "properties": {"title": "Pit - Blue River", "description": "4 source record(s) merged within 75m | src: MILO, USMIN", "marker-color": "#000000", "marker-symbol": "circle"}}, {"type": "Feature", "geometry": {"type": "Point", "coordinates": [-122.33147327690294, 44.23114255723833]}, "properties": {"title": "Mine - Cinderella Disc. Shaft", "description": "4 source record(s) merged within 75m | src: MILO", "marker-color": "#000000", "marker-symbol": "circle"}}, {"type": "Feature", "geometry": {"type": "Point", "coordinates": [-122.35776434282876, 44.21422802054283]}, "properties": {"title": "Mine - Discovery Shaft No.1 (Crede No.2 claim)", "description": "4 source record(s) merged within 75m | src: MILO", "marker-color": "#000000", "marker-symbol": "circle"}}, {"type": "Feature", "geometry": {"type": "Point", "coordinates": [-122.35811086367181, 44.2052873694786]}, "properties": {"title": "Mine - Leonard Claim Cut 4", "description": "4 source record(s) merged within 75m | src: MILO", "marker-color": "#000000", "marker-symbol": "circle"}}, {"type": "Feature", "geometry": {"type": "Point", "coordinates": [-122.3619841308275, 44.20930633661989]}, "properties": {"title": "Mine - Durango Claim Disc. Cut and Tunnel No.1", "description": "4 source record(s) merged within 75m | src: MILO", "marker-color": "#000000", "marker-symbol": "circle"}}, {"type": "Feature", "geometry": {"type": "Point", "coordinates": [-122.35009697808997, 44.21522509079688]}, "properties": {"title": "Mine - Louise Claim Tunnel No.1", "description": "4 source record(s) merged within 75m | src: MILO", "marker-color": "#000000", "marker-symbol": "circle"}}, {"type": "Feature", "geometry": {"type": "Point", "coordinates": [-122.35575584954896, 44.21220717436039]}, "properties": {"title": "Mine - Lone Star Claim Disc Shaft", "description": "4 source record(s) merged within 75m | src: MILO", "marker-color": "#000000", "marker-symbol": "circle"}}, {"type": "Feature", "geometry": {"type": "Point", "coordinates": [-122.35189307116187, 44.21839123090086]}, "properties": {"title": "Mine - Idaho Claim Cut No.1", "description": "4 source record(s) merged within 75m | src: MILO", "marker-color": "#000000", "marker-symbol": "circle"}}, {"type": "Feature", "geometry": {"type": "Point", "coordinates": [-122.35362405707012, 44.21953046360341]}, "properties": {"title": "Mine - Idaho Claim Tunnel No.7", "description": "4 source record(s) merged within 75m | src: MILO", "marker-color": "#000000", "marker-symbol": "circle"}}, {"type": "Feature", "geometry": {"type": "Point", "coordinates": [-122.35754496764307, 44.21540864087808]}, "properties": {"title": "Mine - The Badger Claim Shaft", "description": "4 source record(s) merged within 75m | src: MILO", "marker-color": "#000000", "marker-symbol": "circle"}}, {"type": "Feature", "geometry": {"type": "Point", "coordinates": [-122.38020251929967, 44.20787398363464]}, "properties": {"title": "Mine - Reaf Claim, Cut", "description": "4 source record(s) merged within 75m | src: MILO", "marker-color": "#000000", "marker-symbol": "circle"}}, {"type": "Feature", "geometry": {"type": "Point", "coordinates": [-122.35887042637788, 44.21560768472524]}, "properties": {"title": "Mine - Amelia Claim (Open Cut No.5)", "description": "4 source record(s) merged within 75m | src: MILO", "marker-color": "#000000", "marker-symbol": "circle"}}, {"type": "Feature", "geometry": {"type": "Point", "coordinates": [-122.3603692786462, 44.213119301555764]}, "properties": {"title": "Pit - Blue River", "description": "3 source record(s) merged within 75m | src: MILO, USMIN", "marker-color": "#000000", "marker-symbol": "circle"}}, {"type": "Feature", "geometry": {"type": "Point", "coordinates": [-122.32843505825663, 44.2362523788216]}, "properties": {"title": "Mine - Great Eastern, Disc. Cut and Tunnel", "description": "3 source record(s) merged within 75m | src: MILO", "marker-color": "#000000", "marker-symbol": "circle"}}, {"type": "Feature", "geometry": {"type": "Point", "coordinates": [-122.34561723976293, 44.22748165770334]}, "properties": {"title": "Mine - unnamed or NA", "description": "3 source record(s) merged within 75m | src: MILO", "marker-color": "#000000", "marker-symbol": "circle"}}, {"type": "Feature", "geometry": {"type": "Point", "coordinates": [-122.34913744871828, 44.20853640478587]}, "properties": {"title": "Mine - S.P. Claim Tunnel and Cut No.4", "description": "3 source record(s) merged within 75m | src: MILO", "marker-color": "#000000", "marker-symbol": "circle"}}, {"type": "Feature", "geometry": {"type": "Point", "coordinates": [-122.35450818232391, 44.21382477136018]}, "properties": {"title": "Mine - Sunset Claim Cut and Tunnel No.4", "description": "3 source record(s) merged within 75m | src: MILO", "marker-color": "#000000", "marker-symbol": "circle"}}, {"type": "Feature", "geometry": {"type": "Point", "coordinates": [-122.35390576131273, 44.21577216821911]}, "properties": {"title": "Mine - Sun Claim Tunnel No.5", "description": "3 source record(s) merged within 75m | src: MILO", "marker-color": "#000000", "marker-symbol": "circle"}}, {"type": "Feature", "geometry": {"type": "Point", "coordinates": [-122.35669027107242, 44.21914670999894]}, "properties": {"title": "Mine - Dewey Claim Tunnel No.3", "description": "3 source record(s) merged within 75m | src: MILO", "marker-color": "#000000", "marker-symbol": "circle"}}, {"type": "Feature", "geometry": {"type": "Point", "coordinates": [-122.35444962928652, 44.21974674841642]}, "properties": {"title": "Mine - Geneva Claim Tunnel No.2", "description": "3 source record(s) merged within 75m | src: MILO", "marker-color": "#000000", "marker-symbol": "circle"}}, {"type": "Feature", "geometry": {"type": "Point", "coordinates": [-122.35852430010807, 44.21718917877885]}, "properties": {"title": "Mine - The Badger Claim Tunnel No.1", "description": "3 source record(s) merged within 75m | src: MILO", "marker-color": "#000000", "marker-symbol": "circle"}}, {"type": "Feature", "geometry": {"type": "Point", "coordinates": [-122.32953418641652, 44.22791882130517]}, "properties": {"title": "Mine - Chief Claim, Disc. Cut", "description": "3 source record(s) merged within 75m | src: MILO", "marker-color": "#000000", "marker-symbol": "circle"}}, {"type": "Feature", "geometry": {"type": "Point", "coordinates": [-122.35864733095197, 44.21463258488811]}, "properties": {"title": "Mine - Open Cut No.6 (Crede No.2 Claim)", "description": "3 source record(s) merged within 75m | src: MILO", "marker-color": "#000000", "marker-symbol": "circle"}}, {"type": "Feature", "geometry": {"type": "Point", "coordinates": [-122.36565921921488, 44.22121831968683]}, "properties": {"title": "Mine - Poorman", "description": "2 source record(s) merged within 75m | src: MILO", "marker-color": "#000000", "marker-symbol": "circle"}}, {"type": "Feature", "geometry": {"type": "Point", "coordinates": [-122.35582292951382, 44.22495195057069]}, "properties": {"title": "Mine - unnamed or NA", "description": "2 source record(s) merged within 75m | src: MILO", "marker-color": "#000000", "marker-symbol": "circle"}}, {"type": "Feature", "geometry": {"type": "Point", "coordinates": [-122.3587697378018, 44.211667155322985]}, "properties": {"title": "Mine - Treasure", "description": "2 source record(s) merged within 75m | src: MILO", "marker-color": "#000000", "marker-symbol": "circle"}}, {"type": "Feature", "geometry": {"type": "Point", "coordinates": [-122.34557674982419, 44.22882400274415]}, "properties": {"title": "Mine - unnamed or NA", "description": "2 source record(s) merged within 75m | src: MILO", "marker-color": "#000000", "marker-symbol": "circle"}}, {"type": "Feature", "geometry": {"type": "Point", "coordinates": [-122.35928329096015, 44.21230696376219]}, "properties": {"title": "Mine - Eavning Claim Disc Cut", "description": "2 source record(s) merged within 75m | src: MILO", "marker-color": "#000000", "marker-symbol": "circle"}}, {"type": "Feature", "geometry": {"type": "Point", "coordinates": [-122.34361643634118, 44.21017620740534]}, "properties": {"title": "Mine - Boodle Claim Cut No.1", "description": "2 source record(s) merged within 75m | src: MILO", "marker-color": "#000000", "marker-symbol": "circle"}}, {"type": "Feature", "geometry": {"type": "Point", "coordinates": [-122.35589565543742, 44.20403637140531]}, "properties": {"title": "Mine - Top Claim Shaft", "description": "2 source record(s) merged within 75m | src: MILO", "marker-color": "#000000", "marker-symbol": "circle"}}, {"type": "Feature", "geometry": {"type": "Point", "coordinates": [-122.35236605357197, 44.21036860272965]}, "properties": {"title": "Mine - Shovel Blade Claim Disc. Cut and Tunnel No.4", "description": "2 source record(s) merged within 75m | src: MILO", "marker-color": "#000000", "marker-symbol": "circle"}}, {"type": "Feature", "geometry": {"type": "Point", "coordinates": [-122.353539913878, 44.21096596741454]}, "properties": {"title": "Mine - Shovel Blade Claim Disc. Cut and Tunnel No.1", "description": "2 source record(s) merged within 75m | src: MILO", "marker-color": "#000000", "marker-symbol": "circle"}}, {"type": "Feature", "geometry": {"type": "Point", "coordinates": [-122.35531838131658, 44.209129194618875]}, "properties": {"title": "Mine - Havilla Claim Cut", "description": "2 source record(s) merged within 75m | src: MILO", "marker-color": "#000000", "marker-symbol": "circle"}}, {"type": "Feature", "geometry": {"type": "Point", "coordinates": [-122.35316692172677, 44.21339689553958]}, "properties": {"title": "Mine - Sunset Claim Tunnel No.2", "description": "2 source record(s) merged within 75m | src: MILO", "marker-color": "#000000", "marker-symbol": "circle"}}, {"type": "Feature", "geometry": {"type": "Point", "coordinates": [-122.35132516493759, 44.212878258500666]}, "properties": {"title": "Mine - Yankee Girl Tunnel No.3", "description": "2 source record(s) merged within 75m | src: MILO", "marker-color": "#000000", "marker-symbol": "circle"}}, {"type": "Feature", "geometry": {"type": "Point", "coordinates": [-122.35224946539796, 44.21469198021276]}, "properties": {"title": "Mine - Yankee Girl Disc. Cut No.1", "description": "2 source record(s) merged within 75m | src: MILO", "marker-color": "#000000", "marker-symbol": "circle"}}, {"type": "Feature", "geometry": {"type": "Point", "coordinates": [-122.35519152509117, 44.21753177479009]}, "properties": {"title": "Mine - Sun Claim Tunnel No.5", "description": "2 source record(s) merged within 75m | src: MILO", "marker-color": "#000000", "marker-symbol": "circle"}}, {"type": "Feature", "geometry": {"type": "Point", "coordinates": [-122.35546910981193, 44.21632479219663]}, "properties": {"title": "Mine - Sun Claim Cut No.5", "description": "2 source record(s) merged within 75m | src: MILO", "marker-color": "#000000", "marker-symbol": "circle"}}, {"type": "Feature", "geometry": {"type": "Point", "coordinates": [-122.35914334086249, 44.22637197593751]}, "properties": {"title": "Mine - unnamed or NA", "description": "2 source record(s) merged within 75m | src: MILO", "marker-color": "#000000", "marker-symbol": "circle"}}, {"type": "Feature", "geometry": {"type": "Point", "coordinates": [-122.35818596484893, 44.22863765109483]}, "properties": {"title": "Mine - unnamed or NA", "description": "2 source record(s) merged within 75m | src: MILO", "marker-color": "#000000", "marker-symbol": "circle"}}, {"type": "Feature", "geometry": {"type": "Point", "coordinates": [-122.34247499615165, 44.202342149022265]}, "properties": {"title": "Mine - unnamed or NA", "description": "2 source record(s) merged within 75m | src: MILO", "marker-color": "#000000", "marker-symbol": "circle"}}, {"type": "Feature", "geometry": {"type": "Point", "coordinates": [-122.36695958947692, 44.203888467226136]}, "properties": {"title": "Mine - unnamed or NA", "description": "2 source record(s) merged within 75m | src: MILO", "marker-color": "#000000", "marker-symbol": "circle"}}, {"type": "Feature", "geometry": {"type": "Point", "coordinates": [-122.36596156282373, 44.2092879371819]}, "properties": {"title": "Mine - Lucky Dog Strike Claim", "description": "2 source record(s) merged within 75m | src: MILO", "marker-color": "#000000", "marker-symbol": "circle"}}, {"type": "Feature", "geometry": {"type": "Point", "coordinates": [-122.36649574141379, 44.20811258094261]}, "properties": {"title": "Mine - Lucky Dog Strike Claim", "description": "2 source record(s) merged within 75m | src: MILO", "marker-color": "#000000", "marker-symbol": "circle"}}, {"type": "Feature", "geometry": {"type": "Point", "coordinates": [-122.33399122961032, 44.23824218794384]}, "properties": {"title": "Mine - unnamed or NA", "description": "2 source record(s) merged within 75m | src: MILO, MRDS", "marker-color": "#000000", "marker-symbol": "circle"}}, {"type": "Feature", "geometry": {"type": "Point", "coordinates": [-122.34357229534507, 44.241084876824495]}, "properties": {"title": "Mine - unnamed or NA", "description": "2 source record(s) merged within 75m | src: MILO", "marker-color": "#000000", "marker-symbol": "circle"}}, {"type": "Feature", "geometry": {"type": "Point", "coordinates": [-122.37467129797099, 44.22237244408185]}, "properties": {"title": "Mine - unnamed or NA", "description": "2 source record(s) merged within 75m | src: MILO", "marker-color": "#000000", "marker-symbol": "circle"}}, {"type": "Feature", "geometry": {"type": "Point", "coordinates": [-122.37945481189641, 44.21266264854532]}, "properties": {"title": "Mine - unnamed or NA", "description": "2 source record(s) merged within 75m | src: MILO", "marker-color": "#000000", "marker-symbol": "circle"}}, {"type": "Feature", "geometry": {"type": "Point", "coordinates": [-122.37737862608279, 44.20643201798801]}, "properties": {"title": "Mine - unnamed or NA", "description": "2 source record(s) merged within 75m | src: MILO", "marker-color": "#000000", "marker-symbol": "circle"}}, {"type": "Feature", "geometry": {"type": "Point", "coordinates": [-122.3791582337427, 44.2070909234462]}, "properties": {"title": "Mine - unnamed or NA", "description": "2 source record(s) merged within 75m | src: MILO", "marker-color": "#000000", "marker-symbol": "circle"}}, {"type": "Feature", "geometry": {"type": "Point", "coordinates": [-122.35190530322706, 44.20258913109483]}, "properties": {"title": "Mine - unnamed or NA", "description": "2 source record(s) merged within 75m | src: MILO", "marker-color": "#000000", "marker-symbol": "circle"}}, {"type": "Feature", "geometry": {"type": "Point", "coordinates": [-122.34404000534784, 44.21379443438733]}, "properties": {"title": "Mine - unnamed or NA", "description": "2 source record(s) merged within 75m | src: MILO", "marker-color": "#000000", "marker-symbol": "circle"}}, {"type": "Feature", "geometry": {"type": "Point", "coordinates": [-122.3434587928738, 44.21276335381083]}, "properties": {"title": "Mine - unnamed or NA", "description": "2 source record(s) merged within 75m | src: MILO", "marker-color": "#000000", "marker-symbol": "circle"}}, {"type": "Feature", "geometry": {"type": "Point", "coordinates": [-122.345734609725, 44.21759361631145]}, "properties": {"title": "Mine - Infinity Mine and Phantom Ridge Lode Claim", "description": "2 source record(s) merged within 75m | src: MILO", "marker-color": "#000000", "marker-symbol": "circle"}}, {"type": "Feature", "geometry": {"type": "Point", "coordinates": [-122.33630211029217, 44.208139734212]}, "properties": {"title": "Mine - unnamed or NA", "description": "2 source record(s) merged within 75m | src: MILO", "marker-color": "#000000", "marker-symbol": "circle"}}, {"type": "Feature", "geometry": {"type": "Point", "coordinates": [-122.34132960495245, 44.18108841052543]}, "properties": {"title": "Mine - unnamed or NA", "description": "2 source record(s) merged within 75m | src: MILO", "marker-color": "#000000", "marker-symbol": "circle"}}, {"type": "Feature", "geometry": {"type": "Point", "coordinates": [-122.33973756161333, 44.18088539594498]}, "properties": {"title": "Mine - unnamed or NA", "description": "2 source record(s) merged within 75m | src: MILO", "marker-color": "#000000", "marker-symbol": "circle"}}, {"type": "Feature", "geometry": {"type": "Point", "coordinates": [-122.33902489200005, 44.18138764358082]}, "properties": {"title": "Mine - unnamed or NA", "description": "2 source record(s) merged within 75m | src: MILO", "marker-color": "#000000", "marker-symbol": "circle"}}, {"type": "Feature", "geometry": {"type": "Point", "coordinates": [-122.37808000000001, 44.233035]}, "properties": {"title": "Mine - Pearl", "description": "2 source record(s) merged within 75m | src: MRDS", "marker-color": "#000000", "marker-symbol": "circle"}}, {"type": "Feature", "geometry": {"type": "Point", "coordinates": [-122.359475, 44.230635]}, "properties": {"title": "Mine - Red Buck", "description": "2 source record(s) merged within 75m | src: MRDS", "marker-color": "#000000", "marker-symbol": "circle"}}, {"type": "Feature", "geometry": {"type": "Point", "coordinates": [-122.39096844029537, 44.23434522090401]}, "properties": {"title": "Mine - Pearl", "description": "1 source record(s) merged within 75m | src: MILO", "marker-color": "#000000", "marker-symbol": "circle"}}, {"type": "Feature", "geometry": {"type": "Point", "coordinates": [-122.36425886795544, 44.216586467311316]}, "properties": {"title": "Mine - Evening", "description": "1 source record(s) merged within 75m | src: MILO", "marker-color": "#000000", "marker-symbol": "circle"}}, {"type": "Feature", "geometry": {"type": "Point", "coordinates": [-122.35908133852637, 44.23405345044306]}, "properties": {"title": "Mine - Red Buck", "description": "1 source record(s) merged within 75m | src: MILO", "marker-color": "#000000", "marker-symbol": "circle"}}, {"type": "Feature", "geometry": {"type": "Point", "coordinates": [-122.35423756199889, 44.228183032089625]}, "properties": {"title": "Mine - Sochwich", "description": "1 source record(s) merged within 75m | src: MILO", "marker-color": "#000000", "marker-symbol": "circle"}}, {"type": "Feature", "geometry": {"type": "Point", "coordinates": [-122.35700377914817, 44.236679812497925]}, "properties": {"title": "Mine - Higgins", "description": "1 source record(s) merged within 75m | src: MILO", "marker-color": "#000000", "marker-symbol": "circle"}}, {"type": "Feature", "geometry": {"type": "Point", "coordinates": [-122.35272218726227, 44.23755325714831]}, "properties": {"title": "Mine - Everlasting Jack", "description": "1 source record(s) merged within 75m | src: MILO", "marker-color": "#000000", "marker-symbol": "circle"}}, {"type": "Feature", "geometry": {"type": "Point", "coordinates": [-122.343567586392, 44.232781703217526]}, "properties": {"title": "Mine - Great Northern (upper adit)", "description": "1 source record(s) merged within 75m | src: MILO", "marker-color": "#000000", "marker-symbol": "circle"}}, {"type": "Feature", "geometry": {"type": "Point", "coordinates": [-122.3349868779756, 44.23784071493497]}, "properties": {"title": "Mine - Treadwell", "description": "1 source record(s) merged within 75m | src: MILO", "marker-color": "#000000", "marker-symbol": "circle"}}, {"type": "Feature", "geometry": {"type": "Point", "coordinates": [-122.36618041458641, 44.2113280740362]}, "properties": {"title": "Mine - Durango", "description": "1 source record(s) merged within 75m | src: MILO", "marker-color": "#000000", "marker-symbol": "circle"}}, {"type": "Feature", "geometry": {"type": "Point", "coordinates": [-122.32774912180739, 44.230457508075546]}, "properties": {"title": "Mine - Tate Property, Cut Shaft", "description": "1 source record(s) merged within 75m | src: MILO", "marker-color": "#000000", "marker-symbol": "circle"}}, {"type": "Feature", "geometry": {"type": "Point", "coordinates": [-122.35094392812424, 44.21450560100469]}, "properties": {"title": "Mine - Gold Dollar Claim", "description": "1 source record(s) merged within 75m | src: MILO", "marker-color": "#000000", "marker-symbol": "circle"}}, {"type": "Feature", "geometry": {"type": "Point", "coordinates": [-122.33480512569656, 44.208465621039004]}, "properties": {"title": "Mine - Lucky Girl", "description": "1 source record(s) merged within 75m | src: MILO", "marker-color": "#000000", "marker-symbol": "circle"}}, {"type": "Feature", "geometry": {"type": "Point", "coordinates": [-122.32537345532666, 44.19862681864238]}, "properties": {"title": "Mine - Tri-Metals", "description": "1 source record(s) merged within 75m | src: MILO", "marker-color": "#000000", "marker-symbol": "circle"}}, {"type": "Feature", "geometry": {"type": "Point", "coordinates": [-122.31178693441609, 44.18855856311318]}, "properties": {"title": "Mine - Great Western", "description": "1 source record(s) merged within 75m | src: MILO", "marker-color": "#000000", "marker-symbol": "circle"}}, {"type": "Feature", "geometry": {"type": "Point", "coordinates": [-122.30348015682249, 44.18404495712099]}, "properties": {"title": "Mine - Jry Group", "description": "1 source record(s) merged within 75m | src: MILO", "marker-color": "#000000", "marker-symbol": "circle"}}, {"type": "Feature", "geometry": {"type": "Point", "coordinates": [-122.34405164653334, 44.23364851130969]}, "properties": {"title": "Mine - Great Northern (lower adit)", "description": "1 source record(s) merged within 75m | src: MILO", "marker-color": "#000000", "marker-symbol": "circle"}}, {"type": "Feature", "geometry": {"type": "Point", "coordinates": [-122.34897304949712, 44.23084783670116]}, "properties": {"title": "Mine - unnamed or NA", "description": "1 source record(s) merged within 75m | src: MILO", "marker-color": "#000000", "marker-symbol": "circle"}}, {"type": "Feature", "geometry": {"type": "Point", "coordinates": [-122.34840432454646, 44.230280476243706]}, "properties": {"title": "Mine - unnamed or NA", "description": "1 source record(s) merged within 75m | src: MILO", "marker-color": "#000000", "marker-symbol": "circle"}}, {"type": "Feature", "geometry": {"type": "Point", "coordinates": [-122.34381222363956, 44.228031753273385]}, "properties": {"title": "Mine - unnamed or NA", "description": "1 source record(s) merged within 75m | src: MILO", "marker-color": "#000000", "marker-symbol": "circle"}}, {"type": "Feature", "geometry": {"type": "Point", "coordinates": [-122.34444378353507, 44.2274617117575]}, "properties": {"title": "Mine - unnamed or NA", "description": "1 source record(s) merged within 75m | src: MILO", "marker-color": "#000000", "marker-symbol": "circle"}}, {"type": "Feature", "geometry": {"type": "Point", "coordinates": [-122.34275321873612, 44.226159691316724]}, "properties": {"title": "Mine - unnamed or NA", "description": "1 source record(s) merged within 75m | src: MILO", "marker-color": "#000000", "marker-symbol": "circle"}}, {"type": "Feature", "geometry": {"type": "Point", "coordinates": [-122.35867202936781, 44.20591252213539]}, "properties": {"title": "Mine - Leonard Claim Cut 5", "description": "1 source record(s) merged within 75m | src: MILO", "marker-color": "#000000", "marker-symbol": "circle"}}, {"type": "Feature", "geometry": {"type": "Point", "coordinates": [-122.3607001278434, 44.207632857389456]}, "properties": {"title": "Mine - Leonard Claim Discovery Cut", "description": "1 source record(s) merged within 75m | src: MILO", "marker-color": "#000000", "marker-symbol": "circle"}}, {"type": "Feature", "geometry": {"type": "Point", "coordinates": [-122.36280205270714, 44.209799827791535]}, "properties": {"title": "Mine - Durango Claim Cut No.3", "description": "1 source record(s) merged within 75m | src: MILO", "marker-color": "#000000", "marker-symbol": "circle"}}, {"type": "Feature", "geometry": {"type": "Point", "coordinates": [-122.34239396115983, 44.21157291854067]}, "properties": {"title": "Mine - Lucky Boy Disc. Cut and Tunnel No.1", "description": "1 source record(s) merged within 75m | src: MILO", "marker-color": "#000000", "marker-symbol": "circle"}}, {"type": "Feature", "geometry": {"type": "Point", "coordinates": [-122.34500387430035, 44.20987386602572]}, "properties": {"title": "Mine - Lucky Queen Claim Cut and Tunnel No.?", "description": "1 source record(s) merged within 75m | src: MILO", "marker-color": "#000000", "marker-symbol": "circle"}}, {"type": "Feature", "geometry": {"type": "Point", "coordinates": [-122.34791229930514, 44.20761126694419]}, "properties": {"title": "Mine - S.P. Claim Tunnel and Cut No.8", "description": "1 source record(s) merged within 75m | src: MILO", "marker-color": "#000000", "marker-symbol": "circle"}}, {"type": "Feature", "geometry": {"type": "Point", "coordinates": [-122.34698570438832, 44.20790023195892]}, "properties": {"title": "Mine - S.P. Claim Shaft No.5", "description": "1 source record(s) merged within 75m | src: MILO", "marker-color": "#000000", "marker-symbol": "circle"}}, {"type": "Feature", "geometry": {"type": "Point", "coordinates": [-122.34958280840618, 44.20947575798455]}, "properties": {"title": "Mine - Lucky Queen Claim Tunnel and Cut No.2", "description": "1 source record(s) merged within 75m | src: MILO", "marker-color": "#000000", "marker-symbol": "circle"}}, {"type": "Feature", "geometry": {"type": "Point", "coordinates": [-122.346073299385, 44.21017937553383]}, "properties": {"title": "Mine - Lucky Queen Claim Tunnel and Cut No.3", "description": "1 source record(s) merged within 75m | src: MILO", "marker-color": "#000000", "marker-symbol": "circle"}}, {"type": "Feature", "geometry": {"type": "Point", "coordinates": [-122.34718561303623, 44.21375054753593]}, "properties": {"title": "Mine - Louise Claim Disc. Cut", "description": "1 source record(s) merged within 75m | src: MILO", "marker-color": "#000000", "marker-symbol": "circle"}}, {"type": "Feature", "geometry": {"type": "Point", "coordinates": [-122.3498948927873, 44.21649277391532]}, "properties": {"title": "Mine - Louise Claim Tunnel", "description": "1 source record(s) merged within 75m | src: MILO", "marker-color": "#000000", "marker-symbol": "circle"}}, {"type": "Feature", "geometry": {"type": "Point", "coordinates": [-122.34958888451055, 44.213544866670325]}, "properties": {"title": "Mine - Gold Dollar Claim Disc. Cut", "description": "1 source record(s) merged within 75m | src: MILO", "marker-color": "#000000", "marker-symbol": "circle"}}, {"type": "Feature", "geometry": {"type": "Point", "coordinates": [-122.3683518902706, 44.220424610823585]}, "properties": {"title": "Mine - Golconda Claim Tunnel", "description": "1 source record(s) merged within 75m | src: MILO", "marker-color": "#000000", "marker-symbol": "circle"}}, {"type": "Feature", "geometry": {"type": "Point", "coordinates": [-122.3694404832463, 44.22054079309961]}, "properties": {"title": "Mine - Golconda Claim Tunnel", "description": "1 source record(s) merged within 75m | src: MILO", "marker-color": "#000000", "marker-symbol": "circle"}}, {"type": "Feature", "geometry": {"type": "Point", "coordinates": [-122.36289888021396, 44.21673731652262]}, "properties": {"title": "Mine - The Helena Claim Disc. Cut", "description": "1 source record(s) merged within 75m | src: MILO", "marker-color": "#000000", "marker-symbol": "circle"}}, {"type": "Feature", "geometry": {"type": "Point", "coordinates": [-122.36591124904551, 44.21578283322494]}, "properties": {"title": "Mine - Red Boy Claim Cut", "description": "1 source record(s) merged within 75m | src: MILO", "marker-color": "#000000", "marker-symbol": "circle"}}, {"type": "Feature", "geometry": {"type": "Point", "coordinates": [-122.36233697353107, 44.21416202955647]}, "properties": {"title": "Mine - Eavning Claim Cut No.4", "description": "1 source record(s) merged within 75m | src: MILO", "marker-color": "#000000", "marker-symbol": "circle"}}, {"type": "Feature", "geometry": {"type": "Point", "coordinates": [-122.35343599698177, 44.206231147001766]}, "properties": {"title": "Mine - Oro Fino Claim Disc. Cut", "description": "1 source record(s) merged within 75m | src: MILO", "marker-color": "#000000", "marker-symbol": "circle"}}, {"type": "Feature", "geometry": {"type": "Point", "coordinates": [-122.35305234649505, 44.207488090427255]}, "properties": {"title": "Mine - Oro Fino Claim Cross Cut and Tunnel", "description": "1 source record(s) merged within 75m | src: MILO", "marker-color": "#000000", "marker-symbol": "circle"}}, {"type": "Feature", "geometry": {"type": "Point", "coordinates": [-122.35433124713462, 44.20795152165633]}, "properties": {"title": "Mine - Oro Fino Claim Tunnel", "description": "1 source record(s) merged within 75m | src: MILO", "marker-color": "#000000", "marker-symbol": "circle"}}, {"type": "Feature", "geometry": {"type": "Point", "coordinates": [-122.35514328041195, 44.21092204950723]}, "properties": {"title": "Mine - Lone Star Claim Cut", "description": "1 source record(s) merged within 75m | src: MILO", "marker-color": "#000000", "marker-symbol": "circle"}}, {"type": "Feature", "geometry": {"type": "Point", "coordinates": [-122.35433349997496, 44.209130609355405]}, "properties": {"title": "Mine - Havilla Claim Disc. Cut and Tunnel", "description": "1 source record(s) merged within 75m | src: MILO", "marker-color": "#000000", "marker-symbol": "circle"}}, {"type": "Feature", "geometry": {"type": "Point", "coordinates": [-122.35431770095826, 44.21010403972065]}, "properties": {"title": "Mine - Havilla Claim Tunnel Level No.4", "description": "1 source record(s) merged within 75m | src: MILO", "marker-color": "#000000", "marker-symbol": "circle"}}, {"type": "Feature", "geometry": {"type": "Point", "coordinates": [-122.35154630002883, 44.2138037714687]}, "properties": {"title": "Mine - Yankee Girl Tunnel No.6", "description": "1 source record(s) merged within 75m | src: MILO", "marker-color": "#000000", "marker-symbol": "circle"}}, {"type": "Feature", "geometry": {"type": "Point", "coordinates": [-122.3520554944639, 44.21593958582469]}, "properties": {"title": "Mine - Yankee Girl Tunnel No.5", "description": "1 source record(s) merged within 75m | src: MILO", "marker-color": "#000000", "marker-symbol": "circle"}}, {"type": "Feature", "geometry": {"type": "Point", "coordinates": [-122.353797224313, 44.22093083028303]}, "properties": {"title": "Mine - Grubstake Claim Disc. Cut and Tunnel No.1", "description": "1 source record(s) merged within 75m | src: MILO", "marker-color": "#000000", "marker-symbol": "circle"}}, {"type": "Feature", "geometry": {"type": "Point", "coordinates": [-122.35417441098694, 44.21748822731059]}, "properties": {"title": "Mine - Dewey Claim Disc. Cut and Tunnel No.1", "description": "1 source record(s) merged within 75m | src: MILO", "marker-color": "#000000", "marker-symbol": "circle"}}, {"type": "Feature", "geometry": {"type": "Point", "coordinates": [-122.35979322733698, 44.222349041606115]}, "properties": {"title": "Mine - Huckleberry Claim Cut No.4", "description": "1 source record(s) merged within 75m | src: MILO", "marker-color": "#000000", "marker-symbol": "circle"}}, {"type": "Feature", "geometry": {"type": "Point", "coordinates": [-122.3581707050498, 44.22000506810749]}, "properties": {"title": "Mine - Huckleberry Claim Shaft No.3", "description": "1 source record(s) merged within 75m | src: MILO", "marker-color": "#000000", "marker-symbol": "circle"}}, {"type": "Feature", "geometry": {"type": "Point", "coordinates": [-122.35841726640575, 44.221339315971676]}, "properties": {"title": "Mine - Huckleberry Claim Tunnel No.2", "description": "1 source record(s) merged within 75m | src: MILO", "marker-color": "#000000", "marker-symbol": "circle"}}, {"type": "Feature", "geometry": {"type": "Point", "coordinates": [-122.35788444981056, 44.21648807958257]}, "properties": {"title": "Mine - The Badger Claim Tunnel No.3", "description": "1 source record(s) merged within 75m | src: MILO", "marker-color": "#000000", "marker-symbol": "circle"}}, {"type": "Feature", "geometry": {"type": "Point", "coordinates": [-122.362021522667, 44.21789888958072]}, "properties": {"title": "Mine - Yamhill Claim", "description": "1 source record(s) merged within 75m | src: MILO", "marker-color": "#000000", "marker-symbol": "circle"}}, {"type": "Feature", "geometry": {"type": "Point", "coordinates": [-122.36194472566812, 44.21861483579287]}, "properties": {"title": "Mine - Yamhill Claim", "description": "1 source record(s) merged within 75m | src: MILO", "marker-color": "#000000", "marker-symbol": "circle"}}, {"type": "Feature", "geometry": {"type": "Point", "coordinates": [-122.36070915368644, 44.21956170230474]}, "properties": {"title": "Mine - Southern Pacific Claim", "description": "1 source record(s) merged within 75m | src: MILO", "marker-color": "#000000", "marker-symbol": "circle"}}, {"type": "Feature", "geometry": {"type": "Point", "coordinates": [-122.33016357630015, 44.22929581954335]}, "properties": {"title": "Mine - Chief Claim, Cut and Shaft", "description": "1 source record(s) merged within 75m | src: MILO", "marker-color": "#000000", "marker-symbol": "circle"}}, {"type": "Feature", "geometry": {"type": "Point", "coordinates": [-122.32908220253452, 44.22650145673698]}, "properties": {"title": "Mine - Chief Claim, Cut", "description": "1 source record(s) merged within 75m | src: MILO", "marker-color": "#000000", "marker-symbol": "circle"}}, {"type": "Feature", "geometry": {"type": "Point", "coordinates": [-122.33267827669243, 44.23309664778665]}, "properties": {"title": "Mine - Cinderella Cut", "description": "1 source record(s) merged within 75m | src: MILO", "marker-color": "#000000", "marker-symbol": "circle"}}, {"type": "Feature", "geometry": {"type": "Point", "coordinates": [-122.329965152792, 44.2305494307075]}, "properties": {"title": "Mine - Cinderella Cut", "description": "1 source record(s) merged within 75m | src: MILO", "marker-color": "#000000", "marker-symbol": "circle"}}, {"type": "Feature", "geometry": {"type": "Point", "coordinates": [-122.35685066612474, 44.223526700214606]}, "properties": {"title": "Mine - unnamed or NA", "description": "1 source record(s) merged within 75m | src: MILO", "marker-color": "#000000", "marker-symbol": "circle"}}, {"type": "Feature", "geometry": {"type": "Point", "coordinates": [-122.35846355101225, 44.225037042073765]}, "properties": {"title": "Mine - unnamed or NA", "description": "1 source record(s) merged within 75m | src: MILO", "marker-color": "#000000", "marker-symbol": "circle"}}, {"type": "Feature", "geometry": {"type": "Point", "coordinates": [-122.35822327467369, 44.22371877278766]}, "properties": {"title": "Mine - unnamed or NA", "description": "1 source record(s) merged within 75m | src: MILO", "marker-color": "#000000", "marker-symbol": "circle"}}, {"type": "Feature", "geometry": {"type": "Point", "coordinates": [-122.33623606963464, 44.225237848046824]}, "properties": {"title": "Mine - Rialto", "description": "1 source record(s) merged within 75m | src: MILO", "marker-color": "#000000", "marker-symbol": "circle"}}, {"type": "Feature", "geometry": {"type": "Point", "coordinates": [-122.3429078230569, 44.203344661306666]}, "properties": {"title": "Mine - unnamed or NA", "description": "1 source record(s) merged within 75m | src: MILO", "marker-color": "#000000", "marker-symbol": "circle"}}, {"type": "Feature", "geometry": {"type": "Point", "coordinates": [-122.38099363952662, 44.20854854728287]}, "properties": {"title": "Mine - Reaf Claim, Cut", "description": "1 source record(s) merged within 75m | src: MILO", "marker-color": "#000000", "marker-symbol": "circle"}}, {"type": "Feature", "geometry": {"type": "Point", "coordinates": [-122.37381375105744, 44.20962860296085]}, "properties": {"title": "Mine - unnamed or NA", "description": "1 source record(s) merged within 75m | src: MILO", "marker-color": "#000000", "marker-symbol": "circle"}}, {"type": "Feature", "geometry": {"type": "Point", "coordinates": [-122.37147722100048, 44.208954627440995]}, "properties": {"title": "Mine - Lucky Dog Strike Claim", "description": "1 source record(s) merged within 75m | src: MILO", "marker-color": "#000000", "marker-symbol": "circle"}}, {"type": "Feature", "geometry": {"type": "Point", "coordinates": [-122.36803353329155, 44.210552405928475]}, "properties": {"title": "Mine - unnamed or NA", "description": "1 source record(s) merged within 75m | src: MILO", "marker-color": "#000000", "marker-symbol": "circle"}}, {"type": "Feature", "geometry": {"type": "Point", "coordinates": [-122.36707428887655, 44.20881233400734]}, "properties": {"title": "Mine - Lucky Dog Strike Claim", "description": "1 source record(s) merged within 75m | src: MILO", "marker-color": "#000000", "marker-symbol": "circle"}}, {"type": "Feature", "geometry": {"type": "Point", "coordinates": [-122.36805058984885, 44.20851619712161]}, "properties": {"title": "Mine - Lucky Dog Strike Claim", "description": "1 source record(s) merged within 75m | src: MILO", "marker-color": "#000000", "marker-symbol": "circle"}}, {"type": "Feature", "geometry": {"type": "Point", "coordinates": [-122.36093658065242, 44.210899429653985]}, "properties": {"title": "Mine - unnamed or NA", "description": "1 source record(s) merged within 75m | src: MILO", "marker-color": "#000000", "marker-symbol": "circle"}}, {"type": "Feature", "geometry": {"type": "Point", "coordinates": [-122.36617995497903, 44.220494353012924]}, "properties": {"title": "Mine - unnamed or NA", "description": "1 source record(s) merged within 75m | src: MILO", "marker-color": "#000000", "marker-symbol": "circle"}}, {"type": "Feature", "geometry": {"type": "Point", "coordinates": [-122.33095286995005, 44.23323153341649]}, "properties": {"title": "Mine - Cinderella Cut", "description": "1 source record(s) merged within 75m | src: MILO", "marker-color": "#000000", "marker-symbol": "circle"}}, {"type": "Feature", "geometry": {"type": "Point", "coordinates": [-122.36790093312705, 44.221699052414706]}, "properties": {"title": "Mine - unnamed or NA", "description": "1 source record(s) merged within 75m | src: MILO", "marker-color": "#000000", "marker-symbol": "circle"}}, {"type": "Feature", "geometry": {"type": "Point", "coordinates": [-122.36512410479226, 44.20600092542172]}, "properties": {"title": "Mine - Lucky Dog Strike Claim", "description": "1 source record(s) merged within 75m | src: MILO", "marker-color": "#000000", "marker-symbol": "circle"}}, {"type": "Feature", "geometry": {"type": "Point", "coordinates": [-122.36912028535272, 44.22254387306804]}, "properties": {"title": "Mine - unnamed or NA", "description": "1 source record(s) merged within 75m | src: MILO", "marker-color": "#000000", "marker-symbol": "circle"}}, {"type": "Feature", "geometry": {"type": "Point", "coordinates": [-122.35070045513561, 44.207363767046466]}, "properties": {"title": "Mine - unnamed or NA", "description": "1 source record(s) merged within 75m | src: MILO", "marker-color": "#000000", "marker-symbol": "circle"}}, {"type": "Feature", "geometry": {"type": "Point", "coordinates": [-122.35280680492491, 44.217019627213105]}, "properties": {"title": "Mine - unnamed or NA", "description": "1 source record(s) merged within 75m | src: MILO", "marker-color": "#000000", "marker-symbol": "circle"}}, {"type": "Feature", "geometry": {"type": "Point", "coordinates": [-122.33201390280276, 44.23027495745254]}, "properties": {"title": "SCOUT 1 - Placer bench", "description": "open pit mine (placer (heuristic: surface workings)) | agency: USFS | 90m to stream | cluster: 8 nearby | src: MILO", "marker-color": "#ff3300", "marker-symbol": "circle"}}, {"type": "Feature", "geometry": {"type": "Point", "coordinates": [-122.33845, 44.226261]}, "properties": {"title": "SCOUT 2 - Lode/unknown outcrop", "description": "USMIN Adit | agency: USFS | 79m to stream | cluster: 7 nearby | src: USMIN", "marker-color": "#ff3300", "marker-symbol": "circle"}}, {"type": "Feature", "geometry": {"type": "Point", "coordinates": [-122.353866, 44.224547]}, "properties": {"title": "SCOUT 3 - Lode/unknown outcrop", "description": "USMIN Adit | agency: USFS | 63m to stream | cluster: 6 nearby | src: USMIN", "marker-color": "#ff3300", "marker-symbol": "circle"}}, {"type": "Feature", "geometry": {"type": "Point", "coordinates": [-122.372081, 44.205812]}, "properties": {"title": "SCOUT 4 - Lode/unknown outcrop", "description": "USMIN Adit | agency: USFS | 20m to stream | cluster: 5 nearby | src: USMIN", "marker-color": "#ff3300", "marker-symbol": "circle"}}, {"type": "Feature", "geometry": {"type": "Point", "coordinates": [-122.34563758079679, 44.228850475131004]}, "properties": {"title": "SCOUT 5 - Lode/unknown outcrop", "description": "unnamed or NA (lode) | agency: USFS | 105m to stream | cluster: 9 nearby | src: MILO", "marker-color": "#ff3300", "marker-symbol": "circle"}}, {"type": "Feature", "geometry": {"type": "Point", "coordinates": [-122.34444378353507, 44.2274617117575]}, "properties": {"title": "SCOUT 6 - Lode/unknown outcrop", "description": "unnamed or NA (lode) | agency: USFS | 23m to stream | cluster: 8 nearby | src: MILO", "marker-color": "#ff3300", "marker-symbol": "circle"}}, {"type": "Feature", "geometry": {"type": "Point", "coordinates": [-122.33016357630015, 44.22929581954335]}, "properties": {"title": "SCOUT 7 - Lode/unknown outcrop", "description": "Chief Claim, Cut and Shaft (lode) | agency: USFS | 89m to stream | cluster: 8 nearby | src: MILO", "marker-color": "#ff3300", "marker-symbol": "circle"}}, {"type": "Feature", "geometry": {"type": "Point", "coordinates": [-122.34275321873612, 44.226159691316724]}, "properties": {"title": "SCOUT 8 - Lode/unknown outcrop", "description": "unnamed or NA (lode) | agency: USFS | 127m to stream | cluster: 8 nearby | src: MILO", "marker-color": "#ff3300", "marker-symbol": "circle"}}, {"type": "Feature", "geometry": {"type": "Point", "coordinates": [-122.37933627101955, 44.206961430642984]}, "properties": {"title": "SCOUT 9 - Lode/unknown outcrop", "description": "unnamed or NA (lode) | agency: USFS | 12m to stream | cluster: 7 nearby | src: MILO", "marker-color": "#ff3300", "marker-symbol": "circle"}}]}