<?xml version="1.0" encoding="UTF-8"?><kml xmlns="http://www.opengis.net/kml/2.2"><Document><name>cowcreek Scout candidates</name><Style id="s0"><IconStyle><color>ff0033ff</color><scale>1.0</scale><Icon><href>http://maps.google.com/mapfiles/kml/shapes/placemark_circle.png</href></Icon></IconStyle></Style><Folder><name>Scout candidates</name><Placemark><name>SCOUT 1 - Placer bench</name><description>Gilbert Eri prospect (placer (heuristic: surface workings)) | agency: BLM | 141m to stream | cluster: 0 nearby | src: MILO</description><styleUrl>#s0</styleUrl><Point><coordinates>-123.257577,42.716239,0</coordinates></Point></Placemark><Placemark><name>SCOUT 2 - Placer bench</name><description>USMIN Prospect Pit | agency: BLM | 128m to stream | cluster: 7 nearby | src: USMIN</description><styleUrl>#s0</styleUrl><Point><coordinates>-123.385877,42.862185,0</coordinates></Point></Placemark><Placemark><name>SCOUT 3 - Placer bench</name><description>USMIN Prospect Pit | agency: BLM | 5m to stream | cluster: 6 nearby | src: USMIN</description><styleUrl>#s0</styleUrl><Point><coordinates>-123.608403,42.698004,0</coordinates></Point></Placemark><Placemark><name>SCOUT 4 - Lode/unknown outcrop</name><description>USMIN Adit | agency: BLM | 8m to stream | cluster: 5 nearby | src: USMIN</description><styleUrl>#s0</styleUrl><Point><coordinates>-123.577453,42.713288,0</coordinates></Point></Placemark><Placemark><name>SCOUT 5 - Lode/unknown outcrop</name><description>USMIN Adit | agency: BLM | 72m to stream | cluster: 3 nearby | src: USMIN</description><styleUrl>#s0</styleUrl><Point><coordinates>-123.318084,42.682230,0</coordinates></Point></Placemark><Placemark><name>SCOUT 6 - Placer bench</name><description>USMIN Prospect Pit | agency: BLM | 5m to stream | cluster: 2 nearby | src: USMIN</description><styleUrl>#s0</styleUrl><Point><coordinates>-123.603354,42.718559,0</coordinates></Point></Placemark><Placemark><name>SCOUT 7 - Lode/unknown outcrop</name><description>USMIN Adit | agency: BLM | 48m to stream | cluster: 2 nearby | src: USMIN</description><styleUrl>#s0</styleUrl><Point><coordinates>-123.261517,42.707526,0</coordinates></Point></Placemark><Placemark><name>SCOUT 8 - Placer bench</name><description>USMIN Prospect Pit | agency: BLM | 59m to stream | cluster: 2 nearby | src: USMIN</description><styleUrl>#s0</styleUrl><Point><coordinates>-123.393184,42.844941,0</coordinates></Point></Placemark><Placemark><name>SCOUT 9 - Placer bench</name><description>USMIN Prospect Pit | agency: BLM | 27m to stream | cluster: 1 nearby | src: USMIN</description><styleUrl>#s0</styleUrl><Point><coordinates>-123.211119,42.694977,0</coordinates></Point></Placemark><Placemark><name>SCOUT 10 - Lode/unknown outcrop</name><description>USMIN Adit | agency: BLM | 46m to stream | cluster: 1 nearby | src: USMIN</description><styleUrl>#s0</styleUrl><Point><coordinates>-123.326234,42.895894,0</coordinates></Point></Placemark></Folder></Document></kml>