<?xml version="1.0" encoding="UTF-8"?>
<gpx xmlns:xsi="http://www.w3.org/2001/XMLSchema-instance" xmlns="http://www.topografix.com/GPX/1/1" xmlns:onx="http://www.onxmaps.com" xsi:schemaLocation="http://www.topografix.com/GPX/1/1 http://www.topografix.com/GPX/1/1/gpx.xsd" version="1.1" creator="onXmaps hunt ios"><wpt lat="42.749749" lon="-123.532303"><name>Placer - Victory</name><desc>4 source record(s) merged within 75m | src: MILO, USMIN</desc><extensions><onx:icon>Mineral Site</onx:icon><onx:color>rgba(0, 0, 0, 1)</onx:color></extensions></wpt><wpt lat="42.685890" lon="-123.383985"><name>Placer - Wolf Creek placers</name><desc>3 source record(s) merged within 75m | src: MILO, MRDS, USMIN</desc><extensions><onx:icon>Mineral Site</onx:icon><onx:color>rgba(0, 0, 0, 1)</onx:color></extensions></wpt><wpt lat="42.913435" lon="-123.443101"><name>Placer - Hackler and Heights pl…</name><desc>3 source record(s) merged within 75m | src: MILO, MRDS</desc><extensions><onx:icon>Mineral Site</onx:icon><onx:color>rgba(0, 0, 0, 1)</onx:color></extensions></wpt><wpt lat="42.750070" lon="-123.527927"><name>Placer - open pit mine</name><desc>2 source record(s) merged within 75m | src: MILO, USMIN</desc><extensions><onx:icon>Mineral Site</onx:icon><onx:color>rgba(0, 0, 0, 1)</onx:color></extensions></wpt><wpt lat="42.711799" lon="-123.310341"><name>Placer - Speaker placer</name><desc>2 source record(s) merged within 75m | src: MILO, USMIN</desc><extensions><onx:icon>Mineral Site</onx:icon><onx:color>rgba(0, 0, 0, 1)</onx:color></extensions></wpt><wpt lat="42.797045" lon="-123.165877"><name>Placer - Whitehorse placer</name><desc>2 source record(s) merged within 75m | src: MILO, MRDS</desc><extensions><onx:icon>Mineral Site</onx:icon><onx:color>rgba(0, 0, 0, 1)</onx:color></extensions></wpt><wpt lat="42.770401" lon="-123.185313"><name>Placer - Hogum Creek</name><desc>2 source record(s) merged within 75m | src: MILO, MRDS</desc><extensions><onx:icon>Mineral Site</onx:icon><onx:color>rgba(0, 0, 0, 1)</onx:color></extensions></wpt><wpt lat="42.734835" lon="-123.263092"><name>Placer - Tennesse Gulch</name><desc>2 source record(s) merged within 75m | src: MILO, MRDS</desc><extensions><onx:icon>Mineral Site</onx:icon><onx:color>rgba(0, 0, 0, 1)</onx:color></extensions></wpt><wpt lat="42.708440" lon="-123.160349"><name>Placer - Last Chance Group plac…</name><desc>2 source record(s) merged within 75m | src: MILO, MRDS</desc><extensions><onx:icon>Mineral Site</onx:icon><onx:color>rgba(0, 0, 0, 1)</onx:color></extensions></wpt><wpt lat="42.685669" lon="-123.351159"><name>Placer - Glendale</name><desc>1 source record(s) merged within 75m | src: USMIN</desc><extensions><onx:icon>Mineral Site</onx:icon><onx:color>rgba(0, 0, 0, 1)</onx:color></extensions></wpt><wpt lat="42.913179" lon="-123.432857"><name>Placer - Hackler Height placer</name><desc>1 source record(s) merged within 75m | src: MILO</desc><extensions><onx:icon>Mineral Site</onx:icon><onx:color>rgba(0, 0, 0, 1)</onx:color></extensions></wpt><wpt lat="42.758144" lon="-123.534312"><name>Placer - Oregon M and P Co.</name><desc>1 source record(s) merged within 75m | src: MILO</desc><extensions><onx:icon>Mineral Site</onx:icon><onx:color>rgba(0, 0, 0, 1)</onx:color></extensions></wpt><wpt lat="42.755128" lon="-123.242299"><name>Placer - Bull Run placers</name><desc>1 source record(s) merged within 75m | src: MILO</desc><extensions><onx:icon>Mineral Site</onx:icon><onx:color>rgba(0, 0, 0, 1)</onx:color></extensions></wpt><wpt lat="42.715446" lon="-123.341789"><name>Placer - Gilliam Placer</name><desc>1 source record(s) merged within 75m | src: MILO</desc><extensions><onx:icon>Mineral Site</onx:icon><onx:color>rgba(0, 0, 0, 1)</onx:color></extensions></wpt><wpt lat="42.716239" lon="-123.257577"><name>Placer - Gilbert Eri prospect</name><desc>1 source record(s) merged within 75m | src: MILO</desc><extensions><onx:icon>Mineral Site</onx:icon><onx:color>rgba(0, 0, 0, 1)</onx:color></extensions></wpt><wpt lat="42.752259" lon="-123.532755"><name>Placer - Tuller Placer</name><desc>1 source record(s) merged within 75m | src: MILO</desc><extensions><onx:icon>Mineral Site</onx:icon><onx:color>rgba(0, 0, 0, 1)</onx:color></extensions></wpt><wpt lat="42.696253" lon="-123.203944"><name>Shaft - King Mountain</name><desc>9 source record(s) merged within 75m | src: MILO, USMIN</desc><extensions><onx:icon>Location</onx:icon><onx:color>rgba(0, 0, 0, 1)</onx:color></extensions></wpt><wpt lat="42.699500" lon="-123.278420"><name>Adit - Golden</name><desc>7 source record(s) merged within 75m | src: MILO, USMIN</desc><extensions><onx:icon>Location</onx:icon><onx:color>rgba(0, 0, 0, 1)</onx:color></extensions></wpt><wpt lat="42.736101" lon="-123.174632"><name>Shaft - King Mountain</name><desc>6 source record(s) merged within 75m | src: MILO, USMIN</desc><extensions><onx:icon>Location</onx:icon><onx:color>rgba(0, 0, 0, 1)</onx:color></extensions></wpt><wpt lat="42.696195" lon="-123.205159"><name>Adit - King Mountain</name><desc>6 source record(s) merged within 75m | src: MILO, USMIN</desc><extensions><onx:icon>Location</onx:icon><onx:color>rgba(0, 0, 0, 1)</onx:color></extensions></wpt><wpt lat="42.693914" lon="-123.273825"><name>Adit - Golden</name><desc>6 source record(s) merged within 75m | src: MILO, USMIN</desc><extensions><onx:icon>Location</onx:icon><onx:color>rgba(0, 0, 0, 1)</onx:color></extensions></wpt><wpt lat="42.691078" lon="-123.606663"><name>Adit - Mount Reuben</name><desc>5 source record(s) merged within 75m | src: MILO, USMIN</desc><extensions><onx:icon>Location</onx:icon><onx:color>rgba(0, 0, 0, 1)</onx:color></extensions></wpt><wpt lat="42.713623" lon="-123.577207"><name>Adit - Mount Reuben</name><desc>5 source record(s) merged within 75m | src: MILO, USMIN</desc><extensions><onx:icon>Location</onx:icon><onx:color>rgba(0, 0, 0, 1)</onx:color></extensions></wpt><wpt lat="42.697163" lon="-123.270227"><name>Adit - Golden</name><desc>5 source record(s) merged within 75m | src: MILO, USMIN</desc><extensions><onx:icon>Location</onx:icon><onx:color>rgba(0, 0, 0, 1)</onx:color></extensions></wpt><wpt lat="42.719460" lon="-123.235825"><name>Adit - King Mountain</name><desc>5 source record(s) merged within 75m | src: MILO, USMIN</desc><extensions><onx:icon>Location</onx:icon><onx:color>rgba(0, 0, 0, 1)</onx:color></extensions></wpt><wpt lat="42.692012" lon="-123.274287"><name>Adit - Golden</name><desc>5 source record(s) merged within 75m | src: MILO, USMIN</desc><extensions><onx:icon>Location</onx:icon><onx:color>rgba(0, 0, 0, 1)</onx:color></extensions></wpt><wpt lat="42.910134" lon="-123.313716"><name>Adit - Canyonville</name><desc>4 source record(s) merged within 75m | src: MILO, USMIN</desc><extensions><onx:icon>Location</onx:icon><onx:color>rgba(0, 0, 0, 1)</onx:color></extensions></wpt><wpt lat="42.890779" lon="-123.335898"><name>Adit - Canyonville</name><desc>4 source record(s) merged within 75m | src: MILO, USMIN</desc><extensions><onx:icon>Location</onx:icon><onx:color>rgba(0, 0, 0, 1)</onx:color></extensions></wpt><wpt lat="42.712690" lon="-123.202203"><name>Adit - King Mountain</name><desc>4 source record(s) merged within 75m | src: MILO, USMIN</desc><extensions><onx:icon>Location</onx:icon><onx:color>rgba(0, 0, 0, 1)</onx:color></extensions></wpt><wpt lat="42.682708" lon="-123.623458"><name>Shaft - Mount Reuben</name><desc>4 source record(s) merged within 75m | src: MILO, USMIN</desc><extensions><onx:icon>Location</onx:icon><onx:color>rgba(0, 0, 0, 1)</onx:color></extensions></wpt><wpt lat="42.681994" lon="-123.629213"><name>Adit - Bunker Creek</name><desc>4 source record(s) merged within 75m | src: MILO, USMIN</desc><extensions><onx:icon>Location</onx:icon><onx:color>rgba(0, 0, 0, 1)</onx:color></extensions></wpt><wpt lat="42.732819" lon="-123.200972"><name>Adit - King Mountain</name><desc>4 source record(s) merged within 75m | src: MILO, USMIN</desc><extensions><onx:icon>Location</onx:icon><onx:color>rgba(0, 0, 0, 1)</onx:color></extensions></wpt><wpt lat="42.682441" lon="-123.317769"><name>Adit - Golden</name><desc>4 source record(s) merged within 75m | src: MILO, USMIN</desc><extensions><onx:icon>Location</onx:icon><onx:color>rgba(0, 0, 0, 1)</onx:color></extensions></wpt><wpt lat="42.855598" lon="-123.382985"><name>Adit - Mc Cullough Creek</name><desc>3 source record(s) merged within 75m | src: MILO, USMIN</desc><extensions><onx:icon>Location</onx:icon><onx:color>rgba(0, 0, 0, 1)</onx:color></extensions></wpt><wpt lat="42.907820" lon="-123.316711"><name>Adit - Canyonville</name><desc>3 source record(s) merged within 75m | src: MILO, USMIN</desc><extensions><onx:icon>Location</onx:icon><onx:color>rgba(0, 0, 0, 1)</onx:color></extensions></wpt><wpt lat="42.698242" lon="-123.608158"><name>Adit - Mount Reuben</name><desc>3 source record(s) merged within 75m | src: MILO, USMIN</desc><extensions><onx:icon>Location</onx:icon><onx:color>rgba(0, 0, 0, 1)</onx:color></extensions></wpt><wpt lat="42.680543" lon="-123.631310"><name>Adit - Bunker Creek</name><desc>3 source record(s) merged within 75m | src: MILO, USMIN</desc><extensions><onx:icon>Location</onx:icon><onx:color>rgba(0, 0, 0, 1)</onx:color></extensions></wpt><wpt lat="42.691642" lon="-123.323019"><name>Adit - Golden</name><desc>3 source record(s) merged within 75m | src: MILO, USMIN</desc><extensions><onx:icon>Location</onx:icon><onx:color>rgba(0, 0, 0, 1)</onx:color></extensions></wpt><wpt lat="42.684992" lon="-123.295983"><name>Adit - Golden</name><desc>3 source record(s) merged within 75m | src: MILO, USMIN</desc><extensions><onx:icon>Location</onx:icon><onx:color>rgba(0, 0, 0, 1)</onx:color></extensions></wpt><wpt lat="42.707611" lon="-123.261324"><name>Adit - Golden</name><desc>3 source record(s) merged within 75m | src: MILO, USMIN</desc><extensions><onx:icon>Location</onx:icon><onx:color>rgba(0, 0, 0, 1)</onx:color></extensions></wpt><wpt lat="42.690314" lon="-123.272755"><name>Adit - Glendale</name><desc>3 source record(s) merged within 75m | src: MILO, USMIN</desc><extensions><onx:icon>Location</onx:icon><onx:color>rgba(0, 0, 0, 1)</onx:color></extensions></wpt><wpt lat="42.684027" lon="-123.285458"><name>Adit - Golden</name><desc>3 source record(s) merged within 75m | src: MILO, USMIN</desc><extensions><onx:icon>Location</onx:icon><onx:color>rgba(0, 0, 0, 1)</onx:color></extensions></wpt><wpt lat="42.903750" lon="-123.321170"><name>Shaft - Canyonville</name><desc>2 source record(s) merged within 75m | src: MILO, USMIN</desc><extensions><onx:icon>Location</onx:icon><onx:color>rgba(0, 0, 0, 1)</onx:color></extensions></wpt><wpt lat="42.841770" lon="-123.288206"><name>Adit - Quines Creek</name><desc>2 source record(s) merged within 75m | src: USMIN</desc><extensions><onx:icon>Location</onx:icon><onx:color>rgba(0, 0, 0, 1)</onx:color></extensions></wpt><wpt lat="42.895786" lon="-123.326073"><name>Adit - Canyonville</name><desc>2 source record(s) merged within 75m | src: MILO, USMIN</desc><extensions><onx:icon>Location</onx:icon><onx:color>rgba(0, 0, 0, 1)</onx:color></extensions></wpt><wpt lat="42.890947" lon="-123.337155"><name>Adit - Canyonville</name><desc>2 source record(s) merged within 75m | src: USMIN</desc><extensions><onx:icon>Location</onx:icon><onx:color>rgba(0, 0, 0, 1)</onx:color></extensions></wpt><wpt lat="42.905592" lon="-123.316470"><name>Adit - Canyonville</name><desc>2 source record(s) merged within 75m | src: MILO, USMIN</desc><extensions><onx:icon>Location</onx:icon><onx:color>rgba(0, 0, 0, 1)</onx:color></extensions></wpt><wpt lat="42.910745" lon="-123.314513"><name>Adit - Canyonville</name><desc>2 source record(s) merged within 75m | src: MILO, USMIN</desc><extensions><onx:icon>Location</onx:icon><onx:color>rgba(0, 0, 0, 1)</onx:color></extensions></wpt><wpt lat="42.905285" lon="-123.318056"><name>Adit - Canyonville</name><desc>2 source record(s) merged within 75m | src: MILO, USMIN</desc><extensions><onx:icon>Location</onx:icon><onx:color>rgba(0, 0, 0, 1)</onx:color></extensions></wpt><wpt lat="42.782810" lon="-123.157526"><name>Adit - Starvout Creek</name><desc>2 source record(s) merged within 75m | src: MILO, USMIN</desc><extensions><onx:icon>Location</onx:icon><onx:color>rgba(0, 0, 0, 1)</onx:color></extensions></wpt><wpt lat="42.711920" lon="-123.210818"><name>Adit - King Mountain</name><desc>2 source record(s) merged within 75m | src: MILO, USMIN</desc><extensions><onx:icon>Location</onx:icon><onx:color>rgba(0, 0, 0, 1)</onx:color></extensions></wpt><wpt lat="42.697089" lon="-123.609193"><name>Adit - Mount Reuben</name><desc>2 source record(s) merged within 75m | src: MILO, USMIN</desc><extensions><onx:icon>Location</onx:icon><onx:color>rgba(0, 0, 0, 1)</onx:color></extensions></wpt><wpt lat="42.732942" lon="-123.204565"><name>Adit - King Mountain</name><desc>2 source record(s) merged within 75m | src: USMIN</desc><extensions><onx:icon>Location</onx:icon><onx:color>rgba(0, 0, 0, 1)</onx:color></extensions></wpt><wpt lat="42.704754" lon="-123.193567"><name>Adit - King Mountain</name><desc>2 source record(s) merged within 75m | src: USMIN</desc><extensions><onx:icon>Location</onx:icon><onx:color>rgba(0, 0, 0, 1)</onx:color></extensions></wpt><wpt lat="42.680821" lon="-123.314562"><name>Shaft - Golden</name><desc>2 source record(s) merged within 75m | src: MILO, USMIN</desc><extensions><onx:icon>Location</onx:icon><onx:color>rgba(0, 0, 0, 1)</onx:color></extensions></wpt><wpt lat="42.694624" lon="-123.273681"><name>Adit - Golden</name><desc>2 source record(s) merged within 75m | src: MILO, USMIN</desc><extensions><onx:icon>Location</onx:icon><onx:color>rgba(0, 0, 0, 1)</onx:color></extensions></wpt><wpt lat="42.686245" lon="-123.286778"><name>Adit - Golden</name><desc>2 source record(s) merged within 75m | src: MILO, USMIN</desc><extensions><onx:icon>Location</onx:icon><onx:color>rgba(0, 0, 0, 1)</onx:color></extensions></wpt><wpt lat="42.689655" lon="-123.273749"><name>Adit - Golden</name><desc>2 source record(s) merged within 75m | src: MILO, USMIN</desc><extensions><onx:icon>Location</onx:icon><onx:color>rgba(0, 0, 0, 1)</onx:color></extensions></wpt><wpt lat="42.697311" lon="-123.267468"><name>Adit - Glendale</name><desc>2 source record(s) merged within 75m | src: MRDS, USMIN</desc><extensions><onx:icon>Location</onx:icon><onx:color>rgba(0, 0, 0, 1)</onx:color></extensions></wpt><wpt lat="42.698111" lon="-123.268145"><name>Adit - Golden</name><desc>2 source record(s) merged within 75m | src: MILO, USMIN</desc><extensions><onx:icon>Location</onx:icon><onx:color>rgba(0, 0, 0, 1)</onx:color></extensions></wpt><wpt lat="42.695879" lon="-123.270769"><name>Adit - Glendale</name><desc>2 source record(s) merged within 75m | src: USMIN</desc><extensions><onx:icon>Location</onx:icon><onx:color>rgba(0, 0, 0, 1)</onx:color></extensions></wpt><wpt lat="42.688434" lon="-123.325898"><name>Adit - Golden</name><desc>2 source record(s) merged within 75m | src: MILO, USMIN</desc><extensions><onx:icon>Location</onx:icon><onx:color>rgba(0, 0, 0, 1)</onx:color></extensions></wpt><wpt lat="42.680185" lon="-123.315668"><name>Adit - Glendale</name><desc>2 source record(s) merged within 75m | src: USMIN</desc><extensions><onx:icon>Location</onx:icon><onx:color>rgba(0, 0, 0, 1)</onx:color></extensions></wpt><wpt lat="42.685308" lon="-123.290490"><name>Adit - Glendale</name><desc>2 source record(s) merged within 75m | src: MILO, USMIN</desc><extensions><onx:icon>Location</onx:icon><onx:color>rgba(0, 0, 0, 1)</onx:color></extensions></wpt><wpt lat="42.854358" lon="-123.383629"><name>Adit - Mc Cullough Creek</name><desc>1 source record(s) merged within 75m | src: USMIN</desc><extensions><onx:icon>Location</onx:icon><onx:color>rgba(0, 0, 0, 1)</onx:color></extensions></wpt><wpt lat="42.904434" lon="-123.315843"><name>Adit - Canyonville</name><desc>1 source record(s) merged within 75m | src: USMIN</desc><extensions><onx:icon>Location</onx:icon><onx:color>rgba(0, 0, 0, 1)</onx:color></extensions></wpt><wpt lat="42.904506" lon="-123.318425"><name>Adit - Canyonville</name><desc>1 source record(s) merged within 75m | src: USMIN</desc><extensions><onx:icon>Location</onx:icon><onx:color>rgba(0, 0, 0, 1)</onx:color></extensions></wpt><wpt lat="42.696587" lon="-123.188709"><name>Shaft - King Mountain</name><desc>1 source record(s) merged within 75m | src: USMIN</desc><extensions><onx:icon>Location</onx:icon><onx:color>rgba(0, 0, 0, 1)</onx:color></extensions></wpt><wpt lat="42.707028" lon="-123.200342"><name>Adit - King Mountain</name><desc>1 source record(s) merged within 75m | src: USMIN</desc><extensions><onx:icon>Location</onx:icon><onx:color>rgba(0, 0, 0, 1)</onx:color></extensions></wpt><wpt lat="42.711507" lon="-123.202796"><name>Adit - Wimer</name><desc>1 source record(s) merged within 75m | src: USMIN</desc><extensions><onx:icon>Location</onx:icon><onx:color>rgba(0, 0, 0, 1)</onx:color></extensions></wpt><wpt lat="42.701769" lon="-123.264406"><name>Adit - Glendale</name><desc>1 source record(s) merged within 75m | src: USMIN</desc><extensions><onx:icon>Location</onx:icon><onx:color>rgba(0, 0, 0, 1)</onx:color></extensions></wpt><wpt lat="42.699583" lon="-123.277093"><name>Adit - Glendale</name><desc>1 source record(s) merged within 75m | src: USMIN</desc><extensions><onx:icon>Location</onx:icon><onx:color>rgba(0, 0, 0, 1)</onx:color></extensions></wpt><wpt lat="42.696328" lon="-123.269692"><name>Adit - Glendale</name><desc>1 source record(s) merged within 75m | src: USMIN</desc><extensions><onx:icon>Location</onx:icon><onx:color>rgba(0, 0, 0, 1)</onx:color></extensions></wpt><wpt lat="42.691395" lon="-123.274217"><name>Adit - Glendale</name><desc>1 source record(s) merged within 75m | src: USMIN</desc><extensions><onx:icon>Location</onx:icon><onx:color>rgba(0, 0, 0, 1)</onx:color></extensions></wpt><wpt lat="42.691934" lon="-123.276901"><name>Adit - Glendale</name><desc>1 source record(s) merged within 75m | src: USMIN</desc><extensions><onx:icon>Location</onx:icon><onx:color>rgba(0, 0, 0, 1)</onx:color></extensions></wpt><wpt lat="42.691468" lon="-123.324180"><name>Adit - Glendale</name><desc>1 source record(s) merged within 75m | src: USMIN</desc><extensions><onx:icon>Location</onx:icon><onx:color>rgba(0, 0, 0, 1)</onx:color></extensions></wpt><wpt lat="42.689840" lon="-123.325581"><name>Adit - Glendale</name><desc>1 source record(s) merged within 75m | src: USMIN</desc><extensions><onx:icon>Location</onx:icon><onx:color>rgba(0, 0, 0, 1)</onx:color></extensions></wpt><wpt lat="42.684228" lon="-123.277868"><name>Adit - Glendale</name><desc>1 source record(s) merged within 75m | src: USMIN</desc><extensions><onx:icon>Location</onx:icon><onx:color>rgba(0, 0, 0, 1)</onx:color></extensions></wpt><wpt lat="42.684909" lon="-123.286051"><name>Adit - Glendale</name><desc>1 source record(s) merged within 75m | src: USMIN</desc><extensions><onx:icon>Location</onx:icon><onx:color>rgba(0, 0, 0, 1)</onx:color></extensions></wpt><wpt lat="42.680831" lon="-123.610152"><name>Pit - Mount Reuben</name><desc>12 source record(s) merged within 75m | src: MILO, USMIN</desc><extensions><onx:icon>Location</onx:icon><onx:color>rgba(0, 0, 0, 1)</onx:color></extensions></wpt><wpt lat="42.862411" lon="-123.384445"><name>Pit - Mc Cullough Creek</name><desc>4 source record(s) merged within 75m | src: MILO, USMIN</desc><extensions><onx:icon>Location</onx:icon><onx:color>rgba(0, 0, 0, 1)</onx:color></extensions></wpt><wpt lat="42.861971" lon="-123.386202"><name>Pit - Mc Cullough Creek</name><desc>4 source record(s) merged within 75m | src: MILO, USMIN</desc><extensions><onx:icon>Location</onx:icon><onx:color>rgba(0, 0, 0, 1)</onx:color></extensions></wpt><wpt lat="42.721466" lon="-123.595074"><name>Pit - Mount Reuben</name><desc>3 source record(s) merged within 75m | src: MILO, USMIN</desc><extensions><onx:icon>Location</onx:icon><onx:color>rgba(0, 0, 0, 1)</onx:color></extensions></wpt><wpt lat="42.718618" lon="-123.603405"><name>Pit - Mount Reuben</name><desc>3 source record(s) merged within 75m | src: MILO, USMIN</desc><extensions><onx:icon>Location</onx:icon><onx:color>rgba(0, 0, 0, 1)</onx:color></extensions></wpt><wpt lat="42.717332" lon="-123.263630"><name>Pit - Golden</name><desc>3 source record(s) merged within 75m | src: MILO, USMIN</desc><extensions><onx:icon>Location</onx:icon><onx:color>rgba(0, 0, 0, 1)</onx:color></extensions></wpt><wpt lat="42.710841" lon="-123.270636"><name>Pit - Golden</name><desc>3 source record(s) merged within 75m | src: MILO, USMIN</desc><extensions><onx:icon>Location</onx:icon><onx:color>rgba(0, 0, 0, 1)</onx:color></extensions></wpt><wpt lat="42.690259" lon="-123.270601"><name>Pit - Golden</name><desc>3 source record(s) merged within 75m | src: MILO, USMIN</desc><extensions><onx:icon>Location</onx:icon><onx:color>rgba(0, 0, 0, 1)</onx:color></extensions></wpt><wpt lat="42.858260" lon="-123.395272"><name>Mine - prospect</name><desc>3 source record(s) merged within 75m | src: MILO</desc><extensions><onx:icon>Location</onx:icon><onx:color>rgba(0, 0, 0, 1)</onx:color></extensions></wpt><wpt lat="42.856306" lon="-123.394648"><name>Mine - prospect</name><desc>3 source record(s) merged within 75m | src: MILO</desc><extensions><onx:icon>Location</onx:icon><onx:color>rgba(0, 0, 0, 1)</onx:color></extensions></wpt><wpt lat="42.857836" lon="-123.389765"><name>Mine - prospect</name><desc>3 source record(s) merged within 75m | src: MILO</desc><extensions><onx:icon>Location</onx:icon><onx:color>rgba(0, 0, 0, 1)</onx:color></extensions></wpt><wpt lat="42.772261" lon="-123.550464"><name>Pit - Rabbit Mountain</name><desc>2 source record(s) merged within 75m | src: MILO, USMIN</desc><extensions><onx:icon>Location</onx:icon><onx:color>rgba(0, 0, 0, 1)</onx:color></extensions></wpt><wpt lat="42.889199" lon="-123.346490"><name>Pit - Canyonville</name><desc>2 source record(s) merged within 75m | src: MILO, USMIN</desc><extensions><onx:icon>Location</onx:icon><onx:color>rgba(0, 0, 0, 1)</onx:color></extensions></wpt><wpt lat="42.915437" lon="-123.308934"><name>Pit - Canyonville</name><desc>2 source record(s) merged within 75m | src: MILO, USMIN</desc><extensions><onx:icon>Location</onx:icon><onx:color>rgba(0, 0, 0, 1)</onx:color></extensions></wpt><wpt lat="42.894754" lon="-123.335466"><name>Pit - Canyonville</name><desc>2 source record(s) merged within 75m | src: MILO, USMIN</desc><extensions><onx:icon>Location</onx:icon><onx:color>rgba(0, 0, 0, 1)</onx:color></extensions></wpt><wpt lat="42.916872" lon="-123.315515"><name>Pit - Canyonville</name><desc>2 source record(s) merged within 75m | src: MILO, USMIN</desc><extensions><onx:icon>Location</onx:icon><onx:color>rgba(0, 0, 0, 1)</onx:color></extensions></wpt><wpt lat="42.844944" lon="-123.393191"><name>Pit - Mc Cullough Creek</name><desc>2 source record(s) merged within 75m | src: MILO, USMIN</desc><extensions><onx:icon>Location</onx:icon><onx:color>rgba(0, 0, 0, 1)</onx:color></extensions></wpt><wpt lat="42.911504" lon="-123.307804"><name>Pit - Canyonville</name><desc>2 source record(s) merged within 75m | src: MILO, USMIN</desc><extensions><onx:icon>Location</onx:icon><onx:color>rgba(0, 0, 0, 1)</onx:color></extensions></wpt><wpt lat="42.740961" lon="-123.173325"><name>Pit - King Mountain</name><desc>2 source record(s) merged within 75m | src: MILO, USMIN</desc><extensions><onx:icon>Location</onx:icon><onx:color>rgba(0, 0, 0, 1)</onx:color></extensions></wpt><wpt lat="42.758612" lon="-123.228037"><name>Pit - Starvout Creek</name><desc>2 source record(s) merged within 75m | src: MILO, USMIN</desc><extensions><onx:icon>Location</onx:icon><onx:color>rgba(0, 0, 0, 1)</onx:color></extensions></wpt><wpt lat="42.698754" lon="-123.612118"><name>Pit - Mount Reuben</name><desc>2 source record(s) merged within 75m | src: MILO, USMIN</desc><extensions><onx:icon>Location</onx:icon><onx:color>rgba(0, 0, 0, 1)</onx:color></extensions></wpt><wpt lat="42.694954" lon="-123.211136"><name>Pit - King Mountain</name><desc>2 source record(s) merged within 75m | src: MILO, USMIN</desc><extensions><onx:icon>Location</onx:icon><onx:color>rgba(0, 0, 0, 1)</onx:color></extensions></wpt><wpt lat="42.704936" lon="-123.283891"><name>Pit - Golden</name><desc>2 source record(s) merged within 75m | src: MILO, USMIN</desc><extensions><onx:icon>Location</onx:icon><onx:color>rgba(0, 0, 0, 1)</onx:color></extensions></wpt><wpt lat="42.703082" lon="-123.263325"><name>Pit - Glendale</name><desc>2 source record(s) merged within 75m | src: MILO, USMIN</desc><extensions><onx:icon>Location</onx:icon><onx:color>rgba(0, 0, 0, 1)</onx:color></extensions></wpt><wpt lat="42.683632" lon="-123.288236"><name>Pit - Glendale</name><desc>2 source record(s) merged within 75m | src: MILO, USMIN</desc><extensions><onx:icon>Location</onx:icon><onx:color>rgba(0, 0, 0, 1)</onx:color></extensions></wpt><wpt lat="42.683073" lon="-123.288751"><name>Pit - Glendale</name><desc>2 source record(s) merged within 75m | src: MRDS, USMIN</desc><extensions><onx:icon>Location</onx:icon><onx:color>rgba(0, 0, 0, 1)</onx:color></extensions></wpt><wpt lat="42.751017" lon="-123.530442"><name>Pit - Rabbit Mountain</name><desc>2 source record(s) merged within 75m | src: MILO, USMIN</desc><extensions><onx:icon>Location</onx:icon><onx:color>rgba(0, 0, 0, 1)</onx:color></extensions></wpt><wpt lat="42.883151" lon="-123.123379"><name>Mine - Miller</name><desc>2 source record(s) merged within 75m | src: MILO, MRDS</desc><extensions><onx:icon>Location</onx:icon><onx:color>rgba(0, 0, 0, 1)</onx:color></extensions></wpt><wpt lat="42.774254" lon="-123.558101"><name>Mine - gold mine</name><desc>2 source record(s) merged within 75m | src: MILO, MRDS</desc><extensions><onx:icon>Location</onx:icon><onx:color>rgba(0, 0, 0, 1)</onx:color></extensions></wpt><wpt lat="42.758439" lon="-123.195061"><name>Mine - gold mine</name><desc>2 source record(s) merged within 75m | src: MILO, MRDS</desc><extensions><onx:icon>Location</onx:icon><onx:color>rgba(0, 0, 0, 1)</onx:color></extensions></wpt><wpt lat="42.764018" lon="-123.200213"><name>Mine - Miser</name><desc>2 source record(s) merged within 75m | src: MILO, MRDS</desc><extensions><onx:icon>Location</onx:icon><onx:color>rgba(0, 0, 0, 1)</onx:color></extensions></wpt><wpt lat="42.724831" lon="-123.424492"><name>Mine - Willis</name><desc>2 source record(s) merged within 75m | src: MILO, MRDS</desc><extensions><onx:icon>Location</onx:icon><onx:color>rgba(0, 0, 0, 1)</onx:color></extensions></wpt><wpt lat="42.746228" lon="-123.167562"><name>Mine - Puzzer</name><desc>2 source record(s) merged within 75m | src: MILO, MRDS</desc><extensions><onx:icon>Location</onx:icon><onx:color>rgba(0, 0, 0, 1)</onx:color></extensions></wpt><wpt lat="42.711518" lon="-123.155588"><name>Mine - gold mine</name><desc>2 source record(s) merged within 75m | src: MILO, MRDS</desc><extensions><onx:icon>Location</onx:icon><onx:color>rgba(0, 0, 0, 1)</onx:color></extensions></wpt><wpt lat="42.682334" lon="-123.174483"><name>Mine - gold mine</name><desc>2 source record(s) merged within 75m | src: MILO, MRDS</desc><extensions><onx:icon>Location</onx:icon><onx:color>rgba(0, 0, 0, 1)</onx:color></extensions></wpt><wpt lat="42.689014" lon="-123.679499"><name>Mine - gold prospect</name><desc>2 source record(s) merged within 75m | src: MILO, MRDS</desc><extensions><onx:icon>Location</onx:icon><onx:color>rgba(0, 0, 0, 1)</onx:color></extensions></wpt><wpt lat="42.681001" lon="-123.580447"><name>Mine - Lawrence Mine</name><desc>2 source record(s) merged within 75m | src: MILO</desc><extensions><onx:icon>Location</onx:icon><onx:color>rgba(0, 0, 0, 1)</onx:color></extensions></wpt><wpt lat="42.681756" lon="-123.348958"><name>Mine - gold mine</name><desc>2 source record(s) merged within 75m | src: MILO, MRDS</desc><extensions><onx:icon>Location</onx:icon><onx:color>rgba(0, 0, 0, 1)</onx:color></extensions></wpt><wpt lat="42.682911" lon="-123.361991"><name>Mine - gold mine</name><desc>2 source record(s) merged within 75m | src: MILO, MRDS</desc><extensions><onx:icon>Location</onx:icon><onx:color>rgba(0, 0, 0, 1)</onx:color></extensions></wpt><wpt lat="42.686228" lon="-123.325352"><name>Mine - Victor</name><desc>2 source record(s) merged within 75m | src: MILO, MRDS</desc><extensions><onx:icon>Location</onx:icon><onx:color>rgba(0, 0, 0, 1)</onx:color></extensions></wpt><wpt lat="42.858259" lon="-123.392540"><name>Mine - prospect</name><desc>2 source record(s) merged within 75m | src: MILO</desc><extensions><onx:icon>Location</onx:icon><onx:color>rgba(0, 0, 0, 1)</onx:color></extensions></wpt><wpt lat="42.861106" lon="-123.388872"><name>Mine - prospect</name><desc>2 source record(s) merged within 75m | src: MILO</desc><extensions><onx:icon>Location</onx:icon><onx:color>rgba(0, 0, 0, 1)</onx:color></extensions></wpt><wpt lat="42.696505" lon="-123.274230"><name>Mine - Gold Mine</name><desc>2 source record(s) merged within 75m | src: MRDS</desc><extensions><onx:icon>Location</onx:icon><onx:color>rgba(0, 0, 0, 1)</onx:color></extensions></wpt><wpt lat="42.717030" lon="-123.288070"><name>Mine - Wolf Creek Logging and M…</name><desc>2 source record(s) merged within 75m | src: MRDS</desc><extensions><onx:icon>Location</onx:icon><onx:color>rgba(0, 0, 0, 1)</onx:color></extensions></wpt><wpt lat="42.871922" lon="-123.269885"><name>Site - Quines Creek</name><desc>1 source record(s) merged within 75m | src: USMIN</desc><extensions><onx:icon>Location</onx:icon><onx:color>rgba(0, 0, 0, 1)</onx:color></extensions></wpt><wpt lat="42.709430" lon="-123.194452"><name>Site - King Mountain</name><desc>1 source record(s) merged within 75m | src: USMIN</desc><extensions><onx:icon>Location</onx:icon><onx:color>rgba(0, 0, 0, 1)</onx:color></extensions></wpt><wpt lat="42.695603" lon="-123.208023"><name>Site - King Mountain</name><desc>1 source record(s) merged within 75m | src: USMIN</desc><extensions><onx:icon>Location</onx:icon><onx:color>rgba(0, 0, 0, 1)</onx:color></extensions></wpt><wpt lat="42.956434" lon="-123.365280"><name>Site - Canyonville</name><desc>1 source record(s) merged within 75m | src: USMIN</desc><extensions><onx:icon>Location</onx:icon><onx:color>rgba(0, 0, 0, 1)</onx:color></extensions></wpt><wpt lat="42.681840" lon="-123.339127"><name>Site - Glendale</name><desc>1 source record(s) merged within 75m | src: USMIN</desc><extensions><onx:icon>Location</onx:icon><onx:color>rgba(0, 0, 0, 1)</onx:color></extensions></wpt><wpt lat="42.717475" lon="-123.285126"><name>Site - Glendale</name><desc>1 source record(s) merged within 75m | src: USMIN</desc><extensions><onx:icon>Location</onx:icon><onx:color>rgba(0, 0, 0, 1)</onx:color></extensions></wpt><wpt lat="42.712541" lon="-123.201048"><name>Site - King Mountain</name><desc>1 source record(s) merged within 75m | src: USMIN</desc><extensions><onx:icon>Location</onx:icon><onx:color>rgba(0, 0, 0, 1)</onx:color></extensions></wpt><wpt lat="42.967646" lon="-123.350293"><name>Site - Canyonville</name><desc>1 source record(s) merged within 75m | src: USMIN</desc><extensions><onx:icon>Location</onx:icon><onx:color>rgba(0, 0, 0, 1)</onx:color></extensions></wpt><wpt lat="42.955056" lon="-123.445904"><name>Site - Nickel Mtn.</name><desc>1 source record(s) merged within 75m | src: USMIN</desc><extensions><onx:icon>Location</onx:icon><onx:color>rgba(0, 0, 0, 1)</onx:color></extensions></wpt><wpt lat="42.933721" lon="-123.430841"><name>Site - Nickel Mtn.</name><desc>1 source record(s) merged within 75m | src: USMIN</desc><extensions><onx:icon>Location</onx:icon><onx:color>rgba(0, 0, 0, 1)</onx:color></extensions></wpt><wpt lat="42.735307" lon="-123.261355"><name>Site - Glendale</name><desc>1 source record(s) merged within 75m | src: USMIN</desc><extensions><onx:icon>Location</onx:icon><onx:color>rgba(0, 0, 0, 1)</onx:color></extensions></wpt><wpt lat="42.734995" lon="-123.259836"><name>Site - Glendale</name><desc>1 source record(s) merged within 75m | src: USMIN</desc><extensions><onx:icon>Location</onx:icon><onx:color>rgba(0, 0, 0, 1)</onx:color></extensions></wpt><wpt lat="42.686523" lon="-123.324388"><name>Site - Glendale</name><desc>1 source record(s) merged within 75m | src: USMIN</desc><extensions><onx:icon>Location</onx:icon><onx:color>rgba(0, 0, 0, 1)</onx:color></extensions></wpt><wpt lat="42.714923" lon="-123.342423"><name>Site - Glendale</name><desc>1 source record(s) merged within 75m | src: USMIN</desc><extensions><onx:icon>Location</onx:icon><onx:color>rgba(0, 0, 0, 1)</onx:color></extensions></wpt><wpt lat="42.904945" lon="-123.338190"><name>Mine - unnamed or NA</name><desc>1 source record(s) merged within 75m | src: MILO</desc><extensions><onx:icon>Location</onx:icon><onx:color>rgba(0, 0, 0, 1)</onx:color></extensions></wpt><wpt lat="42.760390" lon="-123.522425"><name>Mine - Douglas</name><desc>1 source record(s) merged within 75m | src: MILO</desc><extensions><onx:icon>Location</onx:icon><onx:color>rgba(0, 0, 0, 1)</onx:color></extensions></wpt><wpt lat="42.819565" lon="-123.445078"><name>Mine - Last Chance prospect</name><desc>1 source record(s) merged within 75m | src: MILO</desc><extensions><onx:icon>Location</onx:icon><onx:color>rgba(0, 0, 0, 1)</onx:color></extensions></wpt><wpt lat="42.788255" lon="-123.475730"><name>Mine - Grayback Mountain prospe…</name><desc>1 source record(s) merged within 75m | src: MILO</desc><extensions><onx:icon>Location</onx:icon><onx:color>rgba(0, 0, 0, 1)</onx:color></extensions></wpt><wpt lat="42.795428" lon="-123.437809"><name>Mine - gold mine</name><desc>1 source record(s) merged within 75m | src: MILO</desc><extensions><onx:icon>Location</onx:icon><onx:color>rgba(0, 0, 0, 1)</onx:color></extensions></wpt><wpt lat="42.792762" lon="-123.439581"><name>Mine - gold mine</name><desc>1 source record(s) merged within 75m | src: MILO</desc><extensions><onx:icon>Location</onx:icon><onx:color>rgba(0, 0, 0, 1)</onx:color></extensions></wpt><wpt lat="42.757627" lon="-123.249525"><name>Mine - Indiana</name><desc>1 source record(s) merged within 75m | src: MILO</desc><extensions><onx:icon>Location</onx:icon><onx:color>rgba(0, 0, 0, 1)</onx:color></extensions></wpt><wpt lat="42.751406" lon="-123.186234"><name>Mine - Mildred</name><desc>1 source record(s) merged within 75m | src: MILO</desc><extensions><onx:icon>Location</onx:icon><onx:color>rgba(0, 0, 0, 1)</onx:color></extensions></wpt><wpt lat="42.751516" lon="-123.180910"><name>Mine - Cloudy Day</name><desc>1 source record(s) merged within 75m | src: MILO</desc><extensions><onx:icon>Location</onx:icon><onx:color>rgba(0, 0, 0, 1)</onx:color></extensions></wpt><wpt lat="42.741239" lon="-123.154827"><name>Mine - Green Mountain prospect</name><desc>1 source record(s) merged within 75m | src: MILO</desc><extensions><onx:icon>Location</onx:icon><onx:color>rgba(0, 0, 0, 1)</onx:color></extensions></wpt><wpt lat="42.750959" lon="-123.241184"><name>Mine - Union Leader</name><desc>1 source record(s) merged within 75m | src: MILO</desc><extensions><onx:icon>Location</onx:icon><onx:color>rgba(0, 0, 0, 1)</onx:color></extensions></wpt><wpt lat="42.748739" lon="-123.202297"><name>Mine - Starve Out</name><desc>1 source record(s) merged within 75m | src: MILO</desc><extensions><onx:icon>Location</onx:icon><onx:color>rgba(0, 0, 0, 1)</onx:color></extensions></wpt><wpt lat="42.737348" lon="-123.247296"><name>Mine - Quartzmill</name><desc>1 source record(s) merged within 75m | src: MILO</desc><extensions><onx:icon>Location</onx:icon><onx:color>rgba(0, 0, 0, 1)</onx:color></extensions></wpt></gpx>