<?xml version="1.0" encoding="UTF-8"?><kml xmlns="http://www.opengis.net/kml/2.2"><Document><name>cowcreek My claims</name><Style id="s0"><LineStyle><color>ff00ffff</color><width>2</width></LineStyle><PolyStyle><color>4000ffff</color></PolyStyle></Style><Style id="s1"><IconStyle><color>ff00ffff</color><scale>1.0</scale><Icon><href>http://maps.google.com/mapfiles/kml/shapes/placemark_circle.png</href></Icon></IconStyle></Style><Folder><name>My claims</name><Placemark><name>WVM 3 Dads Creek</name><description>club: Willamette Valley Miners (WVM) | serial: ORMC159208 | acres: 40.0 | directions: not available (no club handbook source in this build) | boundary approx (BLM quarter-section)</description><styleUrl>#s0</styleUrl><Polygon><outerBoundaryIs><LinearRing><coordinates>-123.544517,42.770004,0 -123.544504,42.771790,0 -123.544480,42.775363,0 -123.539672,42.775318,0 -123.534863,42.775272,0 -123.534915,42.771756,0 -123.534940,42.769998,0 -123.534966,42.768240,0 -123.537357,42.768234,0 -123.538552,42.768231,0 -123.539747,42.768229,0 -123.542138,42.768223,0 -123.544529,42.768218,0 -123.544517,42.770004,0</coordinates></LinearRing></outerBoundaryIs></Polygon></Placemark><Placemark><name>WVM 3 Dads Creek</name><description>club: Willamette Valley Miners (WVM) | serial: ORMC159208 | acres: 40.0 | directions: not available (no club handbook source in this build) | boundary approx (BLM quarter-section)</description><styleUrl>#s1</styleUrl><Point><coordinates>-123.539722,42.771777,0</coordinates></Point></Placemark><Placemark><name>WVM 4 Dads Creek</name><description>club: Willamette Valley Miners (WVM) | serial: ORMC161475 | acres: 40.0 | directions: not available (no club handbook source in this build) | boundary approx (BLM quarter-section)</description><styleUrl>#s0</styleUrl><Polygon><outerBoundaryIs><LinearRing><coordinates>-123.515697,42.782235,0 -123.515656,42.784052,0 -123.515615,42.785870,0 -123.515532,42.789506,0 -123.513051,42.789466,0 -123.510570,42.789426,0 -123.505608,42.789345,0 -123.505674,42.785726,0 -123.505708,42.783917,0 -123.505741,42.782107,0 -123.508230,42.782139,0 -123.510719,42.782171,0 -123.513208,42.782203,0 -123.515697,42.782235,0</coordinates></LinearRing></outerBoundaryIs></Polygon></Placemark><Placemark><name>WVM 4 Dads Creek</name><description>club: Willamette Valley Miners (WVM) | serial: ORMC161475 | acres: 40.0 | directions: not available (no club handbook source in this build) | boundary approx (BLM quarter-section)</description><styleUrl>#s1</styleUrl><Point><coordinates>-123.510648,42.785796,0</coordinates></Point></Placemark><Placemark><name>WVM 5 Dads Creek</name><description>club: Willamette Valley Miners (WVM) | serial: ORMC161445 | acres: 40.0 | directions: not available (no club handbook source in this build) | boundary approx (BLM quarter-section)</description><styleUrl>#s0</styleUrl><Polygon><outerBoundaryIs><LinearRing><coordinates>-123.515697,42.782235,0 -123.515656,42.784052,0 -123.515615,42.785870,0 -123.515532,42.789506,0 -123.513051,42.789466,0 -123.510570,42.789426,0 -123.505608,42.789345,0 -123.505674,42.785726,0 -123.505708,42.783917,0 -123.505741,42.782107,0 -123.508230,42.782139,0 -123.510719,42.782171,0 -123.513208,42.782203,0 -123.515697,42.782235,0</coordinates></LinearRing></outerBoundaryIs></Polygon></Placemark><Placemark><name>WVM 5 Dads Creek</name><description>club: Willamette Valley Miners (WVM) | serial: ORMC161445 | acres: 40.0 | directions: not available (no club handbook source in this build) | boundary approx (BLM quarter-section)</description><styleUrl>#s1</styleUrl><Point><coordinates>-123.510648,42.785796,0</coordinates></Point></Placemark><Placemark><name>Pure White Gold (Whitehorse Cr)</name><description>club: Willamette Valley Miners (WVM) | serial: ORMC172749 | acres: 16.69 | directions: not available (no club handbook source in this build) | boundary approx (BLM quarter-section)</description><styleUrl>#s0</styleUrl><Polygon><outerBoundaryIs><LinearRing><coordinates>-123.181779,42.810162,0 -123.181754,42.811916,0 -123.179420,42.811946,0 -123.176744,42.811976,0 -123.174574,42.812001,0 -123.171734,42.812032,0 -123.171745,42.809977,0 -123.171766,42.806322,0 -123.176780,42.806512,0 -123.181785,42.806599,0 -123.181779,42.810162,0</coordinates></LinearRing></outerBoundaryIs></Polygon></Placemark><Placemark><name>Pure White Gold (Whitehorse Cr)</name><description>club: Willamette Valley Miners (WVM) | serial: ORMC172749 | acres: 16.69 | directions: not available (no club handbook source in this build) | boundary approx (BLM quarter-section)</description><styleUrl>#s1</styleUrl><Point><coordinates>-123.176704,42.809231,0</coordinates></Point></Placemark></Folder></Document></kml>