<?xml version="1.0" encoding="UTF-8"?>
<gpx xmlns:xsi="http://www.w3.org/2001/XMLSchema-instance" xmlns="http://www.topografix.com/GPX/1/1" xmlns:onx="http://www.onxmaps.com" xsi:schemaLocation="http://www.topografix.com/GPX/1/1 http://www.topografix.com/GPX/1/1/gpx.xsd" version="1.1" creator="onXmaps hunt ios"><wpt lat="42.716239" lon="-123.257577"><name>SCOUT 1 - Placer bench</name><desc>Gilbert Eri prospect (placer (heuristic: surface workings)) | agency: BLM | 141m to stream | cluster: 0 nearby | src: MILO</desc><extensions><onx:icon>Location</onx:icon><onx:color>rgba(255, 51, 0, 1)</onx:color></extensions></wpt><wpt lat="42.862185" lon="-123.385877"><name>SCOUT 2 - Placer bench</name><desc>USMIN Prospect Pit | agency: BLM | 128m to stream | cluster: 7 nearby | src: USMIN</desc><extensions><onx:icon>Location</onx:icon><onx:color>rgba(255, 51, 0, 1)</onx:color></extensions></wpt><wpt lat="42.698004" lon="-123.608403"><name>SCOUT 3 - Placer bench</name><desc>USMIN Prospect Pit | agency: BLM | 5m to stream | cluster: 6 nearby | src: USMIN</desc><extensions><onx:icon>Location</onx:icon><onx:color>rgba(255, 51, 0, 1)</onx:color></extensions></wpt><wpt lat="42.713288" lon="-123.577453"><name>SCOUT 4 - Lode/unknown outcrop</name><desc>USMIN Adit | agency: BLM | 8m to stream | cluster: 5 nearby | src: USMIN</desc><extensions><onx:icon>Location</onx:icon><onx:color>rgba(255, 51, 0, 1)</onx:color></extensions></wpt><wpt lat="42.682230" lon="-123.318084"><name>SCOUT 5 - Lode/unknown outcrop</name><desc>USMIN Adit | agency: BLM | 72m to stream | cluster: 3 nearby | src: USMIN</desc><extensions><onx:icon>Location</onx:icon><onx:color>rgba(255, 51, 0, 1)</onx:color></extensions></wpt><wpt lat="42.718559" lon="-123.603354"><name>SCOUT 6 - Placer bench</name><desc>USMIN Prospect Pit | agency: BLM | 5m to stream | cluster: 2 nearby | src: USMIN</desc><extensions><onx:icon>Location</onx:icon><onx:color>rgba(255, 51, 0, 1)</onx:color></extensions></wpt><wpt lat="42.707526" lon="-123.261517"><name>SCOUT 7 - Lode/unknown outcrop</name><desc>USMIN Adit | agency: BLM | 48m to stream | cluster: 2 nearby | src: USMIN</desc><extensions><onx:icon>Location</onx:icon><onx:color>rgba(255, 51, 0, 1)</onx:color></extensions></wpt><wpt lat="42.844941" lon="-123.393184"><name>SCOUT 8 - Placer bench</name><desc>USMIN Prospect Pit | agency: BLM | 59m to stream | cluster: 2 nearby | src: USMIN</desc><extensions><onx:icon>Location</onx:icon><onx:color>rgba(255, 51, 0, 1)</onx:color></extensions></wpt><wpt lat="42.694977" lon="-123.211119"><name>SCOUT 9 - Placer bench</name><desc>USMIN Prospect Pit | agency: BLM | 27m to stream | cluster: 1 nearby | src: USMIN</desc><extensions><onx:icon>Location</onx:icon><onx:color>rgba(255, 51, 0, 1)</onx:color></extensions></wpt><wpt lat="42.895894" lon="-123.326234"><name>SCOUT 10 - Lode/unknown outcrop</name><desc>USMIN Adit | agency: BLM | 46m to stream | cluster: 1 nearby | src: USMIN</desc><extensions><onx:icon>Location</onx:icon><onx:color>rgba(255, 51, 0, 1)</onx:color></extensions></wpt></gpx>