<?xml version="1.0" encoding="UTF-8"?>
<gpx xmlns:xsi="http://www.w3.org/2001/XMLSchema-instance" xmlns="http://www.topografix.com/GPX/1/1" xmlns:onx="http://www.onxmaps.com" xsi:schemaLocation="http://www.topografix.com/GPX/1/1 http://www.topografix.com/GPX/1/1/gpx.xsd" version="1.1" creator="onXmaps hunt ios"><wpt lat="42.771777" lon="-123.539722"><name>WVM 3 Dads Creek</name><desc>club: Willamette Valley Miners (WVM) | serial: ORMC159208 | acres: 40.0 | directions: not available (no club handbook source in this build) | boundary approx (BLM quarter-section)</desc><extensions><onx:icon>Mineral Site</onx:icon><onx:color>rgba(255, 255, 0, 1)</onx:color></extensions></wpt><wpt lat="42.785796" lon="-123.510648"><name>WVM 4 Dads Creek</name><desc>club: Willamette Valley Miners (WVM) | serial: ORMC161475 | acres: 40.0 | directions: not available (no club handbook source in this build) | boundary approx (BLM quarter-section)</desc><extensions><onx:icon>Mineral Site</onx:icon><onx:color>rgba(255, 255, 0, 1)</onx:color></extensions></wpt><wpt lat="42.785796" lon="-123.510648"><name>WVM 5 Dads Creek</name><desc>club: Willamette Valley Miners (WVM) | serial: ORMC161445 | acres: 40.0 | directions: not available (no club handbook source in this build) | boundary approx (BLM quarter-section)</desc><extensions><onx:icon>Mineral Site</onx:icon><onx:color>rgba(255, 255, 0, 1)</onx:color></extensions></wpt><wpt lat="42.809231" lon="-123.176704"><name>Pure White Gold (Whitehorse Cr)</name><desc>club: Willamette Valley Miners (WVM) | serial: ORMC172749 | acres: 16.69 | directions: not available (no club handbook source in this build) | boundary approx (BLM quarter-section)</desc><extensions><onx:icon>Mineral Site</onx:icon><onx:color>rgba(255, 255, 0, 1)</onx:color></extensions></wpt><rte><name>WVM 3 Dads Creek</name><type>Area</type><extensions><onx:style>solid</onx:style><onx:weight>4.0</onx:weight><onx:color>rgba(255, 255, 0, 1)</onx:color></extensions><rtept lat="42.770004" lon="-123.544517"></rtept><rtept lat="42.771790" lon="-123.544504"></rtept><rtept lat="42.775363" lon="-123.544480"></rtept><rtept lat="42.775318" lon="-123.539672"></rtept><rtept lat="42.775272" lon="-123.534863"></rtept><rtept lat="42.771756" lon="-123.534915"></rtept><rtept lat="42.769998" lon="-123.534940"></rtept><rtept lat="42.768240" lon="-123.534966"></rtept><rtept lat="42.768234" lon="-123.537357"></rtept><rtept lat="42.768231" lon="-123.538552"></rtept><rtept lat="42.768229" lon="-123.539747"></rtept><rtept lat="42.768223" lon="-123.542138"></rtept><rtept lat="42.768218" lon="-123.544529"></rtept><rtept lat="42.770004" lon="-123.544517"></rtept></rte><rte><name>WVM 4 Dads Creek</name><type>Area</type><extensions><onx:style>solid</onx:style><onx:weight>4.0</onx:weight><onx:color>rgba(255, 255, 0, 1)</onx:color></extensions><rtept lat="42.782235" lon="-123.515697"></rtept><rtept lat="42.784052" lon="-123.515656"></rtept><rtept lat="42.785870" lon="-123.515615"></rtept><rtept lat="42.789506" lon="-123.515532"></rtept><rtept lat="42.789466" lon="-123.513051"></rtept><rtept lat="42.789426" lon="-123.510570"></rtept><rtept lat="42.789345" lon="-123.505608"></rtept><rtept lat="42.785726" lon="-123.505674"></rtept><rtept lat="42.783917" lon="-123.505708"></rtept><rtept lat="42.782107" lon="-123.505741"></rtept><rtept lat="42.782139" lon="-123.508230"></rtept><rtept lat="42.782171" lon="-123.510719"></rtept><rtept lat="42.782203" lon="-123.513208"></rtept><rtept lat="42.782235" lon="-123.515697"></rtept></rte><rte><name>WVM 5 Dads Creek</name><type>Area</type><extensions><onx:style>solid</onx:style><onx:weight>4.0</onx:weight><onx:color>rgba(255, 255, 0, 1)</onx:color></extensions><rtept lat="42.782235" lon="-123.515697"></rtept><rtept lat="42.784052" lon="-123.515656"></rtept><rtept lat="42.785870" lon="-123.515615"></rtept><rtept lat="42.789506" lon="-123.515532"></rtept><rtept lat="42.789466" lon="-123.513051"></rtept><rtept lat="42.789426" lon="-123.510570"></rtept><rtept lat="42.789345" lon="-123.505608"></rtept><rtept lat="42.785726" lon="-123.505674"></rtept><rtept lat="42.783917" lon="-123.505708"></rtept><rtept lat="42.782107" lon="-123.505741"></rtept><rtept lat="42.782139" lon="-123.508230"></rtept><rtept lat="42.782171" lon="-123.510719"></rtept><rtept lat="42.782203" lon="-123.513208"></rtept><rtept lat="42.782235" lon="-123.515697"></rtept></rte><rte><name>Pure White Gold (Whitehorse Cr)</name><type>Area</type><extensions><onx:style>solid</onx:style><onx:weight>4.0</onx:weight><onx:color>rgba(255, 255, 0, 1)</onx:color></extensions><rtept lat="42.810162" lon="-123.181779"></rtept><rtept lat="42.811916" lon="-123.181754"></rtept><rtept lat="42.811946" lon="-123.179420"></rtept><rtept lat="42.811976" lon="-123.176744"></rtept><rtept lat="42.812001" lon="-123.174574"></rtept><rtept lat="42.812032" lon="-123.171734"></rtept><rtept lat="42.809977" lon="-123.171745"></rtept><rtept lat="42.806322" lon="-123.171766"></rtept><rtept lat="42.806512" lon="-123.176780"></rtept><rtept lat="42.806599" lon="-123.181785"></rtept><rtept lat="42.810162" lon="-123.181779"></rtept></rte></gpx>