<?xml version="1.0" encoding="UTF-8"?><kml xmlns="http://www.opengis.net/kml/2.2"><Document><name>cowcreek Historical sites</name><Style id="s0"><IconStyle><color>ff000000</color><scale>1.0</scale><Icon><href>http://maps.google.com/mapfiles/kml/shapes/placemark_circle.png</href></Icon></IconStyle></Style><Folder><name>Historical sites</name><Placemark><name>Placer - Victory</name><description>4 source record(s) merged within 75m | src: MILO, USMIN</description><styleUrl>#s0</styleUrl><Point><coordinates>-123.532303,42.749749,0</coordinates></Point></Placemark><Placemark><name>Placer - Wolf Creek placers</name><description>3 source record(s) merged within 75m | src: MILO, MRDS, USMIN</description><styleUrl>#s0</styleUrl><Point><coordinates>-123.383985,42.685890,0</coordinates></Point></Placemark><Placemark><name>Placer - Hackler and Heights placer</name><description>3 source record(s) merged within 75m | src: MILO, MRDS</description><styleUrl>#s0</styleUrl><Point><coordinates>-123.443101,42.913435,0</coordinates></Point></Placemark><Placemark><name>Placer - open pit mine</name><description>2 source record(s) merged within 75m | src: MILO, USMIN</description><styleUrl>#s0</styleUrl><Point><coordinates>-123.527927,42.750070,0</coordinates></Point></Placemark><Placemark><name>Placer - Speaker placer</name><description>2 source record(s) merged within 75m | src: MILO, USMIN</description><styleUrl>#s0</styleUrl><Point><coordinates>-123.310341,42.711799,0</coordinates></Point></Placemark><Placemark><name>Placer - Whitehorse placer</name><description>2 source record(s) merged within 75m | src: MILO, MRDS</description><styleUrl>#s0</styleUrl><Point><coordinates>-123.165877,42.797045,0</coordinates></Point></Placemark><Placemark><name>Placer - Hogum Creek</name><description>2 source record(s) merged within 75m | src: MILO, MRDS</description><styleUrl>#s0</styleUrl><Point><coordinates>-123.185313,42.770401,0</coordinates></Point></Placemark><Placemark><name>Placer - Tennesse Gulch</name><description>2 source record(s) merged within 75m | src: MILO, MRDS</description><styleUrl>#s0</styleUrl><Point><coordinates>-123.263092,42.734835,0</coordinates></Point></Placemark><Placemark><name>Placer - Last Chance Group placer</name><description>2 source record(s) merged within 75m | src: MILO, MRDS</description><styleUrl>#s0</styleUrl><Point><coordinates>-123.160349,42.708440,0</coordinates></Point></Placemark><Placemark><name>Placer - Glendale</name><description>1 source record(s) merged within 75m | src: USMIN</description><styleUrl>#s0</styleUrl><Point><coordinates>-123.351159,42.685669,0</coordinates></Point></Placemark><Placemark><name>Placer - Hackler Height placer</name><description>1 source record(s) merged within 75m | src: MILO</description><styleUrl>#s0</styleUrl><Point><coordinates>-123.432857,42.913179,0</coordinates></Point></Placemark><Placemark><name>Placer - Oregon M and P Co.</name><description>1 source record(s) merged within 75m | src: MILO</description><styleUrl>#s0</styleUrl><Point><coordinates>-123.534312,42.758144,0</coordinates></Point></Placemark><Placemark><name>Placer - Bull Run placers</name><description>1 source record(s) merged within 75m | src: MILO</description><styleUrl>#s0</styleUrl><Point><coordinates>-123.242299,42.755128,0</coordinates></Point></Placemark><Placemark><name>Placer - Gilliam Placer</name><description>1 source record(s) merged within 75m | src: MILO</description><styleUrl>#s0</styleUrl><Point><coordinates>-123.341789,42.715446,0</coordinates></Point></Placemark><Placemark><name>Placer - Gilbert Eri prospect</name><description>1 source record(s) merged within 75m | src: MILO</description><styleUrl>#s0</styleUrl><Point><coordinates>-123.257577,42.716239,0</coordinates></Point></Placemark><Placemark><name>Placer - Tuller Placer</name><description>1 source record(s) merged within 75m | src: MILO</description><styleUrl>#s0</styleUrl><Point><coordinates>-123.532755,42.752259,0</coordinates></Point></Placemark><Placemark><name>Shaft - King Mountain</name><description>9 source record(s) merged within 75m | src: MILO, USMIN</description><styleUrl>#s0</styleUrl><Point><coordinates>-123.203944,42.696253,0</coordinates></Point></Placemark><Placemark><name>Adit - Golden</name><description>7 source record(s) merged within 75m | src: MILO, USMIN</description><styleUrl>#s0</styleUrl><Point><coordinates>-123.278420,42.699500,0</coordinates></Point></Placemark><Placemark><name>Shaft - King Mountain</name><description>6 source record(s) merged within 75m | src: MILO, USMIN</description><styleUrl>#s0</styleUrl><Point><coordinates>-123.174632,42.736101,0</coordinates></Point></Placemark><Placemark><name>Adit - King Mountain</name><description>6 source record(s) merged within 75m | src: MILO, USMIN</description><styleUrl>#s0</styleUrl><Point><coordinates>-123.205159,42.696195,0</coordinates></Point></Placemark><Placemark><name>Adit - Golden</name><description>6 source record(s) merged within 75m | src: MILO, USMIN</description><styleUrl>#s0</styleUrl><Point><coordinates>-123.273825,42.693914,0</coordinates></Point></Placemark><Placemark><name>Adit - Mount Reuben</name><description>5 source record(s) merged within 75m | src: MILO, USMIN</description><styleUrl>#s0</styleUrl><Point><coordinates>-123.606663,42.691078,0</coordinates></Point></Placemark><Placemark><name>Adit - Mount Reuben</name><description>5 source record(s) merged within 75m | src: MILO, USMIN</description><styleUrl>#s0</styleUrl><Point><coordinates>-123.577207,42.713623,0</coordinates></Point></Placemark><Placemark><name>Adit - Golden</name><description>5 source record(s) merged within 75m | src: MILO, USMIN</description><styleUrl>#s0</styleUrl><Point><coordinates>-123.270227,42.697163,0</coordinates></Point></Placemark><Placemark><name>Adit - King Mountain</name><description>5 source record(s) merged within 75m | src: MILO, USMIN</description><styleUrl>#s0</styleUrl><Point><coordinates>-123.235825,42.719460,0</coordinates></Point></Placemark><Placemark><name>Adit - Golden</name><description>5 source record(s) merged within 75m | src: MILO, USMIN</description><styleUrl>#s0</styleUrl><Point><coordinates>-123.274287,42.692012,0</coordinates></Point></Placemark><Placemark><name>Adit - Canyonville</name><description>4 source record(s) merged within 75m | src: MILO, USMIN</description><styleUrl>#s0</styleUrl><Point><coordinates>-123.313716,42.910134,0</coordinates></Point></Placemark><Placemark><name>Adit - Canyonville</name><description>4 source record(s) merged within 75m | src: MILO, USMIN</description><styleUrl>#s0</styleUrl><Point><coordinates>-123.335898,42.890779,0</coordinates></Point></Placemark><Placemark><name>Adit - King Mountain</name><description>4 source record(s) merged within 75m | src: MILO, USMIN</description><styleUrl>#s0</styleUrl><Point><coordinates>-123.202203,42.712690,0</coordinates></Point></Placemark><Placemark><name>Shaft - Mount Reuben</name><description>4 source record(s) merged within 75m | src: MILO, USMIN</description><styleUrl>#s0</styleUrl><Point><coordinates>-123.623458,42.682708,0</coordinates></Point></Placemark><Placemark><name>Adit - Bunker Creek</name><description>4 source record(s) merged within 75m | src: MILO, USMIN</description><styleUrl>#s0</styleUrl><Point><coordinates>-123.629213,42.681994,0</coordinates></Point></Placemark><Placemark><name>Adit - King Mountain</name><description>4 source record(s) merged within 75m | src: MILO, USMIN</description><styleUrl>#s0</styleUrl><Point><coordinates>-123.200972,42.732819,0</coordinates></Point></Placemark><Placemark><name>Adit - Golden</name><description>4 source record(s) merged within 75m | src: MILO, USMIN</description><styleUrl>#s0</styleUrl><Point><coordinates>-123.317769,42.682441,0</coordinates></Point></Placemark><Placemark><name>Adit - Mc Cullough Creek</name><description>3 source record(s) merged within 75m | src: MILO, USMIN</description><styleUrl>#s0</styleUrl><Point><coordinates>-123.382985,42.855598,0</coordinates></Point></Placemark><Placemark><name>Adit - Canyonville</name><description>3 source record(s) merged within 75m | src: MILO, USMIN</description><styleUrl>#s0</styleUrl><Point><coordinates>-123.316711,42.907820,0</coordinates></Point></Placemark><Placemark><name>Adit - Mount Reuben</name><description>3 source record(s) merged within 75m | src: MILO, USMIN</description><styleUrl>#s0</styleUrl><Point><coordinates>-123.608158,42.698242,0</coordinates></Point></Placemark><Placemark><name>Adit - Bunker Creek</name><description>3 source record(s) merged within 75m | src: MILO, USMIN</description><styleUrl>#s0</styleUrl><Point><coordinates>-123.631310,42.680543,0</coordinates></Point></Placemark><Placemark><name>Adit - Golden</name><description>3 source record(s) merged within 75m | src: MILO, USMIN</description><styleUrl>#s0</styleUrl><Point><coordinates>-123.323019,42.691642,0</coordinates></Point></Placemark><Placemark><name>Adit - Golden</name><description>3 source record(s) merged within 75m | src: MILO, USMIN</description><styleUrl>#s0</styleUrl><Point><coordinates>-123.295983,42.684992,0</coordinates></Point></Placemark><Placemark><name>Adit - Golden</name><description>3 source record(s) merged within 75m | src: MILO, USMIN</description><styleUrl>#s0</styleUrl><Point><coordinates>-123.261324,42.707611,0</coordinates></Point></Placemark><Placemark><name>Adit - Glendale</name><description>3 source record(s) merged within 75m | src: MILO, USMIN</description><styleUrl>#s0</styleUrl><Point><coordinates>-123.272755,42.690314,0</coordinates></Point></Placemark><Placemark><name>Adit - Golden</name><description>3 source record(s) merged within 75m | src: MILO, USMIN</description><styleUrl>#s0</styleUrl><Point><coordinates>-123.285458,42.684027,0</coordinates></Point></Placemark><Placemark><name>Shaft - Canyonville</name><description>2 source record(s) merged within 75m | src: MILO, USMIN</description><styleUrl>#s0</styleUrl><Point><coordinates>-123.321170,42.903750,0</coordinates></Point></Placemark><Placemark><name>Adit - Quines Creek</name><description>2 source record(s) merged within 75m | src: USMIN</description><styleUrl>#s0</styleUrl><Point><coordinates>-123.288206,42.841770,0</coordinates></Point></Placemark><Placemark><name>Adit - Canyonville</name><description>2 source record(s) merged within 75m | src: MILO, USMIN</description><styleUrl>#s0</styleUrl><Point><coordinates>-123.326073,42.895786,0</coordinates></Point></Placemark><Placemark><name>Adit - Canyonville</name><description>2 source record(s) merged within 75m | src: USMIN</description><styleUrl>#s0</styleUrl><Point><coordinates>-123.337155,42.890947,0</coordinates></Point></Placemark><Placemark><name>Adit - Canyonville</name><description>2 source record(s) merged within 75m | src: MILO, USMIN</description><styleUrl>#s0</styleUrl><Point><coordinates>-123.316470,42.905592,0</coordinates></Point></Placemark><Placemark><name>Adit - Canyonville</name><description>2 source record(s) merged within 75m | src: MILO, USMIN</description><styleUrl>#s0</styleUrl><Point><coordinates>-123.314513,42.910745,0</coordinates></Point></Placemark><Placemark><name>Adit - Canyonville</name><description>2 source record(s) merged within 75m | src: MILO, USMIN</description><styleUrl>#s0</styleUrl><Point><coordinates>-123.318056,42.905285,0</coordinates></Point></Placemark><Placemark><name>Adit - Starvout Creek</name><description>2 source record(s) merged within 75m | src: MILO, USMIN</description><styleUrl>#s0</styleUrl><Point><coordinates>-123.157526,42.782810,0</coordinates></Point></Placemark><Placemark><name>Adit - King Mountain</name><description>2 source record(s) merged within 75m | src: MILO, USMIN</description><styleUrl>#s0</styleUrl><Point><coordinates>-123.210818,42.711920,0</coordinates></Point></Placemark><Placemark><name>Adit - Mount Reuben</name><description>2 source record(s) merged within 75m | src: MILO, USMIN</description><styleUrl>#s0</styleUrl><Point><coordinates>-123.609193,42.697089,0</coordinates></Point></Placemark><Placemark><name>Adit - King Mountain</name><description>2 source record(s) merged within 75m | src: USMIN</description><styleUrl>#s0</styleUrl><Point><coordinates>-123.204565,42.732942,0</coordinates></Point></Placemark><Placemark><name>Adit - King Mountain</name><description>2 source record(s) merged within 75m | src: USMIN</description><styleUrl>#s0</styleUrl><Point><coordinates>-123.193567,42.704754,0</coordinates></Point></Placemark><Placemark><name>Shaft - Golden</name><description>2 source record(s) merged within 75m | src: MILO, USMIN</description><styleUrl>#s0</styleUrl><Point><coordinates>-123.314562,42.680821,0</coordinates></Point></Placemark><Placemark><name>Adit - Golden</name><description>2 source record(s) merged within 75m | src: MILO, USMIN</description><styleUrl>#s0</styleUrl><Point><coordinates>-123.273681,42.694624,0</coordinates></Point></Placemark><Placemark><name>Adit - Golden</name><description>2 source record(s) merged within 75m | src: MILO, USMIN</description><styleUrl>#s0</styleUrl><Point><coordinates>-123.286778,42.686245,0</coordinates></Point></Placemark><Placemark><name>Adit - Golden</name><description>2 source record(s) merged within 75m | src: MILO, USMIN</description><styleUrl>#s0</styleUrl><Point><coordinates>-123.273749,42.689655,0</coordinates></Point></Placemark><Placemark><name>Adit - Glendale</name><description>2 source record(s) merged within 75m | src: MRDS, USMIN</description><styleUrl>#s0</styleUrl><Point><coordinates>-123.267468,42.697311,0</coordinates></Point></Placemark><Placemark><name>Adit - Golden</name><description>2 source record(s) merged within 75m | src: MILO, USMIN</description><styleUrl>#s0</styleUrl><Point><coordinates>-123.268145,42.698111,0</coordinates></Point></Placemark><Placemark><name>Adit - Glendale</name><description>2 source record(s) merged within 75m | src: USMIN</description><styleUrl>#s0</styleUrl><Point><coordinates>-123.270769,42.695879,0</coordinates></Point></Placemark><Placemark><name>Adit - Golden</name><description>2 source record(s) merged within 75m | src: MILO, USMIN</description><styleUrl>#s0</styleUrl><Point><coordinates>-123.325898,42.688434,0</coordinates></Point></Placemark><Placemark><name>Adit - Glendale</name><description>2 source record(s) merged within 75m | src: USMIN</description><styleUrl>#s0</styleUrl><Point><coordinates>-123.315668,42.680185,0</coordinates></Point></Placemark><Placemark><name>Adit - Glendale</name><description>2 source record(s) merged within 75m | src: MILO, USMIN</description><styleUrl>#s0</styleUrl><Point><coordinates>-123.290490,42.685308,0</coordinates></Point></Placemark><Placemark><name>Adit - Mc Cullough Creek</name><description>1 source record(s) merged within 75m | src: USMIN</description><styleUrl>#s0</styleUrl><Point><coordinates>-123.383629,42.854358,0</coordinates></Point></Placemark><Placemark><name>Adit - Canyonville</name><description>1 source record(s) merged within 75m | src: USMIN</description><styleUrl>#s0</styleUrl><Point><coordinates>-123.315843,42.904434,0</coordinates></Point></Placemark><Placemark><name>Adit - Canyonville</name><description>1 source record(s) merged within 75m | src: USMIN</description><styleUrl>#s0</styleUrl><Point><coordinates>-123.318425,42.904506,0</coordinates></Point></Placemark><Placemark><name>Shaft - King Mountain</name><description>1 source record(s) merged within 75m | src: USMIN</description><styleUrl>#s0</styleUrl><Point><coordinates>-123.188709,42.696587,0</coordinates></Point></Placemark><Placemark><name>Adit - King Mountain</name><description>1 source record(s) merged within 75m | src: USMIN</description><styleUrl>#s0</styleUrl><Point><coordinates>-123.200342,42.707028,0</coordinates></Point></Placemark><Placemark><name>Adit - Wimer</name><description>1 source record(s) merged within 75m | src: USMIN</description><styleUrl>#s0</styleUrl><Point><coordinates>-123.202796,42.711507,0</coordinates></Point></Placemark><Placemark><name>Adit - Glendale</name><description>1 source record(s) merged within 75m | src: USMIN</description><styleUrl>#s0</styleUrl><Point><coordinates>-123.264406,42.701769,0</coordinates></Point></Placemark><Placemark><name>Adit - Glendale</name><description>1 source record(s) merged within 75m | src: USMIN</description><styleUrl>#s0</styleUrl><Point><coordinates>-123.277093,42.699583,0</coordinates></Point></Placemark><Placemark><name>Adit - Glendale</name><description>1 source record(s) merged within 75m | src: USMIN</description><styleUrl>#s0</styleUrl><Point><coordinates>-123.269692,42.696328,0</coordinates></Point></Placemark><Placemark><name>Adit - Glendale</name><description>1 source record(s) merged within 75m | src: USMIN</description><styleUrl>#s0</styleUrl><Point><coordinates>-123.274217,42.691395,0</coordinates></Point></Placemark><Placemark><name>Adit - Glendale</name><description>1 source record(s) merged within 75m | src: USMIN</description><styleUrl>#s0</styleUrl><Point><coordinates>-123.276901,42.691934,0</coordinates></Point></Placemark><Placemark><name>Adit - Glendale</name><description>1 source record(s) merged within 75m | src: USMIN</description><styleUrl>#s0</styleUrl><Point><coordinates>-123.324180,42.691468,0</coordinates></Point></Placemark><Placemark><name>Adit - Glendale</name><description>1 source record(s) merged within 75m | src: USMIN</description><styleUrl>#s0</styleUrl><Point><coordinates>-123.325581,42.689840,0</coordinates></Point></Placemark><Placemark><name>Adit - Glendale</name><description>1 source record(s) merged within 75m | src: USMIN</description><styleUrl>#s0</styleUrl><Point><coordinates>-123.277868,42.684228,0</coordinates></Point></Placemark><Placemark><name>Adit - Glendale</name><description>1 source record(s) merged within 75m | src: USMIN</description><styleUrl>#s0</styleUrl><Point><coordinates>-123.286051,42.684909,0</coordinates></Point></Placemark><Placemark><name>Pit - Mount Reuben</name><description>12 source record(s) merged within 75m | src: MILO, USMIN</description><styleUrl>#s0</styleUrl><Point><coordinates>-123.610152,42.680831,0</coordinates></Point></Placemark><Placemark><name>Pit - Mc Cullough Creek</name><description>4 source record(s) merged within 75m | src: MILO, USMIN</description><styleUrl>#s0</styleUrl><Point><coordinates>-123.384445,42.862411,0</coordinates></Point></Placemark><Placemark><name>Pit - Mc Cullough Creek</name><description>4 source record(s) merged within 75m | src: MILO, USMIN</description><styleUrl>#s0</styleUrl><Point><coordinates>-123.386202,42.861971,0</coordinates></Point></Placemark><Placemark><name>Pit - Mount Reuben</name><description>3 source record(s) merged within 75m | src: MILO, USMIN</description><styleUrl>#s0</styleUrl><Point><coordinates>-123.595074,42.721466,0</coordinates></Point></Placemark><Placemark><name>Pit - Mount Reuben</name><description>3 source record(s) merged within 75m | src: MILO, USMIN</description><styleUrl>#s0</styleUrl><Point><coordinates>-123.603405,42.718618,0</coordinates></Point></Placemark><Placemark><name>Pit - Golden</name><description>3 source record(s) merged within 75m | src: MILO, USMIN</description><styleUrl>#s0</styleUrl><Point><coordinates>-123.263630,42.717332,0</coordinates></Point></Placemark><Placemark><name>Pit - Golden</name><description>3 source record(s) merged within 75m | src: MILO, USMIN</description><styleUrl>#s0</styleUrl><Point><coordinates>-123.270636,42.710841,0</coordinates></Point></Placemark><Placemark><name>Pit - Golden</name><description>3 source record(s) merged within 75m | src: MILO, USMIN</description><styleUrl>#s0</styleUrl><Point><coordinates>-123.270601,42.690259,0</coordinates></Point></Placemark><Placemark><name>Mine - prospect</name><description>3 source record(s) merged within 75m | src: MILO</description><styleUrl>#s0</styleUrl><Point><coordinates>-123.395272,42.858260,0</coordinates></Point></Placemark><Placemark><name>Mine - prospect</name><description>3 source record(s) merged within 75m | src: MILO</description><styleUrl>#s0</styleUrl><Point><coordinates>-123.394648,42.856306,0</coordinates></Point></Placemark><Placemark><name>Mine - prospect</name><description>3 source record(s) merged within 75m | src: MILO</description><styleUrl>#s0</styleUrl><Point><coordinates>-123.389765,42.857836,0</coordinates></Point></Placemark><Placemark><name>Pit - Rabbit Mountain</name><description>2 source record(s) merged within 75m | src: MILO, USMIN</description><styleUrl>#s0</styleUrl><Point><coordinates>-123.550464,42.772261,0</coordinates></Point></Placemark><Placemark><name>Pit - Canyonville</name><description>2 source record(s) merged within 75m | src: MILO, USMIN</description><styleUrl>#s0</styleUrl><Point><coordinates>-123.346490,42.889199,0</coordinates></Point></Placemark><Placemark><name>Pit - Canyonville</name><description>2 source record(s) merged within 75m | src: MILO, USMIN</description><styleUrl>#s0</styleUrl><Point><coordinates>-123.308934,42.915437,0</coordinates></Point></Placemark><Placemark><name>Pit - Canyonville</name><description>2 source record(s) merged within 75m | src: MILO, USMIN</description><styleUrl>#s0</styleUrl><Point><coordinates>-123.335466,42.894754,0</coordinates></Point></Placemark><Placemark><name>Pit - Canyonville</name><description>2 source record(s) merged within 75m | src: MILO, USMIN</description><styleUrl>#s0</styleUrl><Point><coordinates>-123.315515,42.916872,0</coordinates></Point></Placemark><Placemark><name>Pit - Mc Cullough Creek</name><description>2 source record(s) merged within 75m | src: MILO, USMIN</description><styleUrl>#s0</styleUrl><Point><coordinates>-123.393191,42.844944,0</coordinates></Point></Placemark><Placemark><name>Pit - Canyonville</name><description>2 source record(s) merged within 75m | src: MILO, USMIN</description><styleUrl>#s0</styleUrl><Point><coordinates>-123.307804,42.911504,0</coordinates></Point></Placemark><Placemark><name>Pit - King Mountain</name><description>2 source record(s) merged within 75m | src: MILO, USMIN</description><styleUrl>#s0</styleUrl><Point><coordinates>-123.173325,42.740961,0</coordinates></Point></Placemark><Placemark><name>Pit - Starvout Creek</name><description>2 source record(s) merged within 75m | src: MILO, USMIN</description><styleUrl>#s0</styleUrl><Point><coordinates>-123.228037,42.758612,0</coordinates></Point></Placemark><Placemark><name>Pit - Mount Reuben</name><description>2 source record(s) merged within 75m | src: MILO, USMIN</description><styleUrl>#s0</styleUrl><Point><coordinates>-123.612118,42.698754,0</coordinates></Point></Placemark><Placemark><name>Pit - King Mountain</name><description>2 source record(s) merged within 75m | src: MILO, USMIN</description><styleUrl>#s0</styleUrl><Point><coordinates>-123.211136,42.694954,0</coordinates></Point></Placemark><Placemark><name>Pit - Golden</name><description>2 source record(s) merged within 75m | src: MILO, USMIN</description><styleUrl>#s0</styleUrl><Point><coordinates>-123.283891,42.704936,0</coordinates></Point></Placemark><Placemark><name>Pit - Glendale</name><description>2 source record(s) merged within 75m | src: MILO, USMIN</description><styleUrl>#s0</styleUrl><Point><coordinates>-123.263325,42.703082,0</coordinates></Point></Placemark><Placemark><name>Pit - Glendale</name><description>2 source record(s) merged within 75m | src: MILO, USMIN</description><styleUrl>#s0</styleUrl><Point><coordinates>-123.288236,42.683632,0</coordinates></Point></Placemark><Placemark><name>Pit - Glendale</name><description>2 source record(s) merged within 75m | src: MRDS, USMIN</description><styleUrl>#s0</styleUrl><Point><coordinates>-123.288751,42.683073,0</coordinates></Point></Placemark><Placemark><name>Pit - Rabbit Mountain</name><description>2 source record(s) merged within 75m | src: MILO, USMIN</description><styleUrl>#s0</styleUrl><Point><coordinates>-123.530442,42.751017,0</coordinates></Point></Placemark><Placemark><name>Mine - Miller</name><description>2 source record(s) merged within 75m | src: MILO, MRDS</description><styleUrl>#s0</styleUrl><Point><coordinates>-123.123379,42.883151,0</coordinates></Point></Placemark><Placemark><name>Mine - gold mine</name><description>2 source record(s) merged within 75m | src: MILO, MRDS</description><styleUrl>#s0</styleUrl><Point><coordinates>-123.558101,42.774254,0</coordinates></Point></Placemark><Placemark><name>Mine - gold mine</name><description>2 source record(s) merged within 75m | src: MILO, MRDS</description><styleUrl>#s0</styleUrl><Point><coordinates>-123.195061,42.758439,0</coordinates></Point></Placemark><Placemark><name>Mine - Miser</name><description>2 source record(s) merged within 75m | src: MILO, MRDS</description><styleUrl>#s0</styleUrl><Point><coordinates>-123.200213,42.764018,0</coordinates></Point></Placemark><Placemark><name>Mine - Willis</name><description>2 source record(s) merged within 75m | src: MILO, MRDS</description><styleUrl>#s0</styleUrl><Point><coordinates>-123.424492,42.724831,0</coordinates></Point></Placemark><Placemark><name>Mine - Puzzer</name><description>2 source record(s) merged within 75m | src: MILO, MRDS</description><styleUrl>#s0</styleUrl><Point><coordinates>-123.167562,42.746228,0</coordinates></Point></Placemark><Placemark><name>Mine - gold mine</name><description>2 source record(s) merged within 75m | src: MILO, MRDS</description><styleUrl>#s0</styleUrl><Point><coordinates>-123.155588,42.711518,0</coordinates></Point></Placemark><Placemark><name>Mine - gold mine</name><description>2 source record(s) merged within 75m | src: MILO, MRDS</description><styleUrl>#s0</styleUrl><Point><coordinates>-123.174483,42.682334,0</coordinates></Point></Placemark><Placemark><name>Mine - gold prospect</name><description>2 source record(s) merged within 75m | src: MILO, MRDS</description><styleUrl>#s0</styleUrl><Point><coordinates>-123.679499,42.689014,0</coordinates></Point></Placemark><Placemark><name>Mine - Lawrence Mine</name><description>2 source record(s) merged within 75m | src: MILO</description><styleUrl>#s0</styleUrl><Point><coordinates>-123.580447,42.681001,0</coordinates></Point></Placemark><Placemark><name>Mine - gold mine</name><description>2 source record(s) merged within 75m | src: MILO, MRDS</description><styleUrl>#s0</styleUrl><Point><coordinates>-123.348958,42.681756,0</coordinates></Point></Placemark><Placemark><name>Mine - gold mine</name><description>2 source record(s) merged within 75m | src: MILO, MRDS</description><styleUrl>#s0</styleUrl><Point><coordinates>-123.361991,42.682911,0</coordinates></Point></Placemark><Placemark><name>Mine - Victor</name><description>2 source record(s) merged within 75m | src: MILO, MRDS</description><styleUrl>#s0</styleUrl><Point><coordinates>-123.325352,42.686228,0</coordinates></Point></Placemark><Placemark><name>Mine - prospect</name><description>2 source record(s) merged within 75m | src: MILO</description><styleUrl>#s0</styleUrl><Point><coordinates>-123.392540,42.858259,0</coordinates></Point></Placemark><Placemark><name>Mine - prospect</name><description>2 source record(s) merged within 75m | src: MILO</description><styleUrl>#s0</styleUrl><Point><coordinates>-123.388872,42.861106,0</coordinates></Point></Placemark><Placemark><name>Mine - Gold Mine</name><description>2 source record(s) merged within 75m | src: MRDS</description><styleUrl>#s0</styleUrl><Point><coordinates>-123.274230,42.696505,0</coordinates></Point></Placemark><Placemark><name>Mine - Wolf Creek Logging and Mining Company</name><description>2 source record(s) merged within 75m | src: MRDS</description><styleUrl>#s0</styleUrl><Point><coordinates>-123.288070,42.717030,0</coordinates></Point></Placemark><Placemark><name>Site - Quines Creek</name><description>1 source record(s) merged within 75m | src: USMIN</description><styleUrl>#s0</styleUrl><Point><coordinates>-123.269885,42.871922,0</coordinates></Point></Placemark><Placemark><name>Site - King Mountain</name><description>1 source record(s) merged within 75m | src: USMIN</description><styleUrl>#s0</styleUrl><Point><coordinates>-123.194452,42.709430,0</coordinates></Point></Placemark><Placemark><name>Site - King Mountain</name><description>1 source record(s) merged within 75m | src: USMIN</description><styleUrl>#s0</styleUrl><Point><coordinates>-123.208023,42.695603,0</coordinates></Point></Placemark><Placemark><name>Site - Canyonville</name><description>1 source record(s) merged within 75m | src: USMIN</description><styleUrl>#s0</styleUrl><Point><coordinates>-123.365280,42.956434,0</coordinates></Point></Placemark><Placemark><name>Site - Glendale</name><description>1 source record(s) merged within 75m | src: USMIN</description><styleUrl>#s0</styleUrl><Point><coordinates>-123.339127,42.681840,0</coordinates></Point></Placemark><Placemark><name>Site - Glendale</name><description>1 source record(s) merged within 75m | src: USMIN</description><styleUrl>#s0</styleUrl><Point><coordinates>-123.285126,42.717475,0</coordinates></Point></Placemark><Placemark><name>Site - King Mountain</name><description>1 source record(s) merged within 75m | src: USMIN</description><styleUrl>#s0</styleUrl><Point><coordinates>-123.201048,42.712541,0</coordinates></Point></Placemark><Placemark><name>Site - Canyonville</name><description>1 source record(s) merged within 75m | src: USMIN</description><styleUrl>#s0</styleUrl><Point><coordinates>-123.350293,42.967646,0</coordinates></Point></Placemark><Placemark><name>Site - Nickel Mtn.</name><description>1 source record(s) merged within 75m | src: USMIN</description><styleUrl>#s0</styleUrl><Point><coordinates>-123.445904,42.955056,0</coordinates></Point></Placemark><Placemark><name>Site - Nickel Mtn.</name><description>1 source record(s) merged within 75m | src: USMIN</description><styleUrl>#s0</styleUrl><Point><coordinates>-123.430841,42.933721,0</coordinates></Point></Placemark><Placemark><name>Site - Glendale</name><description>1 source record(s) merged within 75m | src: USMIN</description><styleUrl>#s0</styleUrl><Point><coordinates>-123.261355,42.735307,0</coordinates></Point></Placemark><Placemark><name>Site - Glendale</name><description>1 source record(s) merged within 75m | src: USMIN</description><styleUrl>#s0</styleUrl><Point><coordinates>-123.259836,42.734995,0</coordinates></Point></Placemark><Placemark><name>Site - Glendale</name><description>1 source record(s) merged within 75m | src: USMIN</description><styleUrl>#s0</styleUrl><Point><coordinates>-123.324388,42.686523,0</coordinates></Point></Placemark><Placemark><name>Site - Glendale</name><description>1 source record(s) merged within 75m | src: USMIN</description><styleUrl>#s0</styleUrl><Point><coordinates>-123.342423,42.714923,0</coordinates></Point></Placemark><Placemark><name>Mine - unnamed or NA</name><description>1 source record(s) merged within 75m | src: MILO</description><styleUrl>#s0</styleUrl><Point><coordinates>-123.338190,42.904945,0</coordinates></Point></Placemark><Placemark><name>Mine - Douglas</name><description>1 source record(s) merged within 75m | src: MILO</description><styleUrl>#s0</styleUrl><Point><coordinates>-123.522425,42.760390,0</coordinates></Point></Placemark><Placemark><name>Mine - Last Chance prospect</name><description>1 source record(s) merged within 75m | src: MILO</description><styleUrl>#s0</styleUrl><Point><coordinates>-123.445078,42.819565,0</coordinates></Point></Placemark><Placemark><name>Mine - Grayback Mountain prospect</name><description>1 source record(s) merged within 75m | src: MILO</description><styleUrl>#s0</styleUrl><Point><coordinates>-123.475730,42.788255,0</coordinates></Point></Placemark><Placemark><name>Mine - gold mine</name><description>1 source record(s) merged within 75m | src: MILO</description><styleUrl>#s0</styleUrl><Point><coordinates>-123.437809,42.795428,0</coordinates></Point></Placemark><Placemark><name>Mine - gold mine</name><description>1 source record(s) merged within 75m | src: MILO</description><styleUrl>#s0</styleUrl><Point><coordinates>-123.439581,42.792762,0</coordinates></Point></Placemark><Placemark><name>Mine - Indiana</name><description>1 source record(s) merged within 75m | src: MILO</description><styleUrl>#s0</styleUrl><Point><coordinates>-123.249525,42.757627,0</coordinates></Point></Placemark><Placemark><name>Mine - Mildred</name><description>1 source record(s) merged within 75m | src: MILO</description><styleUrl>#s0</styleUrl><Point><coordinates>-123.186234,42.751406,0</coordinates></Point></Placemark><Placemark><name>Mine - Cloudy Day</name><description>1 source record(s) merged within 75m | src: MILO</description><styleUrl>#s0</styleUrl><Point><coordinates>-123.180910,42.751516,0</coordinates></Point></Placemark><Placemark><name>Mine - Green Mountain prospect</name><description>1 source record(s) merged within 75m | src: MILO</description><styleUrl>#s0</styleUrl><Point><coordinates>-123.154827,42.741239,0</coordinates></Point></Placemark><Placemark><name>Mine - Union Leader</name><description>1 source record(s) merged within 75m | src: MILO</description><styleUrl>#s0</styleUrl><Point><coordinates>-123.241184,42.750959,0</coordinates></Point></Placemark><Placemark><name>Mine - Starve Out</name><description>1 source record(s) merged within 75m | src: MILO</description><styleUrl>#s0</styleUrl><Point><coordinates>-123.202297,42.748739,0</coordinates></Point></Placemark><Placemark><name>Mine - Quartzmill</name><description>1 source record(s) merged within 75m | src: MILO</description><styleUrl>#s0</styleUrl><Point><coordinates>-123.247296,42.737348,0</coordinates></Point></Placemark></Folder></Document></kml>