<?xml version="1.0" encoding="UTF-8"?>
<gpx xmlns:xsi="http://www.w3.org/2001/XMLSchema-instance" xmlns="http://www.topografix.com/GPX/1/1" xmlns:onx="http://www.onxmaps.com" xsi:schemaLocation="http://www.topografix.com/GPX/1/1 http://www.topografix.com/GPX/1/1/gpx.xsd " version="1.1" creator="onXmaps hunt ios">
	<rte>
		<name>Line 09/27/26 20:08</name>
		<type>Line</type>
		<extensions>
			<onx:style>dot</onx:style>
			<onx:weight>4.0</onx:weight>
			<onx:color>rgba(255, 51, 0, 1)</onx:color>
		</extensions>
		<rtept lat="43.740366" lon="-123.082596">
			<time>2026-09-28T03:08:48Z</time>
		</rtept>
		<rtept lat="43.740114" lon="-123.081353">
			<time>2026-09-28T03:08:48Z</time>
		</rtept>
		<rtept lat="43.74058" lon="-123.080685">
			<time>2026-09-28T03:08:48Z</time>
		</rtept>
	</rte>
</gpx>
