{"type": "FeatureCollection", "features": [{"type": "Feature", "geometry": {"type": "Point", "coordinates": [-122.5237, 44.7984]}, "properties": {"title": "WVM-LNF25 Little North Santiam", "description": "club: Willamette Valley Miners (WVM) | serial: A02SJ00000B7SAVYAN | acres: n/a | directions: not available (no club handbook source in this build) | no BLM MLRS polygon available yet -- point only, not an invented boundary", "marker-color": "#ffff00", "marker-symbol": "circle"}}, {"type": "Feature", "geometry": {"type": "Polygon", "coordinates": [[[-122.46752430881406, 44.79522571206751], [-122.46757179753108, 44.79882709828181], [-122.46757434156953, 44.79902002229332], [-122.46761217614083, 44.80188909346397], [-122.46761912324828, 44.8024284834961], [-122.46252170345461, 44.802426167005265], [-122.45742428366076, 44.80242385051438], [-122.45739435993967, 44.798788716296166], [-122.45736443821886, 44.795153580077994], [-122.46244437201653, 44.79518964557273], [-122.46752430881406, 44.79522571206751]]]}, "properties": {"title": "SANTIAM 1", "description": "placer | serial ORMC174208 | 20.0 ac | Active | qtr-sec OR 33 0090S 0030E 008 A SE | recorded~2021 (DB date, not legal located date) | src: BLM MLRS Not Closed | boundary approx (BLM quarter-section) | do not dig here (active claim)", "stroke": "#ff3300", "stroke-width": 2, "fill": "#ff3300", "fill-opacity": 0.05, "stroke-dasharray": "1,6"}}, {"type": "Feature", "geometry": {"type": "Polygon", "coordinates": [[[-122.47793212742847, 44.79520187102645], [-122.47789028713436, 44.79881730125039], [-122.47787373241373, 44.80024780433897], [-122.47786607454253, 44.800907103379814], [-122.47784835284051, 44.802432727474304], [-122.47273373804444, 44.80243060598521], [-122.46761912324828, 44.8024284834961], [-122.46761217614083, 44.80188909346397], [-122.46757434156953, 44.79902002229332], [-122.46757179753108, 44.79882709828181], [-122.46752430881406, 44.79522571206751], [-122.47272821862137, 44.79521379154703], [-122.47793212742847, 44.79520187102645]]]}, "properties": {"title": "Corpus Christi 2", "description": "placer | serial OR106728704 | 20.0 ac | Filed | qtr-sec OR 33 0090S 0030E 008 SW | recorded~2025 (DB date, not legal located date) | src: BLM MLRS Not Closed | boundary approx (BLM quarter-section) | do not dig here (active claim)", "stroke": "#ff3300", "stroke-width": 2, "fill": "#ff3300", "fill-opacity": 0.05, "stroke-dasharray": "1,6"}}, {"type": "Feature", "geometry": {"type": "Polygon", "coordinates": [[[-122.45736443821886, 44.795153580077994], [-122.46244437201653, 44.79518964557273], [-122.46752430881406, 44.79522571206751], [-122.47272821862137, 44.79521379154703], [-122.47793212742847, 44.79520187102645], [-122.47789028713436, 44.79881730125039], [-122.47787373241373, 44.80024780433897], [-122.47786607454253, 44.800907103379814], [-122.47784835284051, 44.802432727474304], [-122.47784487789939, 44.80273433549295], [-122.4778067035467, 44.806047671698096], [-122.47776505125312, 44.80966261292181], [-122.47273868947136, 44.80966358642425], [-122.4677123276895, 44.80966456092668], [-122.4625514898826, 44.809645424441236], [-122.4573906540755, 44.80962628795583], [-122.45740746936805, 44.80602507073513], [-122.45742428366076, 44.80242385051438], [-122.45739435993967, 44.798788716296166], [-122.45736443821886, 44.795153580077994]]]}, "properties": {"title": "Corpus Christi 5", "description": "placer | serial OR106728706 | 20.0 ac | Filed | qtr-sec OR 33 0090S 0030E 008  | recorded~2025 (DB date, not legal located date) | src: BLM MLRS Not Closed | boundary approx (BLM quarter-section) | do not dig here (active claim)", "stroke": "#ff3300", "stroke-width": 2, "fill": "#ff3300", "fill-opacity": 0.05, "stroke-dasharray": "1,6"}}, {"type": "Feature", "geometry": {"type": "Polygon", "coordinates": [[[-122.47793212742847, 44.79520187102645], [-122.47789028713436, 44.79881730125039], [-122.47787373241373, 44.80024780433897], [-122.47786607454253, 44.800907103379814], [-122.47784835284051, 44.802432727474304], [-122.47273373804444, 44.80243060598521], [-122.46761912324828, 44.8024284834961], [-122.46761217614083, 44.80188909346397], [-122.46757434156953, 44.79902002229332], [-122.46757179753108, 44.79882709828181], [-122.46752430881406, 44.79522571206751], [-122.47272821862137, 44.79521379154703], [-122.47793212742847, 44.79520187102645]]]}, "properties": {"title": "Cornus Christi 3", "description": "placer | serial OR106728703 | 20.0 ac | Filed | qtr-sec OR 33 0090S 0030E 008 SW | recorded~2025 (DB date, not legal located date) | src: BLM MLRS Not Closed | boundary approx (BLM quarter-section) | do not dig here (active claim)", "stroke": "#ff3300", "stroke-width": 2, "fill": "#ff3300", "fill-opacity": 0.05, "stroke-dasharray": "1,6"}}, {"type": "Feature", "geometry": {"type": "Polygon", "coordinates": [[[-122.45736443821886, 44.795153580077994], [-122.46244437201653, 44.79518964557273], [-122.46752430881406, 44.79522571206751], [-122.46757179753108, 44.79882709828181], [-122.46757434156953, 44.79902002229332], [-122.46761217614083, 44.80188909346397], [-122.46761912324828, 44.8024284834961], [-122.46252170345461, 44.802426167005265], [-122.45742428366076, 44.80242385051438], [-122.45739435993967, 44.798788716296166], [-122.45736443821886, 44.795153580077994]]]}, "properties": {"title": "Corpus Christi 4", "description": "placer | serial OR106728705 | 20.0 ac | Filed | qtr-sec OR 33 0090S 0030E 008 SE | recorded~2025 (DB date, not legal located date) | src: BLM MLRS Not Closed | boundary approx (BLM quarter-section) | do not dig here (active claim)", "stroke": "#ff3300", "stroke-width": 2, "fill": "#ff3300", "fill-opacity": 0.05, "stroke-dasharray": "1,6"}}]}