<?xml version="1.0" encoding="UTF-8"?><kml xmlns="http://www.opengis.net/kml/2.2"><Document><name>Little North Santiam River</name><Style id="my_claim"><IconStyle><color>ff00a5ff</color><scale>1.0</scale><Icon><href>http://maps.google.com/mapfiles/kml/paddle/orange-circle.png</href></Icon></IconStyle></Style><Style id="public_site"><IconStyle><color>ff008000</color><scale>1.0</scale><Icon><href>http://maps.google.com/mapfiles/kml/paddle/grn-circle.png</href></Icon></IconStyle></Style><Style id="usmin"><IconStyle><color>ff000000</color><scale>0.7</scale><Icon><href>http://maps.google.com/mapfiles/kml/shapes/placemark_circle.png</href></Icon></IconStyle></Style><Style id="usmin_polygon"><LineStyle><color>ff000000</color><width>2</width></LineStyle><PolyStyle><color>40000000</color></PolyStyle></Style><Style id="milo_gold"><IconStyle><color>ff00d7ff</color><scale>1.0</scale><Icon><href>http://maps.google.com/mapfiles/kml/shapes/mining.png</href></Icon></IconStyle></Style><Style id="site_other"><IconStyle><color>ff808080</color><scale>0.8</scale><Icon><href>http://maps.google.com/mapfiles/kml/shapes/placemark_circle.png</href></Icon></IconStyle></Style><Style id="active_claim"><LineStyle><color>ff0000ff</color><width>2</width></LineStyle><PolyStyle><color>660000ff</color></PolyStyle></Style><Style id="density_low"><LineStyle><color>ff00ffff</color><width>2</width></LineStyle><PolyStyle><color>9900ffff</color></PolyStyle></Style><Style id="density_med"><LineStyle><color>ff00a5ff</color><width>2</width></LineStyle><PolyStyle><color>9900a5ff</color></PolyStyle></Style><Style id="density_high"><LineStyle><color>ff0000ff</color><width>2</width></LineStyle><PolyStyle><color>990000ff</color></PolyStyle></Style><Style id="open_ground"><IconStyle><color>ff00ff00</color><scale>1.1</scale><Icon><href>http://maps.google.com/mapfiles/kml/shapes/star.png</href></Icon></IconStyle></Style><Folder><name>My claims &amp; public sites</name><Placemark><name>WVM-LNF25 Little North Santiam</name><description>WVM | serial A02SJ00000B7SAVYAN | precision: blm | no MLRS polygon available yet</description><styleUrl>#my_claim</styleUrl><Point><coordinates>-122.523700,44.798400,0</coordinates></Point></Placemark></Folder><Folder><name>Active mining claims (BLM MLRS)</name><Placemark><name>SANTIAM 1 [APPROX quarter-section]</name><description>placer | serial ORMC174208 | 20.0 ac | Active | qtr-sec OR 33 0090S 0030E 008 A SE | recorded~2021 (DB date, not legal located date) | src: BLM MLRS Not Closed | APPROX (BLM quarter-section)</description><styleUrl>#active_claim</styleUrl><Polygon><outerBoundaryIs><LinearRing><coordinates>-122.467524,44.795226,0 -122.467572,44.798827,0 -122.467574,44.799020,0 -122.467612,44.801889,0 -122.467619,44.802428,0 -122.462522,44.802426,0 -122.457424,44.802424,0 -122.457394,44.798789,0 -122.457364,44.795154,0 -122.462444,44.795190,0 -122.467524,44.795226,0</coordinates></LinearRing></outerBoundaryIs></Polygon></Placemark><Placemark><name>Corpus Christi #2 [APPROX quarter-section]</name><description>placer | serial OR106728704 | 20.0 ac | Filed | qtr-sec OR 33 0090S 0030E 008 SW | recorded~2025 (DB date, not legal located date) | src: BLM MLRS Not Closed | APPROX (BLM quarter-section)</description><styleUrl>#active_claim</styleUrl><Polygon><outerBoundaryIs><LinearRing><coordinates>-122.477932,44.795202,0 -122.477890,44.798817,0 -122.477874,44.800248,0 -122.477866,44.800907,0 -122.477848,44.802433,0 -122.472734,44.802431,0 -122.467619,44.802428,0 -122.467612,44.801889,0 -122.467574,44.799020,0 -122.467572,44.798827,0 -122.467524,44.795226,0 -122.472728,44.795214,0 -122.477932,44.795202,0</coordinates></LinearRing></outerBoundaryIs></Polygon></Placemark><Placemark><name>Corpus Christi #5 [APPROX quarter-section]</name><description>placer | serial OR106728706 | 20.0 ac | Filed | qtr-sec OR 33 0090S 0030E 008  | recorded~2025 (DB date, not legal located date) | src: BLM MLRS Not Closed | APPROX (BLM quarter-section)</description><styleUrl>#active_claim</styleUrl><Polygon><outerBoundaryIs><LinearRing><coordinates>-122.457364,44.795154,0 -122.462444,44.795190,0 -122.467524,44.795226,0 -122.472728,44.795214,0 -122.477932,44.795202,0 -122.477890,44.798817,0 -122.477874,44.800248,0 -122.477866,44.800907,0 -122.477848,44.802433,0 -122.477845,44.802734,0 -122.477807,44.806048,0 -122.477765,44.809663,0 -122.472739,44.809664,0 -122.467712,44.809665,0 -122.462551,44.809645,0 -122.457391,44.809626,0 -122.457407,44.806025,0 -122.457424,44.802424,0 -122.457394,44.798789,0 -122.457364,44.795154,0</coordinates></LinearRing></outerBoundaryIs></Polygon></Placemark><Placemark><name>Cornus Christi #3 [APPROX quarter-section]</name><description>placer | serial OR106728703 | 20.0 ac | Filed | qtr-sec OR 33 0090S 0030E 008 SW | recorded~2025 (DB date, not legal located date) | src: BLM MLRS Not Closed | APPROX (BLM quarter-section)</description><styleUrl>#active_claim</styleUrl><Polygon><outerBoundaryIs><LinearRing><coordinates>-122.477932,44.795202,0 -122.477890,44.798817,0 -122.477874,44.800248,0 -122.477866,44.800907,0 -122.477848,44.802433,0 -122.472734,44.802431,0 -122.467619,44.802428,0 -122.467612,44.801889,0 -122.467574,44.799020,0 -122.467572,44.798827,0 -122.467524,44.795226,0 -122.472728,44.795214,0 -122.477932,44.795202,0</coordinates></LinearRing></outerBoundaryIs></Polygon></Placemark><Placemark><name>Corpus Christi #4 [APPROX quarter-section]</name><description>placer | serial OR106728705 | 20.0 ac | Filed | qtr-sec OR 33 0090S 0030E 008 SE | recorded~2025 (DB date, not legal located date) | src: BLM MLRS Not Closed | APPROX (BLM quarter-section)</description><styleUrl>#active_claim</styleUrl><Polygon><outerBoundaryIs><LinearRing><coordinates>-122.457364,44.795154,0 -122.462444,44.795190,0 -122.467524,44.795226,0 -122.467572,44.798827,0 -122.467574,44.799020,0 -122.467612,44.801889,0 -122.467619,44.802428,0 -122.462522,44.802426,0 -122.457424,44.802424,0 -122.457394,44.798789,0 -122.457364,44.795154,0</coordinates></LinearRing></outerBoundaryIs></Polygon></Placemark></Folder></Document></kml>