<?xml version="1.0" encoding="UTF-8"?><kml xmlns="http://www.opengis.net/kml/2.2"><Document><name>lnf_santiam My claims</name><Style id="s0"><IconStyle><color>ff00ffff</color><scale>1.0</scale><Icon><href>http://maps.google.com/mapfiles/kml/shapes/placemark_circle.png</href></Icon></IconStyle></Style><Folder><name>My claims</name><Placemark><name>WVM-LNF25 Little North Santiam</name><description>club: Willamette Valley Miners (WVM) | serial: A02SJ00000B7SAVYAN | acres: n/a | directions: not available (no club handbook source in this build) | no BLM MLRS polygon available yet -- point only, not an invented boundary</description><styleUrl>#s0</styleUrl><Point><coordinates>-122.523700,44.798400,0</coordinates></Point></Placemark></Folder></Document></kml>