<?xml version="1.0" encoding="UTF-8"?>
<gpx xmlns:xsi="http://www.w3.org/2001/XMLSchema-instance" xmlns="http://www.topografix.com/GPX/1/1" xmlns:onx="http://www.onxmaps.com" xsi:schemaLocation="http://www.topografix.com/GPX/1/1 http://www.topografix.com/GPX/1/1/gpx.xsd" version="1.1" creator="onXmaps hunt ios"><wpt lat="44.798400" lon="-122.523700"><name>WVM-LNF25 Little North Santiam</name><desc>club: Willamette Valley Miners (WVM) | serial: A02SJ00000B7SAVYAN | acres: n/a | directions: not available (no club handbook source in this build) | no BLM MLRS polygon available yet -- point only, not an invented boundary</desc><extensions><onx:icon>Mineral Site</onx:icon><onx:color>rgba(255, 255, 0, 1)</onx:color></extensions></wpt></gpx>