<?xml version="1.0" encoding="UTF-8"?>
<gpx xmlns:xsi="http://www.w3.org/2001/XMLSchema-instance" xmlns="http://www.topografix.com/GPX/1/1" xmlns:onx="http://www.onxmaps.com" xsi:schemaLocation="http://www.topografix.com/GPX/1/1 http://www.topografix.com/GPX/1/1/gpx.xsd" version="1.1" creator="onXmaps hunt ios"><rte><name>SANTIAM 1</name><type>Area</type><extensions><onx:style>dot</onx:style><onx:weight>4.0</onx:weight><onx:color>rgba(255, 51, 0, 1)</onx:color></extensions><rtept lat="44.795226" lon="-122.467524"></rtept><rtept lat="44.798827" lon="-122.467572"></rtept><rtept lat="44.799020" lon="-122.467574"></rtept><rtept lat="44.801889" lon="-122.467612"></rtept><rtept lat="44.802428" lon="-122.467619"></rtept><rtept lat="44.802426" lon="-122.462522"></rtept><rtept lat="44.802424" lon="-122.457424"></rtept><rtept lat="44.798789" lon="-122.457394"></rtept><rtept lat="44.795154" lon="-122.457364"></rtept><rtept lat="44.795190" lon="-122.462444"></rtept><rtept lat="44.795226" lon="-122.467524"></rtept></rte><rte><name>Corpus Christi 2</name><type>Area</type><extensions><onx:style>dot</onx:style><onx:weight>4.0</onx:weight><onx:color>rgba(255, 51, 0, 1)</onx:color></extensions><rtept lat="44.795202" lon="-122.477932"></rtept><rtept lat="44.798817" lon="-122.477890"></rtept><rtept lat="44.800248" lon="-122.477874"></rtept><rtept lat="44.800907" lon="-122.477866"></rtept><rtept lat="44.802433" lon="-122.477848"></rtept><rtept lat="44.802431" lon="-122.472734"></rtept><rtept lat="44.802428" lon="-122.467619"></rtept><rtept lat="44.801889" lon="-122.467612"></rtept><rtept lat="44.799020" lon="-122.467574"></rtept><rtept lat="44.798827" lon="-122.467572"></rtept><rtept lat="44.795226" lon="-122.467524"></rtept><rtept lat="44.795214" lon="-122.472728"></rtept><rtept lat="44.795202" lon="-122.477932"></rtept></rte><rte><name>Corpus Christi 5</name><type>Area</type><extensions><onx:style>dot</onx:style><onx:weight>4.0</onx:weight><onx:color>rgba(255, 51, 0, 1)</onx:color></extensions><rtept lat="44.795154" lon="-122.457364"></rtept><rtept lat="44.795190" lon="-122.462444"></rtept><rtept lat="44.795226" lon="-122.467524"></rtept><rtept lat="44.795214" lon="-122.472728"></rtept><rtept lat="44.795202" lon="-122.477932"></rtept><rtept lat="44.798817" lon="-122.477890"></rtept><rtept lat="44.800248" lon="-122.477874"></rtept><rtept lat="44.800907" lon="-122.477866"></rtept><rtept lat="44.802433" lon="-122.477848"></rtept><rtept lat="44.802734" lon="-122.477845"></rtept><rtept lat="44.806048" lon="-122.477807"></rtept><rtept lat="44.809663" lon="-122.477765"></rtept><rtept lat="44.809664" lon="-122.472739"></rtept><rtept lat="44.809665" lon="-122.467712"></rtept><rtept lat="44.809645" lon="-122.462551"></rtept><rtept lat="44.809626" lon="-122.457391"></rtept><rtept lat="44.806025" lon="-122.457407"></rtept><rtept lat="44.802424" lon="-122.457424"></rtept><rtept lat="44.798789" lon="-122.457394"></rtept><rtept lat="44.795154" lon="-122.457364"></rtept></rte><rte><name>Cornus Christi 3</name><type>Area</type><extensions><onx:style>dot</onx:style><onx:weight>4.0</onx:weight><onx:color>rgba(255, 51, 0, 1)</onx:color></extensions><rtept lat="44.795202" lon="-122.477932"></rtept><rtept lat="44.798817" lon="-122.477890"></rtept><rtept lat="44.800248" lon="-122.477874"></rtept><rtept lat="44.800907" lon="-122.477866"></rtept><rtept lat="44.802433" lon="-122.477848"></rtept><rtept lat="44.802431" lon="-122.472734"></rtept><rtept lat="44.802428" lon="-122.467619"></rtept><rtept lat="44.801889" lon="-122.467612"></rtept><rtept lat="44.799020" lon="-122.467574"></rtept><rtept lat="44.798827" lon="-122.467572"></rtept><rtept lat="44.795226" lon="-122.467524"></rtept><rtept lat="44.795214" lon="-122.472728"></rtept><rtept lat="44.795202" lon="-122.477932"></rtept></rte><rte><name>Corpus Christi 4</name><type>Area</type><extensions><onx:style>dot</onx:style><onx:weight>4.0</onx:weight><onx:color>rgba(255, 51, 0, 1)</onx:color></extensions><rtept lat="44.795154" lon="-122.457364"></rtept><rtept lat="44.795190" lon="-122.462444"></rtept><rtept lat="44.795226" lon="-122.467524"></rtept><rtept lat="44.798827" lon="-122.467572"></rtept><rtept lat="44.799020" lon="-122.467574"></rtept><rtept lat="44.801889" lon="-122.467612"></rtept><rtept lat="44.802428" lon="-122.467619"></rtept><rtept lat="44.802426" lon="-122.462522"></rtept><rtept lat="44.802424" lon="-122.457424"></rtept><rtept lat="44.798789" lon="-122.457394"></rtept><rtept lat="44.795154" lon="-122.457364"></rtept></rte></gpx>