<?xml version="1.0" encoding="UTF-8"?><gpx version="1.1" creator="gold-overlays" xmlns="http://www.topografix.com/GPX/1/1" xmlns:xsi="http://www.w3.org/2001/XMLSchema-instance" xsi:schemaLocation="http://www.topografix.com/GPX/1/1 http://www.topografix.com/GPX/1/1/gpx.xsd"><metadata><name>Little North Santiam River</name></metadata><wpt lat="44.798400" lon="-122.523700"><name>WVM-LNF25 Little North Santiam</name><desc>WVM | serial A02SJ00000B7SAVYAN | precision: blm | no MLRS polygon available yet</desc><sym>Flag, Orange</sym></wpt><trk><name>SANTIAM 1 [APPROX quarter-section]</name><desc>placer | serial ORMC174208 | 20.0 ac | Active | qtr-sec OR 33 0090S 0030E 008 A SE | recorded~2021 (DB date, not legal located date) | src: BLM MLRS Not Closed | APPROX (BLM quarter-section)</desc><trkseg><trkpt lat="44.795226" lon="-122.467524"></trkpt><trkpt lat="44.798827" lon="-122.467572"></trkpt><trkpt lat="44.799020" lon="-122.467574"></trkpt><trkpt lat="44.801889" lon="-122.467612"></trkpt><trkpt lat="44.802428" lon="-122.467619"></trkpt><trkpt lat="44.802426" lon="-122.462522"></trkpt><trkpt lat="44.802424" lon="-122.457424"></trkpt><trkpt lat="44.798789" lon="-122.457394"></trkpt><trkpt lat="44.795154" lon="-122.457364"></trkpt><trkpt lat="44.795190" lon="-122.462444"></trkpt><trkpt lat="44.795226" lon="-122.467524"></trkpt></trkseg></trk><trk><name>Corpus Christi #2 [APPROX quarter-section]</name><desc>placer | serial OR106728704 | 20.0 ac | Filed | qtr-sec OR 33 0090S 0030E 008 SW | recorded~2025 (DB date, not legal located date) | src: BLM MLRS Not Closed | APPROX (BLM quarter-section)</desc><trkseg><trkpt lat="44.795202" lon="-122.477932"></trkpt><trkpt lat="44.798817" lon="-122.477890"></trkpt><trkpt lat="44.800248" lon="-122.477874"></trkpt><trkpt lat="44.800907" lon="-122.477866"></trkpt><trkpt lat="44.802433" lon="-122.477848"></trkpt><trkpt lat="44.802431" lon="-122.472734"></trkpt><trkpt lat="44.802428" lon="-122.467619"></trkpt><trkpt lat="44.801889" lon="-122.467612"></trkpt><trkpt lat="44.799020" lon="-122.467574"></trkpt><trkpt lat="44.798827" lon="-122.467572"></trkpt><trkpt lat="44.795226" lon="-122.467524"></trkpt><trkpt lat="44.795214" lon="-122.472728"></trkpt><trkpt lat="44.795202" lon="-122.477932"></trkpt></trkseg></trk><trk><name>Corpus Christi #5 [APPROX quarter-section]</name><desc>placer | serial OR106728706 | 20.0 ac | Filed | qtr-sec OR 33 0090S 0030E 008  | recorded~2025 (DB date, not legal located date) | src: BLM MLRS Not Closed | APPROX (BLM quarter-section)</desc><trkseg><trkpt lat="44.795154" lon="-122.457364"></trkpt><trkpt lat="44.795190" lon="-122.462444"></trkpt><trkpt lat="44.795226" lon="-122.467524"></trkpt><trkpt lat="44.795214" lon="-122.472728"></trkpt><trkpt lat="44.795202" lon="-122.477932"></trkpt><trkpt lat="44.798817" lon="-122.477890"></trkpt><trkpt lat="44.800248" lon="-122.477874"></trkpt><trkpt lat="44.800907" lon="-122.477866"></trkpt><trkpt lat="44.802433" lon="-122.477848"></trkpt><trkpt lat="44.802734" lon="-122.477845"></trkpt><trkpt lat="44.806048" lon="-122.477807"></trkpt><trkpt lat="44.809663" lon="-122.477765"></trkpt><trkpt lat="44.809664" lon="-122.472739"></trkpt><trkpt lat="44.809665" lon="-122.467712"></trkpt><trkpt lat="44.809645" lon="-122.462551"></trkpt><trkpt lat="44.809626" lon="-122.457391"></trkpt><trkpt lat="44.806025" lon="-122.457407"></trkpt><trkpt lat="44.802424" lon="-122.457424"></trkpt><trkpt lat="44.798789" lon="-122.457394"></trkpt><trkpt lat="44.795154" lon="-122.457364"></trkpt></trkseg></trk><trk><name>Cornus Christi #3 [APPROX quarter-section]</name><desc>placer | serial OR106728703 | 20.0 ac | Filed | qtr-sec OR 33 0090S 0030E 008 SW | recorded~2025 (DB date, not legal located date) | src: BLM MLRS Not Closed | APPROX (BLM quarter-section)</desc><trkseg><trkpt lat="44.795202" lon="-122.477932"></trkpt><trkpt lat="44.798817" lon="-122.477890"></trkpt><trkpt lat="44.800248" lon="-122.477874"></trkpt><trkpt lat="44.800907" lon="-122.477866"></trkpt><trkpt lat="44.802433" lon="-122.477848"></trkpt><trkpt lat="44.802431" lon="-122.472734"></trkpt><trkpt lat="44.802428" lon="-122.467619"></trkpt><trkpt lat="44.801889" lon="-122.467612"></trkpt><trkpt lat="44.799020" lon="-122.467574"></trkpt><trkpt lat="44.798827" lon="-122.467572"></trkpt><trkpt lat="44.795226" lon="-122.467524"></trkpt><trkpt lat="44.795214" lon="-122.472728"></trkpt><trkpt lat="44.795202" lon="-122.477932"></trkpt></trkseg></trk><trk><name>Corpus Christi #4 [APPROX quarter-section]</name><desc>placer | serial OR106728705 | 20.0 ac | Filed | qtr-sec OR 33 0090S 0030E 008 SE | recorded~2025 (DB date, not legal located date) | src: BLM MLRS Not Closed | APPROX (BLM quarter-section)</desc><trkseg><trkpt lat="44.795154" lon="-122.457364"></trkpt><trkpt lat="44.795190" lon="-122.462444"></trkpt><trkpt lat="44.795226" lon="-122.467524"></trkpt><trkpt lat="44.798827" lon="-122.467572"></trkpt><trkpt lat="44.799020" lon="-122.467574"></trkpt><trkpt lat="44.801889" lon="-122.467612"></trkpt><trkpt lat="44.802428" lon="-122.467619"></trkpt><trkpt lat="44.802426" lon="-122.462522"></trkpt><trkpt lat="44.802424" lon="-122.457424"></trkpt><trkpt lat="44.798789" lon="-122.457394"></trkpt><trkpt lat="44.795154" lon="-122.457364"></trkpt></trkseg></trk></gpx>