<?xml version="1.0" encoding="UTF-8"?><kml xmlns="http://www.opengis.net/kml/2.2"><Document><name>bohemia Public panning sites</name><Style id="s0"><IconStyle><color>ff000000</color><scale>1.0</scale><Icon><href>http://maps.google.com/mapfiles/kml/shapes/placemark_circle.png</href></Icon></IconStyle></Style><Folder><name>Public panning sites</name><Placemark><name>Cedar Creek Campground (Brice Cr)</name><description>public panning site | precision: published | status: unconfirmed-green, using black (no confirmed onX green)</description><styleUrl>#s0</styleUrl><Point><coordinates>-122.708000,43.671000,0</coordinates></Point></Placemark></Folder></Document></kml>