<?xml version="1.0" encoding="UTF-8"?>
<gpx xmlns:xsi="http://www.w3.org/2001/XMLSchema-instance" xmlns="http://www.topografix.com/GPX/1/1" xmlns:onx="http://www.onxmaps.com" xsi:schemaLocation="http://www.topografix.com/GPX/1/1 http://www.topografix.com/GPX/1/1/gpx.xsd" version="1.1" creator="onXmaps hunt ios"><wpt lat="43.597864" lon="-122.659965"><name>Placer - No.1 Claim</name><desc>4 source record(s) merged within 75m | src: MILO, USMIN</desc><extensions><onx:icon>Mineral Site</onx:icon><onx:color>rgba(0, 0, 0, 1)</onx:color></extensions></wpt><wpt lat="43.597565" lon="-122.752348"><name>Placer - prospect</name><desc>4 source record(s) merged within 75m | src: MILO</desc><extensions><onx:icon>Mineral Site</onx:icon><onx:color>rgba(0, 0, 0, 1)</onx:color></extensions></wpt><wpt lat="43.582640" lon="-122.728611"><name>Placer - Salor Gulch placer</name><desc>2 source record(s) merged within 75m | src: MILO</desc><extensions><onx:icon>Mineral Site</onx:icon><onx:color>rgba(0, 0, 0, 1)</onx:color></extensions></wpt><wpt lat="43.607873" lon="-122.635219"><name>Placer - Trixie Mine</name><desc>2 source record(s) merged within 75m | src: MILO</desc><extensions><onx:icon>Mineral Site</onx:icon><onx:color>rgba(0, 0, 0, 1)</onx:color></extensions></wpt><wpt lat="43.559541" lon="-122.600541"><name>Placer - Mineral King</name><desc>1 source record(s) merged within 75m | src: MILO</desc><extensions><onx:icon>Mineral Site</onx:icon><onx:color>rgba(0, 0, 0, 1)</onx:color></extensions></wpt><wpt lat="43.562541" lon="-122.793044"><name>Placer - gold prospect</name><desc>1 source record(s) merged within 75m | src: MILO</desc><extensions><onx:icon>Mineral Site</onx:icon><onx:color>rgba(0, 0, 0, 1)</onx:color></extensions></wpt><wpt lat="43.505473" lon="-122.839649"><name>Placer - Huckleberry Prospect</name><desc>1 source record(s) merged within 75m | src: MILO</desc><extensions><onx:icon>Mineral Site</onx:icon><onx:color>rgba(0, 0, 0, 1)</onx:color></extensions></wpt><wpt lat="43.594170" lon="-122.646819"><name>Placer - Knickerbocker Claim</name><desc>1 source record(s) merged within 75m | src: MILO</desc><extensions><onx:icon>Mineral Site</onx:icon><onx:color>rgba(0, 0, 0, 1)</onx:color></extensions></wpt><wpt lat="43.600975" lon="-122.661079"><name>Placer - No.5 Claim</name><desc>1 source record(s) merged within 75m | src: MILO</desc><extensions><onx:icon>Mineral Site</onx:icon><onx:color>rgba(0, 0, 0, 1)</onx:color></extensions></wpt><wpt lat="43.594234" lon="-122.643726"><name>Placer - War Eagle</name><desc>1 source record(s) merged within 75m | src: MILO</desc><extensions><onx:icon>Mineral Site</onx:icon><onx:color>rgba(0, 0, 0, 1)</onx:color></extensions></wpt><wpt lat="43.560590" lon="-122.703170"><name>Adit - Fairview Peak</name><desc>7 source record(s) merged within 75m | src: MILO, USMIN</desc><extensions><onx:icon>Location</onx:icon><onx:color>rgba(0, 0, 0, 1)</onx:color></extensions></wpt><wpt lat="43.593658" lon="-122.649155"><name>Adit - Fairview Peak</name><desc>5 source record(s) merged within 75m | src: MILO, USMIN</desc><extensions><onx:icon>Location</onx:icon><onx:color>rgba(0, 0, 0, 1)</onx:color></extensions></wpt><wpt lat="43.560066" lon="-122.648967"><name>Adit - Fairview Peak</name><desc>4 source record(s) merged within 75m | src: MILO, USMIN</desc><extensions><onx:icon>Location</onx:icon><onx:color>rgba(0, 0, 0, 1)</onx:color></extensions></wpt><wpt lat="43.581006" lon="-122.664940"><name>Adit - Fairview Peak</name><desc>4 source record(s) merged within 75m | src: MILO, USMIN</desc><extensions><onx:icon>Location</onx:icon><onx:color>rgba(0, 0, 0, 1)</onx:color></extensions></wpt><wpt lat="43.585147" lon="-122.659648"><name>Adit - Fairview Peak</name><desc>4 source record(s) merged within 75m | src: MILO, MRDS, USMIN</desc><extensions><onx:icon>Location</onx:icon><onx:color>rgba(0, 0, 0, 1)</onx:color></extensions></wpt><wpt lat="43.561239" lon="-122.706029"><name>Adit - Fairview Peak</name><desc>4 source record(s) merged within 75m | src: MILO, USMIN</desc><extensions><onx:icon>Location</onx:icon><onx:color>rgba(0, 0, 0, 1)</onx:color></extensions></wpt><wpt lat="43.587417" lon="-122.672166"><name>Adit - Fairview Peak</name><desc>4 source record(s) merged within 75m | src: MILO, USMIN</desc><extensions><onx:icon>Location</onx:icon><onx:color>rgba(0, 0, 0, 1)</onx:color></extensions></wpt><wpt lat="43.580808" lon="-122.633750"><name>Adit - Fairview Peak</name><desc>4 source record(s) merged within 75m | src: MILO, USMIN</desc><extensions><onx:icon>Location</onx:icon><onx:color>rgba(0, 0, 0, 1)</onx:color></extensions></wpt><wpt lat="43.578131" lon="-122.653752"><name>Adit - Fairview Peak</name><desc>4 source record(s) merged within 75m | src: MILO, USMIN</desc><extensions><onx:icon>Location</onx:icon><onx:color>rgba(0, 0, 0, 1)</onx:color></extensions></wpt><wpt lat="43.584151" lon="-122.613515"><name>Adit - Bearbones Mtn.</name><desc>4 source record(s) merged within 75m | src: MILO, USMIN</desc><extensions><onx:icon>Location</onx:icon><onx:color>rgba(0, 0, 0, 1)</onx:color></extensions></wpt><wpt lat="43.582766" lon="-122.697176"><name>Adit - Fairview Peak</name><desc>4 source record(s) merged within 75m | src: MILO, MRDS, USMIN</desc><extensions><onx:icon>Location</onx:icon><onx:color>rgba(0, 0, 0, 1)</onx:color></extensions></wpt><wpt lat="43.584528" lon="-122.614767"><name>Adit - Fairview Peak</name><desc>4 source record(s) merged within 75m | src: MILO, USMIN</desc><extensions><onx:icon>Location</onx:icon><onx:color>rgba(0, 0, 0, 1)</onx:color></extensions></wpt><wpt lat="43.567855" lon="-122.666453"><name>Adit - Fairview Peak</name><desc>3 source record(s) merged within 75m | src: MILO, USMIN</desc><extensions><onx:icon>Location</onx:icon><onx:color>rgba(0, 0, 0, 1)</onx:color></extensions></wpt><wpt lat="43.583620" lon="-122.660701"><name>Adit - Fairview Peak</name><desc>3 source record(s) merged within 75m | src: MILO, USMIN</desc><extensions><onx:icon>Location</onx:icon><onx:color>rgba(0, 0, 0, 1)</onx:color></extensions></wpt><wpt lat="43.576972" lon="-122.629928"><name>Adit - Fairview Peak</name><desc>3 source record(s) merged within 75m | src: MILO, USMIN</desc><extensions><onx:icon>Location</onx:icon><onx:color>rgba(0, 0, 0, 1)</onx:color></extensions></wpt><wpt lat="43.583920" lon="-122.655978"><name>Adit - Fairview Peak</name><desc>3 source record(s) merged within 75m | src: MILO, USMIN</desc><extensions><onx:icon>Location</onx:icon><onx:color>rgba(0, 0, 0, 1)</onx:color></extensions></wpt><wpt lat="43.590563" lon="-122.658454"><name>Adit - Fairview Peak</name><desc>3 source record(s) merged within 75m | src: MILO, USMIN</desc><extensions><onx:icon>Location</onx:icon><onx:color>rgba(0, 0, 0, 1)</onx:color></extensions></wpt><wpt lat="43.628486" lon="-122.638074"><name>Adit - Fairview Peak</name><desc>3 source record(s) merged within 75m | src: MILO, USMIN</desc><extensions><onx:icon>Location</onx:icon><onx:color>rgba(0, 0, 0, 1)</onx:color></extensions></wpt><wpt lat="43.580269" lon="-122.698297"><name>Adit - Fairview Peak</name><desc>3 source record(s) merged within 75m | src: MILO, USMIN</desc><extensions><onx:icon>Location</onx:icon><onx:color>rgba(0, 0, 0, 1)</onx:color></extensions></wpt><wpt lat="43.578483" lon="-122.616747"><name>Adit - Bearbones Mtn.</name><desc>3 source record(s) merged within 75m | src: MILO, USMIN</desc><extensions><onx:icon>Location</onx:icon><onx:color>rgba(0, 0, 0, 1)</onx:color></extensions></wpt><wpt lat="43.571875" lon="-122.593133"><name>Adit - Bearbones Mtn.</name><desc>3 source record(s) merged within 75m | src: MILO, USMIN</desc><extensions><onx:icon>Location</onx:icon><onx:color>rgba(0, 0, 0, 1)</onx:color></extensions></wpt><wpt lat="43.567774" lon="-122.593022"><name>Adit - Bearbones Mtn.</name><desc>3 source record(s) merged within 75m | src: MILO, USMIN</desc><extensions><onx:icon>Location</onx:icon><onx:color>rgba(0, 0, 0, 1)</onx:color></extensions></wpt><wpt lat="43.579541" lon="-122.603624"><name>Adit - Fairview Peak</name><desc>3 source record(s) merged within 75m | src: MILO, USMIN</desc><extensions><onx:icon>Location</onx:icon><onx:color>rgba(0, 0, 0, 1)</onx:color></extensions></wpt><wpt lat="43.559498" lon="-122.704280"><name>Adit - Fairview Peak</name><desc>2 source record(s) merged within 75m | src: MILO, USMIN</desc><extensions><onx:icon>Location</onx:icon><onx:color>rgba(0, 0, 0, 1)</onx:color></extensions></wpt><wpt lat="43.604762" lon="-122.675349"><name>Adit - Fairview Peak</name><desc>2 source record(s) merged within 75m | src: MILO, USMIN</desc><extensions><onx:icon>Location</onx:icon><onx:color>rgba(0, 0, 0, 1)</onx:color></extensions></wpt><wpt lat="43.598556" lon="-122.660486"><name>Adit - Fairview Peak</name><desc>2 source record(s) merged within 75m | src: MILO, USMIN</desc><extensions><onx:icon>Location</onx:icon><onx:color>rgba(0, 0, 0, 1)</onx:color></extensions></wpt><wpt lat="43.542480" lon="-122.726651"><name>Adit - Fairview Peak</name><desc>2 source record(s) merged within 75m | src: MILO, USMIN</desc><extensions><onx:icon>Location</onx:icon><onx:color>rgba(0, 0, 0, 1)</onx:color></extensions></wpt><wpt lat="43.544408" lon="-122.693765"><name>Adit - Fairview Peak</name><desc>2 source record(s) merged within 75m | src: MILO, USMIN</desc><extensions><onx:icon>Location</onx:icon><onx:color>rgba(0, 0, 0, 1)</onx:color></extensions></wpt><wpt lat="43.584412" lon="-122.679724"><name>Adit - Fairview Peak</name><desc>2 source record(s) merged within 75m | src: MILO, USMIN</desc><extensions><onx:icon>Location</onx:icon><onx:color>rgba(0, 0, 0, 1)</onx:color></extensions></wpt><wpt lat="43.579456" lon="-122.707141"><name>Adit - Fairview Peak</name><desc>2 source record(s) merged within 75m | src: MILO, USMIN</desc><extensions><onx:icon>Location</onx:icon><onx:color>rgba(0, 0, 0, 1)</onx:color></extensions></wpt><wpt lat="43.564109" lon="-122.669849"><name>Adit - Fairview Peak</name><desc>2 source record(s) merged within 75m | src: MILO, USMIN</desc><extensions><onx:icon>Location</onx:icon><onx:color>rgba(0, 0, 0, 1)</onx:color></extensions></wpt><wpt lat="43.593755" lon="-122.659184"><name>Adit - Fairview Peak</name><desc>2 source record(s) merged within 75m | src: MILO, USMIN</desc><extensions><onx:icon>Location</onx:icon><onx:color>rgba(0, 0, 0, 1)</onx:color></extensions></wpt><wpt lat="43.584107" lon="-122.689332"><name>Adit - Fairview Peak</name><desc>2 source record(s) merged within 75m | src: MILO, USMIN</desc><extensions><onx:icon>Location</onx:icon><onx:color>rgba(0, 0, 0, 1)</onx:color></extensions></wpt><wpt lat="43.579158" lon="-122.652738"><name>Adit - Fairview Peak</name><desc>2 source record(s) merged within 75m | src: MILO, USMIN</desc><extensions><onx:icon>Location</onx:icon><onx:color>rgba(0, 0, 0, 1)</onx:color></extensions></wpt><wpt lat="43.566934" lon="-122.667624"><name>Adit - Fairview Peak</name><desc>2 source record(s) merged within 75m | src: MILO, USMIN</desc><extensions><onx:icon>Location</onx:icon><onx:color>rgba(0, 0, 0, 1)</onx:color></extensions></wpt><wpt lat="43.558939" lon="-122.737660"><name>Adit - Fairview Peak</name><desc>2 source record(s) merged within 75m | src: MILO, USMIN</desc><extensions><onx:icon>Location</onx:icon><onx:color>rgba(0, 0, 0, 1)</onx:color></extensions></wpt><wpt lat="43.564957" lon="-122.666209"><name>Adit - Fairview Peak</name><desc>2 source record(s) merged within 75m | src: MILO, USMIN</desc><extensions><onx:icon>Location</onx:icon><onx:color>rgba(0, 0, 0, 1)</onx:color></extensions></wpt><wpt lat="43.607640" lon="-122.672349"><name>Adit - Fairview Peak</name><desc>2 source record(s) merged within 75m | src: MILO, USMIN</desc><extensions><onx:icon>Location</onx:icon><onx:color>rgba(0, 0, 0, 1)</onx:color></extensions></wpt><wpt lat="43.579227" lon="-122.653864"><name>Adit - Fairview Peak</name><desc>2 source record(s) merged within 75m | src: MILO, USMIN</desc><extensions><onx:icon>Location</onx:icon><onx:color>rgba(0, 0, 0, 1)</onx:color></extensions></wpt><wpt lat="43.575670" lon="-122.651269"><name>Adit - Fairview Peak</name><desc>2 source record(s) merged within 75m | src: MILO, USMIN</desc><extensions><onx:icon>Location</onx:icon><onx:color>rgba(0, 0, 0, 1)</onx:color></extensions></wpt><wpt lat="43.558917" lon="-122.742857"><name>Adit - Fairview Peak</name><desc>2 source record(s) merged within 75m | src: MILO, USMIN</desc><extensions><onx:icon>Location</onx:icon><onx:color>rgba(0, 0, 0, 1)</onx:color></extensions></wpt><wpt lat="43.581284" lon="-122.685333"><name>Adit - Fairview Peak</name><desc>2 source record(s) merged within 75m | src: MILO, USMIN</desc><extensions><onx:icon>Location</onx:icon><onx:color>rgba(0, 0, 0, 1)</onx:color></extensions></wpt><wpt lat="43.581116" lon="-122.722034"><name>Adit - Fairview Peak</name><desc>2 source record(s) merged within 75m | src: MILO, USMIN</desc><extensions><onx:icon>Location</onx:icon><onx:color>rgba(0, 0, 0, 1)</onx:color></extensions></wpt><wpt lat="43.583235" lon="-122.613136"><name>Adit - Fairview Peak</name><desc>1 source record(s) merged within 75m | src: USMIN</desc><extensions><onx:icon>Location</onx:icon><onx:color>rgba(0, 0, 0, 1)</onx:color></extensions></wpt><wpt lat="43.577575" lon="-122.627822"><name>Mine - prospect</name><desc>8 source record(s) merged within 75m | src: MILO</desc><extensions><onx:icon>Location</onx:icon><onx:color>rgba(0, 0, 0, 1)</onx:color></extensions></wpt><wpt lat="43.566452" lon="-122.635616"><name>Mine - Western Vein</name><desc>7 source record(s) merged within 75m | src: MILO</desc><extensions><onx:icon>Location</onx:icon><onx:color>rgba(0, 0, 0, 1)</onx:color></extensions></wpt><wpt lat="43.580045" lon="-122.657736"><name>Mine - prospect</name><desc>7 source record(s) merged within 75m | src: MILO, MRDS</desc><extensions><onx:icon>Location</onx:icon><onx:color>rgba(0, 0, 0, 1)</onx:color></extensions></wpt><wpt lat="43.561815" lon="-122.597254"><name>Mine - prospect</name><desc>7 source record(s) merged within 75m | src: MILO</desc><extensions><onx:icon>Location</onx:icon><onx:color>rgba(0, 0, 0, 1)</onx:color></extensions></wpt><wpt lat="43.570365" lon="-122.659109"><name>Mine - prospect</name><desc>6 source record(s) merged within 75m | src: MILO</desc><extensions><onx:icon>Location</onx:icon><onx:color>rgba(0, 0, 0, 1)</onx:color></extensions></wpt><wpt lat="43.614146" lon="-122.632497"><name>Mine - prospect</name><desc>6 source record(s) merged within 75m | src: MILO</desc><extensions><onx:icon>Location</onx:icon><onx:color>rgba(0, 0, 0, 1)</onx:color></extensions></wpt><wpt lat="43.599446" lon="-122.660599"><name>Mine - Elephant Group</name><desc>5 source record(s) merged within 75m | src: MILO</desc><extensions><onx:icon>Location</onx:icon><onx:color>rgba(0, 0, 0, 1)</onx:color></extensions></wpt><wpt lat="43.571741" lon="-122.647736"><name>Mine - Tipperary</name><desc>5 source record(s) merged within 75m | src: MILO</desc><extensions><onx:icon>Location</onx:icon><onx:color>rgba(0, 0, 0, 1)</onx:color></extensions></wpt><wpt lat="43.561051" lon="-122.704316"><name>Mine - Goldenstar Mine</name><desc>5 source record(s) merged within 75m | src: MILO</desc><extensions><onx:icon>Location</onx:icon><onx:color>rgba(0, 0, 0, 1)</onx:color></extensions></wpt><wpt lat="43.582533" lon="-122.642760"><name>Mine - prospect</name><desc>5 source record(s) merged within 75m | src: MILO</desc><extensions><onx:icon>Location</onx:icon><onx:color>rgba(0, 0, 0, 1)</onx:color></extensions></wpt><wpt lat="43.622967" lon="-122.678241"><name>Mine - prospect</name><desc>5 source record(s) merged within 75m | src: MILO</desc><extensions><onx:icon>Location</onx:icon><onx:color>rgba(0, 0, 0, 1)</onx:color></extensions></wpt><wpt lat="43.563995" lon="-122.710834"><name>Mine - prospect</name><desc>5 source record(s) merged within 75m | src: MILO</desc><extensions><onx:icon>Location</onx:icon><onx:color>rgba(0, 0, 0, 1)</onx:color></extensions></wpt><wpt lat="43.537289" lon="-122.521219"><name>Mine - prospect</name><desc>5 source record(s) merged within 75m | src: MILO</desc><extensions><onx:icon>Location</onx:icon><onx:color>rgba(0, 0, 0, 1)</onx:color></extensions></wpt><wpt lat="43.621936" lon="-122.681477"><name>Mine - Sunrise Group</name><desc>4 source record(s) merged within 75m | src: MILO</desc><extensions><onx:icon>Location</onx:icon><onx:color>rgba(0, 0, 0, 1)</onx:color></extensions></wpt><wpt lat="43.581655" lon="-122.644587"><name>Mine - Morning Glory Vein</name><desc>4 source record(s) merged within 75m | src: MILO</desc><extensions><onx:icon>Location</onx:icon><onx:color>rgba(0, 0, 0, 1)</onx:color></extensions></wpt><wpt lat="43.574774" lon="-122.650249"><name>Mine - Ophir</name><desc>4 source record(s) merged within 75m | src: MILO</desc><extensions><onx:icon>Location</onx:icon><onx:color>rgba(0, 0, 0, 1)</onx:color></extensions></wpt><wpt lat="43.568645" lon="-122.648776"><name>Mine - Peekaboo</name><desc>4 source record(s) merged within 75m | src: MILO</desc><extensions><onx:icon>Location</onx:icon><onx:color>rgba(0, 0, 0, 1)</onx:color></extensions></wpt><wpt lat="43.579922" lon="-122.654483"><name>Mine - California Vein</name><desc>4 source record(s) merged within 75m | src: MILO</desc><extensions><onx:icon>Location</onx:icon><onx:color>rgba(0, 0, 0, 1)</onx:color></extensions></wpt><wpt lat="43.578773" lon="-122.625415"><name>Mine - Knott claim</name><desc>4 source record(s) merged within 75m | src: MILO</desc><extensions><onx:icon>Location</onx:icon><onx:color>rgba(0, 0, 0, 1)</onx:color></extensions></wpt><wpt lat="43.567637" lon="-122.649647"><name>Mine - Peekaboo</name><desc>4 source record(s) merged within 75m | src: MILO</desc><extensions><onx:icon>Location</onx:icon><onx:color>rgba(0, 0, 0, 1)</onx:color></extensions></wpt><wpt lat="43.584126" lon="-122.649562"><name>Mine - prospect</name><desc>4 source record(s) merged within 75m | src: MILO, MRDS</desc><extensions><onx:icon>Location</onx:icon><onx:color>rgba(0, 0, 0, 1)</onx:color></extensions></wpt><wpt lat="43.582003" lon="-122.667341"><name>Mine - Musick Vein, Musick Claim</name><desc>4 source record(s) merged within 75m | src: MILO, MRDS</desc><extensions><onx:icon>Location</onx:icon><onx:color>rgba(0, 0, 0, 1)</onx:color></extensions></wpt><wpt lat="43.574199" lon="-122.645353"><name>Mine - prospect</name><desc>4 source record(s) merged within 75m | src: MILO</desc><extensions><onx:icon>Location</onx:icon><onx:color>rgba(0, 0, 0, 1)</onx:color></extensions></wpt><wpt lat="43.581681" lon="-122.652116"><name>Mine - prospect</name><desc>4 source record(s) merged within 75m | src: MILO</desc><extensions><onx:icon>Location</onx:icon><onx:color>rgba(0, 0, 0, 1)</onx:color></extensions></wpt><wpt lat="43.561414" lon="-122.649870"><name>Mine - prospect</name><desc>4 source record(s) merged within 75m | src: MILO</desc><extensions><onx:icon>Location</onx:icon><onx:color>rgba(0, 0, 0, 1)</onx:color></extensions></wpt><wpt lat="43.586160" lon="-122.620283"><name>Mine - prospect</name><desc>4 source record(s) merged within 75m | src: MILO</desc><extensions><onx:icon>Location</onx:icon><onx:color>rgba(0, 0, 0, 1)</onx:color></extensions></wpt><wpt lat="43.587106" lon="-122.623524"><name>Mine - prospect</name><desc>4 source record(s) merged within 75m | src: MILO</desc><extensions><onx:icon>Location</onx:icon><onx:color>rgba(0, 0, 0, 1)</onx:color></extensions></wpt><wpt lat="43.579176" lon="-122.621541"><name>Mine - prospect</name><desc>4 source record(s) merged within 75m | src: MILO</desc><extensions><onx:icon>Location</onx:icon><onx:color>rgba(0, 0, 0, 1)</onx:color></extensions></wpt><wpt lat="43.576956" lon="-122.615971"><name>Mine - mine</name><desc>4 source record(s) merged within 75m | src: MILO</desc><extensions><onx:icon>Location</onx:icon><onx:color>rgba(0, 0, 0, 1)</onx:color></extensions></wpt><wpt lat="43.631401" lon="-122.657369"><name>Mine - prospect</name><desc>4 source record(s) merged within 75m | src: MILO</desc><extensions><onx:icon>Location</onx:icon><onx:color>rgba(0, 0, 0, 1)</onx:color></extensions></wpt><wpt lat="43.579950" lon="-122.640536"><name>Mine - prospect</name><desc>4 source record(s) merged within 75m | src: MILO</desc><extensions><onx:icon>Location</onx:icon><onx:color>rgba(0, 0, 0, 1)</onx:color></extensions></wpt><wpt lat="43.577777" lon="-122.629895"><name>Mine - prospect</name><desc>4 source record(s) merged within 75m | src: MILO</desc><extensions><onx:icon>Location</onx:icon><onx:color>rgba(0, 0, 0, 1)</onx:color></extensions></wpt><wpt lat="43.553725" lon="-122.663278"><name>Mine - prospect</name><desc>4 source record(s) merged within 75m | src: MILO</desc><extensions><onx:icon>Location</onx:icon><onx:color>rgba(0, 0, 0, 1)</onx:color></extensions></wpt><wpt lat="43.575455" lon="-122.641960"><name>Mine - prospect</name><desc>4 source record(s) merged within 75m | src: MILO</desc><extensions><onx:icon>Location</onx:icon><onx:color>rgba(0, 0, 0, 1)</onx:color></extensions></wpt><wpt lat="43.559348" lon="-122.612848"><name>Mine - prospect</name><desc>4 source record(s) merged within 75m | src: MILO</desc><extensions><onx:icon>Location</onx:icon><onx:color>rgba(0, 0, 0, 1)</onx:color></extensions></wpt><wpt lat="43.608480" lon="-122.643095"><name>Mine - prospect</name><desc>4 source record(s) merged within 75m | src: MILO</desc><extensions><onx:icon>Location</onx:icon><onx:color>rgba(0, 0, 0, 1)</onx:color></extensions></wpt><wpt lat="43.639994" lon="-122.654378"><name>Mine - prospect</name><desc>4 source record(s) merged within 75m | src: MILO</desc><extensions><onx:icon>Location</onx:icon><onx:color>rgba(0, 0, 0, 1)</onx:color></extensions></wpt><wpt lat="43.591657" lon="-122.712354"><name>Mine - prospect</name><desc>4 source record(s) merged within 75m | src: MILO</desc><extensions><onx:icon>Location</onx:icon><onx:color>rgba(0, 0, 0, 1)</onx:color></extensions></wpt><wpt lat="43.599370" lon="-122.658118"><name>Mine - No.4 Claim</name><desc>4 source record(s) merged within 75m | src: MILO</desc><extensions><onx:icon>Location</onx:icon><onx:color>rgba(0, 0, 0, 1)</onx:color></extensions></wpt><wpt lat="43.570107" lon="-122.593619"><name>Pit - Fairview Peak</name><desc>3 source record(s) merged within 75m | src: MILO, USMIN</desc><extensions><onx:icon>Location</onx:icon><onx:color>rgba(0, 0, 0, 1)</onx:color></extensions></wpt><wpt lat="43.630647" lon="-122.639637"><name>Mine - Orchad mine (lower adit)</name><desc>3 source record(s) merged within 75m | src: MILO</desc><extensions><onx:icon>Location</onx:icon><onx:color>rgba(0, 0, 0, 1)</onx:color></extensions></wpt><wpt lat="43.622713" lon="-122.643838"><name>Mine - Sunset Mine (lower adit)</name><desc>3 source record(s) merged within 75m | src: MILO</desc><extensions><onx:icon>Location</onx:icon><onx:color>rgba(0, 0, 0, 1)</onx:color></extensions></wpt><wpt lat="43.598684" lon="-122.629441"><name>Mine - Warrener</name><desc>3 source record(s) merged within 75m | src: MILO</desc><extensions><onx:icon>Location</onx:icon><onx:color>rgba(0, 0, 0, 1)</onx:color></extensions></wpt><wpt lat="43.591241" lon="-122.657357"><name>Mine - North Fairview</name><desc>3 source record(s) merged within 75m | src: MILO</desc><extensions><onx:icon>Location</onx:icon><onx:color>rgba(0, 0, 0, 1)</onx:color></extensions></wpt><wpt lat="43.588986" lon="-122.643677"><name>Mine - Shotgun</name><desc>3 source record(s) merged within 75m | src: MILO</desc><extensions><onx:icon>Location</onx:icon><onx:color>rgba(0, 0, 0, 1)</onx:color></extensions></wpt><wpt lat="43.578157" lon="-122.655029"><name>Mine - Yucon Vein</name><desc>3 source record(s) merged within 75m | src: MILO</desc><extensions><onx:icon>Location</onx:icon><onx:color>rgba(0, 0, 0, 1)</onx:color></extensions></wpt><wpt lat="43.572881" lon="-122.649112"><name>Mine - Tipperary</name><desc>3 source record(s) merged within 75m | src: MILO</desc><extensions><onx:icon>Location</onx:icon><onx:color>rgba(0, 0, 0, 1)</onx:color></extensions></wpt><wpt lat="43.574737" lon="-122.639941"><name>Mine - Cline adit</name><desc>3 source record(s) merged within 75m | src: MILO</desc><extensions><onx:icon>Location</onx:icon><onx:color>rgba(0, 0, 0, 1)</onx:color></extensions></wpt><wpt lat="43.576470" lon="-122.627132"><name>Mine - Grouse Mountain Proj/Bir…</name><desc>3 source record(s) merged within 75m | src: MILO</desc><extensions><onx:icon>Location</onx:icon><onx:color>rgba(0, 0, 0, 1)</onx:color></extensions></wpt><wpt lat="43.558701" lon="-122.667819"><name>Mine - Glenwood</name><desc>3 source record(s) merged within 75m | src: MILO</desc><extensions><onx:icon>Location</onx:icon><onx:color>rgba(0, 0, 0, 1)</onx:color></extensions></wpt><wpt lat="43.575162" lon="-122.619522"><name>Mine - Gray Eagle</name><desc>3 source record(s) merged within 75m | src: MILO</desc><extensions><onx:icon>Location</onx:icon><onx:color>rgba(0, 0, 0, 1)</onx:color></extensions></wpt><wpt lat="43.570019" lon="-122.616481"><name>Mine - Ingham Group</name><desc>3 source record(s) merged within 75m | src: MILO</desc><extensions><onx:icon>Location</onx:icon><onx:color>rgba(0, 0, 0, 1)</onx:color></extensions></wpt><wpt lat="43.558621" lon="-122.613804"><name>Mine - Oregon-Colorado, lower a…</name><desc>3 source record(s) merged within 75m | src: MILO</desc><extensions><onx:icon>Location</onx:icon><onx:color>rgba(0, 0, 0, 1)</onx:color></extensions></wpt><wpt lat="43.480517" lon="-122.601672"><name>Mine - City Creek</name><desc>3 source record(s) merged within 75m | src: MILO, MRDS</desc><extensions><onx:icon>Location</onx:icon><onx:color>rgba(0, 0, 0, 1)</onx:color></extensions></wpt><wpt lat="43.589430" lon="-122.645074"><name>Mine - Shotgun</name><desc>3 source record(s) merged within 75m | src: MILO</desc><extensions><onx:icon>Location</onx:icon><onx:color>rgba(0, 0, 0, 1)</onx:color></extensions></wpt><wpt lat="43.582182" lon="-122.647108"><name>Mine - prospect</name><desc>3 source record(s) merged within 75m | src: MILO</desc><extensions><onx:icon>Location</onx:icon><onx:color>rgba(0, 0, 0, 1)</onx:color></extensions></wpt><wpt lat="43.582920" lon="-122.637682"><name>Mine - Vindicator</name><desc>3 source record(s) merged within 75m | src: MILO</desc><extensions><onx:icon>Location</onx:icon><onx:color>rgba(0, 0, 0, 1)</onx:color></extensions></wpt><wpt lat="43.582845" lon="-122.648441"><name>Mine - prospect</name><desc>3 source record(s) merged within 75m | src: MILO</desc><extensions><onx:icon>Location</onx:icon><onx:color>rgba(0, 0, 0, 1)</onx:color></extensions></wpt><wpt lat="43.584199" lon="-122.654071"><name>Mine - prospect</name><desc>3 source record(s) merged within 75m | src: MILO</desc><extensions><onx:icon>Location</onx:icon><onx:color>rgba(0, 0, 0, 1)</onx:color></extensions></wpt><wpt lat="43.590926" lon="-122.653540"><name>Mine - Lake Murphy</name><desc>3 source record(s) merged within 75m | src: MILO</desc><extensions><onx:icon>Location</onx:icon><onx:color>rgba(0, 0, 0, 1)</onx:color></extensions></wpt><wpt lat="43.592428" lon="-122.653310"><name>Mine - prospect</name><desc>3 source record(s) merged within 75m | src: MILO</desc><extensions><onx:icon>Location</onx:icon><onx:color>rgba(0, 0, 0, 1)</onx:color></extensions></wpt><wpt lat="43.572828" lon="-122.653290"><name>Mine - prospect</name><desc>3 source record(s) merged within 75m | src: MILO</desc><extensions><onx:icon>Location</onx:icon><onx:color>rgba(0, 0, 0, 1)</onx:color></extensions></wpt><wpt lat="43.577041" lon="-122.652727"><name>Mine - prospect</name><desc>3 source record(s) merged within 75m | src: MILO</desc><extensions><onx:icon>Location</onx:icon><onx:color>rgba(0, 0, 0, 1)</onx:color></extensions></wpt><wpt lat="43.580087" lon="-122.655781"><name>Mine - prospect</name><desc>3 source record(s) merged within 75m | src: MILO</desc><extensions><onx:icon>Location</onx:icon><onx:color>rgba(0, 0, 0, 1)</onx:color></extensions></wpt><wpt lat="43.578457" lon="-122.641226"><name>Mine - mine</name><desc>3 source record(s) merged within 75m | src: MILO</desc><extensions><onx:icon>Location</onx:icon><onx:color>rgba(0, 0, 0, 1)</onx:color></extensions></wpt><wpt lat="43.578245" lon="-122.631086"><name>Mine - prospect</name><desc>3 source record(s) merged within 75m | src: MILO</desc><extensions><onx:icon>Location</onx:icon><onx:color>rgba(0, 0, 0, 1)</onx:color></extensions></wpt><wpt lat="43.559267" lon="-122.646481"><name>Mine - prospect</name><desc>3 source record(s) merged within 75m | src: MILO</desc><extensions><onx:icon>Location</onx:icon><onx:color>rgba(0, 0, 0, 1)</onx:color></extensions></wpt><wpt lat="43.578376" lon="-122.620706"><name>Mine - mine</name><desc>3 source record(s) merged within 75m | src: MILO</desc><extensions><onx:icon>Location</onx:icon><onx:color>rgba(0, 0, 0, 1)</onx:color></extensions></wpt><wpt lat="43.569469" lon="-122.590232"><name>Mine - prospect</name><desc>3 source record(s) merged within 75m | src: MILO</desc><extensions><onx:icon>Location</onx:icon><onx:color>rgba(0, 0, 0, 1)</onx:color></extensions></wpt><wpt lat="43.569232" lon="-122.588882"><name>Mine - prospect</name><desc>3 source record(s) merged within 75m | src: MILO</desc><extensions><onx:icon>Location</onx:icon><onx:color>rgba(0, 0, 0, 1)</onx:color></extensions></wpt><wpt lat="43.568517" lon="-122.585275"><name>Mine - prospect</name><desc>3 source record(s) merged within 75m | src: MILO</desc><extensions><onx:icon>Location</onx:icon><onx:color>rgba(0, 0, 0, 1)</onx:color></extensions></wpt><wpt lat="43.558270" lon="-122.639488"><name>Mine - prospect</name><desc>3 source record(s) merged within 75m | src: MILO</desc><extensions><onx:icon>Location</onx:icon><onx:color>rgba(0, 0, 0, 1)</onx:color></extensions></wpt><wpt lat="43.575235" lon="-122.622824"><name>Mine - prospect</name><desc>3 source record(s) merged within 75m | src: MILO</desc><extensions><onx:icon>Location</onx:icon><onx:color>rgba(0, 0, 0, 1)</onx:color></extensions></wpt><wpt lat="43.584803" lon="-122.608624"><name>Mine - prospect</name><desc>3 source record(s) merged within 75m | src: MILO</desc><extensions><onx:icon>Location</onx:icon><onx:color>rgba(0, 0, 0, 1)</onx:color></extensions></wpt><wpt lat="43.554523" lon="-122.663371"><name>Mine - prospect</name><desc>3 source record(s) merged within 75m | src: MILO</desc><extensions><onx:icon>Location</onx:icon><onx:color>rgba(0, 0, 0, 1)</onx:color></extensions></wpt><wpt lat="43.573415" lon="-122.653646"><name>Mine - prospect</name><desc>3 source record(s) merged within 75m | src: MILO</desc><extensions><onx:icon>Location</onx:icon><onx:color>rgba(0, 0, 0, 1)</onx:color></extensions></wpt><wpt lat="43.559809" lon="-122.593938"><name>Mine - prospect</name><desc>3 source record(s) merged within 75m | src: MILO</desc><extensions><onx:icon>Location</onx:icon><onx:color>rgba(0, 0, 0, 1)</onx:color></extensions></wpt><wpt lat="43.559959" lon="-122.595429"><name>Mine - prospect</name><desc>3 source record(s) merged within 75m | src: MILO</desc><extensions><onx:icon>Location</onx:icon><onx:color>rgba(0, 0, 0, 1)</onx:color></extensions></wpt><wpt lat="43.601089" lon="-122.651227"><name>Mine - prospect</name><desc>3 source record(s) merged within 75m | src: MILO</desc><extensions><onx:icon>Location</onx:icon><onx:color>rgba(0, 0, 0, 1)</onx:color></extensions></wpt><wpt lat="43.575267" lon="-122.616080"><name>Mine - prospect</name><desc>3 source record(s) merged within 75m | src: MILO</desc><extensions><onx:icon>Location</onx:icon><onx:color>rgba(0, 0, 0, 1)</onx:color></extensions></wpt><wpt lat="43.573859" lon="-122.618213"><name>Mine - prospect</name><desc>3 source record(s) merged within 75m | src: MILO</desc><extensions><onx:icon>Location</onx:icon><onx:color>rgba(0, 0, 0, 1)</onx:color></extensions></wpt><wpt lat="43.564585" lon="-122.608611"><name>Mine - prospect</name><desc>3 source record(s) merged within 75m | src: MILO</desc><extensions><onx:icon>Location</onx:icon><onx:color>rgba(0, 0, 0, 1)</onx:color></extensions></wpt><wpt lat="43.568027" lon="-122.600091"><name>Mine - prospect</name><desc>3 source record(s) merged within 75m | src: MILO</desc><extensions><onx:icon>Location</onx:icon><onx:color>rgba(0, 0, 0, 1)</onx:color></extensions></wpt><wpt lat="43.567373" lon="-122.590434"><name>Mine - prospect</name><desc>3 source record(s) merged within 75m | src: MILO</desc><extensions><onx:icon>Location</onx:icon><onx:color>rgba(0, 0, 0, 1)</onx:color></extensions></wpt><wpt lat="43.563036" lon="-122.726873"><name>Mine - prospect</name><desc>3 source record(s) merged within 75m | src: MILO</desc><extensions><onx:icon>Location</onx:icon><onx:color>rgba(0, 0, 0, 1)</onx:color></extensions></wpt><wpt lat="43.614451" lon="-122.628855"><name>Mine - prospect</name><desc>3 source record(s) merged within 75m | src: MILO</desc><extensions><onx:icon>Location</onx:icon><onx:color>rgba(0, 0, 0, 1)</onx:color></extensions></wpt><wpt lat="43.578135" lon="-122.658800"><name>Mine - prospect</name><desc>3 source record(s) merged within 75m | src: MILO</desc><extensions><onx:icon>Location</onx:icon><onx:color>rgba(0, 0, 0, 1)</onx:color></extensions></wpt><wpt lat="43.584256" lon="-122.654784"><name>Mine - prospect</name><desc>3 source record(s) merged within 75m | src: MILO</desc><extensions><onx:icon>Location</onx:icon><onx:color>rgba(0, 0, 0, 1)</onx:color></extensions></wpt><wpt lat="43.586598" lon="-122.667028"><name>Mine - prospect</name><desc>3 source record(s) merged within 75m | src: MILO, MRDS</desc><extensions><onx:icon>Location</onx:icon><onx:color>rgba(0, 0, 0, 1)</onx:color></extensions></wpt><wpt lat="43.623827" lon="-122.644859"><name>Mine - prospect</name><desc>3 source record(s) merged within 75m | src: MILO</desc><extensions><onx:icon>Location</onx:icon><onx:color>rgba(0, 0, 0, 1)</onx:color></extensions></wpt><wpt lat="43.622694" lon="-122.679919"><name>Mine - prospect</name><desc>3 source record(s) merged within 75m | src: MILO</desc><extensions><onx:icon>Location</onx:icon><onx:color>rgba(0, 0, 0, 1)</onx:color></extensions></wpt><wpt lat="43.535660" lon="-122.525248"><name>Mine - prospect</name><desc>3 source record(s) merged within 75m | src: MILO</desc><extensions><onx:icon>Location</onx:icon><onx:color>rgba(0, 0, 0, 1)</onx:color></extensions></wpt><wpt lat="43.581714" lon="-122.601794"><name>Mine - prospect</name><desc>3 source record(s) merged within 75m | src: MILO</desc><extensions><onx:icon>Location</onx:icon><onx:color>rgba(0, 0, 0, 1)</onx:color></extensions></wpt><wpt lat="43.590885" lon="-122.638400"><name>Mine - Laura Claim</name><desc>3 source record(s) merged within 75m | src: MILO</desc><extensions><onx:icon>Location</onx:icon><onx:color>rgba(0, 0, 0, 1)</onx:color></extensions></wpt><wpt lat="43.632255" lon="-122.616333"><name>Mine - gold prospect</name><desc>2 source record(s) merged within 75m | src: MILO</desc><extensions><onx:icon>Location</onx:icon><onx:color>rgba(0, 0, 0, 1)</onx:color></extensions></wpt><wpt lat="43.591911" lon="-122.707390"><name>Mine - Big 4 claim</name><desc>2 source record(s) merged within 75m | src: MILO</desc><extensions><onx:icon>Location</onx:icon><onx:color>rgba(0, 0, 0, 1)</onx:color></extensions></wpt></gpx>