<?xml version="1.0" encoding="UTF-8"?><kml xmlns="http://www.opengis.net/kml/2.2"><Document><name>bohemia Historical sites</name><Style id="s0"><IconStyle><color>ff000000</color><scale>1.0</scale><Icon><href>http://maps.google.com/mapfiles/kml/shapes/placemark_circle.png</href></Icon></IconStyle></Style><Folder><name>Historical sites</name><Placemark><name>Placer - No.1 Claim</name><description>4 source record(s) merged within 75m | src: MILO, USMIN</description><styleUrl>#s0</styleUrl><Point><coordinates>-122.659965,43.597864,0</coordinates></Point></Placemark><Placemark><name>Placer - prospect</name><description>4 source record(s) merged within 75m | src: MILO</description><styleUrl>#s0</styleUrl><Point><coordinates>-122.752348,43.597565,0</coordinates></Point></Placemark><Placemark><name>Placer - Salor Gulch placer</name><description>2 source record(s) merged within 75m | src: MILO</description><styleUrl>#s0</styleUrl><Point><coordinates>-122.728611,43.582640,0</coordinates></Point></Placemark><Placemark><name>Placer - Trixie Mine</name><description>2 source record(s) merged within 75m | src: MILO</description><styleUrl>#s0</styleUrl><Point><coordinates>-122.635219,43.607873,0</coordinates></Point></Placemark><Placemark><name>Placer - Mineral King</name><description>1 source record(s) merged within 75m | src: MILO</description><styleUrl>#s0</styleUrl><Point><coordinates>-122.600541,43.559541,0</coordinates></Point></Placemark><Placemark><name>Placer - gold prospect</name><description>1 source record(s) merged within 75m | src: MILO</description><styleUrl>#s0</styleUrl><Point><coordinates>-122.793044,43.562541,0</coordinates></Point></Placemark><Placemark><name>Placer - Huckleberry Prospect</name><description>1 source record(s) merged within 75m | src: MILO</description><styleUrl>#s0</styleUrl><Point><coordinates>-122.839649,43.505473,0</coordinates></Point></Placemark><Placemark><name>Placer - Knickerbocker Claim</name><description>1 source record(s) merged within 75m | src: MILO</description><styleUrl>#s0</styleUrl><Point><coordinates>-122.646819,43.594170,0</coordinates></Point></Placemark><Placemark><name>Placer - No.5 Claim</name><description>1 source record(s) merged within 75m | src: MILO</description><styleUrl>#s0</styleUrl><Point><coordinates>-122.661079,43.600975,0</coordinates></Point></Placemark><Placemark><name>Placer - War Eagle</name><description>1 source record(s) merged within 75m | src: MILO</description><styleUrl>#s0</styleUrl><Point><coordinates>-122.643726,43.594234,0</coordinates></Point></Placemark><Placemark><name>Adit - Fairview Peak</name><description>7 source record(s) merged within 75m | src: MILO, USMIN</description><styleUrl>#s0</styleUrl><Point><coordinates>-122.703170,43.560590,0</coordinates></Point></Placemark><Placemark><name>Adit - Fairview Peak</name><description>5 source record(s) merged within 75m | src: MILO, USMIN</description><styleUrl>#s0</styleUrl><Point><coordinates>-122.649155,43.593658,0</coordinates></Point></Placemark><Placemark><name>Adit - Fairview Peak</name><description>4 source record(s) merged within 75m | src: MILO, USMIN</description><styleUrl>#s0</styleUrl><Point><coordinates>-122.648967,43.560066,0</coordinates></Point></Placemark><Placemark><name>Adit - Fairview Peak</name><description>4 source record(s) merged within 75m | src: MILO, USMIN</description><styleUrl>#s0</styleUrl><Point><coordinates>-122.664940,43.581006,0</coordinates></Point></Placemark><Placemark><name>Adit - Fairview Peak</name><description>4 source record(s) merged within 75m | src: MILO, MRDS, USMIN</description><styleUrl>#s0</styleUrl><Point><coordinates>-122.659648,43.585147,0</coordinates></Point></Placemark><Placemark><name>Adit - Fairview Peak</name><description>4 source record(s) merged within 75m | src: MILO, USMIN</description><styleUrl>#s0</styleUrl><Point><coordinates>-122.706029,43.561239,0</coordinates></Point></Placemark><Placemark><name>Adit - Fairview Peak</name><description>4 source record(s) merged within 75m | src: MILO, USMIN</description><styleUrl>#s0</styleUrl><Point><coordinates>-122.672166,43.587417,0</coordinates></Point></Placemark><Placemark><name>Adit - Fairview Peak</name><description>4 source record(s) merged within 75m | src: MILO, USMIN</description><styleUrl>#s0</styleUrl><Point><coordinates>-122.633750,43.580808,0</coordinates></Point></Placemark><Placemark><name>Adit - Fairview Peak</name><description>4 source record(s) merged within 75m | src: MILO, USMIN</description><styleUrl>#s0</styleUrl><Point><coordinates>-122.653752,43.578131,0</coordinates></Point></Placemark><Placemark><name>Adit - Bearbones Mtn.</name><description>4 source record(s) merged within 75m | src: MILO, USMIN</description><styleUrl>#s0</styleUrl><Point><coordinates>-122.613515,43.584151,0</coordinates></Point></Placemark><Placemark><name>Adit - Fairview Peak</name><description>4 source record(s) merged within 75m | src: MILO, MRDS, USMIN</description><styleUrl>#s0</styleUrl><Point><coordinates>-122.697176,43.582766,0</coordinates></Point></Placemark><Placemark><name>Adit - Fairview Peak</name><description>4 source record(s) merged within 75m | src: MILO, USMIN</description><styleUrl>#s0</styleUrl><Point><coordinates>-122.614767,43.584528,0</coordinates></Point></Placemark><Placemark><name>Adit - Fairview Peak</name><description>3 source record(s) merged within 75m | src: MILO, USMIN</description><styleUrl>#s0</styleUrl><Point><coordinates>-122.666453,43.567855,0</coordinates></Point></Placemark><Placemark><name>Adit - Fairview Peak</name><description>3 source record(s) merged within 75m | src: MILO, USMIN</description><styleUrl>#s0</styleUrl><Point><coordinates>-122.660701,43.583620,0</coordinates></Point></Placemark><Placemark><name>Adit - Fairview Peak</name><description>3 source record(s) merged within 75m | src: MILO, USMIN</description><styleUrl>#s0</styleUrl><Point><coordinates>-122.629928,43.576972,0</coordinates></Point></Placemark><Placemark><name>Adit - Fairview Peak</name><description>3 source record(s) merged within 75m | src: MILO, USMIN</description><styleUrl>#s0</styleUrl><Point><coordinates>-122.655978,43.583920,0</coordinates></Point></Placemark><Placemark><name>Adit - Fairview Peak</name><description>3 source record(s) merged within 75m | src: MILO, USMIN</description><styleUrl>#s0</styleUrl><Point><coordinates>-122.658454,43.590563,0</coordinates></Point></Placemark><Placemark><name>Adit - Fairview Peak</name><description>3 source record(s) merged within 75m | src: MILO, USMIN</description><styleUrl>#s0</styleUrl><Point><coordinates>-122.638074,43.628486,0</coordinates></Point></Placemark><Placemark><name>Adit - Fairview Peak</name><description>3 source record(s) merged within 75m | src: MILO, USMIN</description><styleUrl>#s0</styleUrl><Point><coordinates>-122.698297,43.580269,0</coordinates></Point></Placemark><Placemark><name>Adit - Bearbones Mtn.</name><description>3 source record(s) merged within 75m | src: MILO, USMIN</description><styleUrl>#s0</styleUrl><Point><coordinates>-122.616747,43.578483,0</coordinates></Point></Placemark><Placemark><name>Adit - Bearbones Mtn.</name><description>3 source record(s) merged within 75m | src: MILO, USMIN</description><styleUrl>#s0</styleUrl><Point><coordinates>-122.593133,43.571875,0</coordinates></Point></Placemark><Placemark><name>Adit - Bearbones Mtn.</name><description>3 source record(s) merged within 75m | src: MILO, USMIN</description><styleUrl>#s0</styleUrl><Point><coordinates>-122.593022,43.567774,0</coordinates></Point></Placemark><Placemark><name>Adit - Fairview Peak</name><description>3 source record(s) merged within 75m | src: MILO, USMIN</description><styleUrl>#s0</styleUrl><Point><coordinates>-122.603624,43.579541,0</coordinates></Point></Placemark><Placemark><name>Adit - Fairview Peak</name><description>2 source record(s) merged within 75m | src: MILO, USMIN</description><styleUrl>#s0</styleUrl><Point><coordinates>-122.704280,43.559498,0</coordinates></Point></Placemark><Placemark><name>Adit - Fairview Peak</name><description>2 source record(s) merged within 75m | src: MILO, USMIN</description><styleUrl>#s0</styleUrl><Point><coordinates>-122.675349,43.604762,0</coordinates></Point></Placemark><Placemark><name>Adit - Fairview Peak</name><description>2 source record(s) merged within 75m | src: MILO, USMIN</description><styleUrl>#s0</styleUrl><Point><coordinates>-122.660486,43.598556,0</coordinates></Point></Placemark><Placemark><name>Adit - Fairview Peak</name><description>2 source record(s) merged within 75m | src: MILO, USMIN</description><styleUrl>#s0</styleUrl><Point><coordinates>-122.726651,43.542480,0</coordinates></Point></Placemark><Placemark><name>Adit - Fairview Peak</name><description>2 source record(s) merged within 75m | src: MILO, USMIN</description><styleUrl>#s0</styleUrl><Point><coordinates>-122.693765,43.544408,0</coordinates></Point></Placemark><Placemark><name>Adit - Fairview Peak</name><description>2 source record(s) merged within 75m | src: MILO, USMIN</description><styleUrl>#s0</styleUrl><Point><coordinates>-122.679724,43.584412,0</coordinates></Point></Placemark><Placemark><name>Adit - Fairview Peak</name><description>2 source record(s) merged within 75m | src: MILO, USMIN</description><styleUrl>#s0</styleUrl><Point><coordinates>-122.707141,43.579456,0</coordinates></Point></Placemark><Placemark><name>Adit - Fairview Peak</name><description>2 source record(s) merged within 75m | src: MILO, USMIN</description><styleUrl>#s0</styleUrl><Point><coordinates>-122.669849,43.564109,0</coordinates></Point></Placemark><Placemark><name>Adit - Fairview Peak</name><description>2 source record(s) merged within 75m | src: MILO, USMIN</description><styleUrl>#s0</styleUrl><Point><coordinates>-122.659184,43.593755,0</coordinates></Point></Placemark><Placemark><name>Adit - Fairview Peak</name><description>2 source record(s) merged within 75m | src: MILO, USMIN</description><styleUrl>#s0</styleUrl><Point><coordinates>-122.689332,43.584107,0</coordinates></Point></Placemark><Placemark><name>Adit - Fairview Peak</name><description>2 source record(s) merged within 75m | src: MILO, USMIN</description><styleUrl>#s0</styleUrl><Point><coordinates>-122.652738,43.579158,0</coordinates></Point></Placemark><Placemark><name>Adit - Fairview Peak</name><description>2 source record(s) merged within 75m | src: MILO, USMIN</description><styleUrl>#s0</styleUrl><Point><coordinates>-122.667624,43.566934,0</coordinates></Point></Placemark><Placemark><name>Adit - Fairview Peak</name><description>2 source record(s) merged within 75m | src: MILO, USMIN</description><styleUrl>#s0</styleUrl><Point><coordinates>-122.737660,43.558939,0</coordinates></Point></Placemark><Placemark><name>Adit - Fairview Peak</name><description>2 source record(s) merged within 75m | src: MILO, USMIN</description><styleUrl>#s0</styleUrl><Point><coordinates>-122.666209,43.564957,0</coordinates></Point></Placemark><Placemark><name>Adit - Fairview Peak</name><description>2 source record(s) merged within 75m | src: MILO, USMIN</description><styleUrl>#s0</styleUrl><Point><coordinates>-122.672349,43.607640,0</coordinates></Point></Placemark><Placemark><name>Adit - Fairview Peak</name><description>2 source record(s) merged within 75m | src: MILO, USMIN</description><styleUrl>#s0</styleUrl><Point><coordinates>-122.653864,43.579227,0</coordinates></Point></Placemark><Placemark><name>Adit - Fairview Peak</name><description>2 source record(s) merged within 75m | src: MILO, USMIN</description><styleUrl>#s0</styleUrl><Point><coordinates>-122.651269,43.575670,0</coordinates></Point></Placemark><Placemark><name>Adit - Fairview Peak</name><description>2 source record(s) merged within 75m | src: MILO, USMIN</description><styleUrl>#s0</styleUrl><Point><coordinates>-122.742857,43.558917,0</coordinates></Point></Placemark><Placemark><name>Adit - Fairview Peak</name><description>2 source record(s) merged within 75m | src: MILO, USMIN</description><styleUrl>#s0</styleUrl><Point><coordinates>-122.685333,43.581284,0</coordinates></Point></Placemark><Placemark><name>Adit - Fairview Peak</name><description>2 source record(s) merged within 75m | src: MILO, USMIN</description><styleUrl>#s0</styleUrl><Point><coordinates>-122.722034,43.581116,0</coordinates></Point></Placemark><Placemark><name>Adit - Fairview Peak</name><description>1 source record(s) merged within 75m | src: USMIN</description><styleUrl>#s0</styleUrl><Point><coordinates>-122.613136,43.583235,0</coordinates></Point></Placemark><Placemark><name>Mine - prospect</name><description>8 source record(s) merged within 75m | src: MILO</description><styleUrl>#s0</styleUrl><Point><coordinates>-122.627822,43.577575,0</coordinates></Point></Placemark><Placemark><name>Mine - Western Vein</name><description>7 source record(s) merged within 75m | src: MILO</description><styleUrl>#s0</styleUrl><Point><coordinates>-122.635616,43.566452,0</coordinates></Point></Placemark><Placemark><name>Mine - prospect</name><description>7 source record(s) merged within 75m | src: MILO, MRDS</description><styleUrl>#s0</styleUrl><Point><coordinates>-122.657736,43.580045,0</coordinates></Point></Placemark><Placemark><name>Mine - prospect</name><description>7 source record(s) merged within 75m | src: MILO</description><styleUrl>#s0</styleUrl><Point><coordinates>-122.597254,43.561815,0</coordinates></Point></Placemark><Placemark><name>Mine - prospect</name><description>6 source record(s) merged within 75m | src: MILO</description><styleUrl>#s0</styleUrl><Point><coordinates>-122.659109,43.570365,0</coordinates></Point></Placemark><Placemark><name>Mine - prospect</name><description>6 source record(s) merged within 75m | src: MILO</description><styleUrl>#s0</styleUrl><Point><coordinates>-122.632497,43.614146,0</coordinates></Point></Placemark><Placemark><name>Mine - Elephant Group</name><description>5 source record(s) merged within 75m | src: MILO</description><styleUrl>#s0</styleUrl><Point><coordinates>-122.660599,43.599446,0</coordinates></Point></Placemark><Placemark><name>Mine - Tipperary</name><description>5 source record(s) merged within 75m | src: MILO</description><styleUrl>#s0</styleUrl><Point><coordinates>-122.647736,43.571741,0</coordinates></Point></Placemark><Placemark><name>Mine - Goldenstar Mine</name><description>5 source record(s) merged within 75m | src: MILO</description><styleUrl>#s0</styleUrl><Point><coordinates>-122.704316,43.561051,0</coordinates></Point></Placemark><Placemark><name>Mine - prospect</name><description>5 source record(s) merged within 75m | src: MILO</description><styleUrl>#s0</styleUrl><Point><coordinates>-122.642760,43.582533,0</coordinates></Point></Placemark><Placemark><name>Mine - prospect</name><description>5 source record(s) merged within 75m | src: MILO</description><styleUrl>#s0</styleUrl><Point><coordinates>-122.678241,43.622967,0</coordinates></Point></Placemark><Placemark><name>Mine - prospect</name><description>5 source record(s) merged within 75m | src: MILO</description><styleUrl>#s0</styleUrl><Point><coordinates>-122.710834,43.563995,0</coordinates></Point></Placemark><Placemark><name>Mine - prospect</name><description>5 source record(s) merged within 75m | src: MILO</description><styleUrl>#s0</styleUrl><Point><coordinates>-122.521219,43.537289,0</coordinates></Point></Placemark><Placemark><name>Mine - Sunrise Group</name><description>4 source record(s) merged within 75m | src: MILO</description><styleUrl>#s0</styleUrl><Point><coordinates>-122.681477,43.621936,0</coordinates></Point></Placemark><Placemark><name>Mine - Morning Glory Vein</name><description>4 source record(s) merged within 75m | src: MILO</description><styleUrl>#s0</styleUrl><Point><coordinates>-122.644587,43.581655,0</coordinates></Point></Placemark><Placemark><name>Mine - Ophir</name><description>4 source record(s) merged within 75m | src: MILO</description><styleUrl>#s0</styleUrl><Point><coordinates>-122.650249,43.574774,0</coordinates></Point></Placemark><Placemark><name>Mine - Peekaboo</name><description>4 source record(s) merged within 75m | src: MILO</description><styleUrl>#s0</styleUrl><Point><coordinates>-122.648776,43.568645,0</coordinates></Point></Placemark><Placemark><name>Mine - California Vein</name><description>4 source record(s) merged within 75m | src: MILO</description><styleUrl>#s0</styleUrl><Point><coordinates>-122.654483,43.579922,0</coordinates></Point></Placemark><Placemark><name>Mine - Knott claim</name><description>4 source record(s) merged within 75m | src: MILO</description><styleUrl>#s0</styleUrl><Point><coordinates>-122.625415,43.578773,0</coordinates></Point></Placemark><Placemark><name>Mine - Peekaboo</name><description>4 source record(s) merged within 75m | src: MILO</description><styleUrl>#s0</styleUrl><Point><coordinates>-122.649647,43.567637,0</coordinates></Point></Placemark><Placemark><name>Mine - prospect</name><description>4 source record(s) merged within 75m | src: MILO, MRDS</description><styleUrl>#s0</styleUrl><Point><coordinates>-122.649562,43.584126,0</coordinates></Point></Placemark><Placemark><name>Mine - Musick Vein, Musick Claim</name><description>4 source record(s) merged within 75m | src: MILO, MRDS</description><styleUrl>#s0</styleUrl><Point><coordinates>-122.667341,43.582003,0</coordinates></Point></Placemark><Placemark><name>Mine - prospect</name><description>4 source record(s) merged within 75m | src: MILO</description><styleUrl>#s0</styleUrl><Point><coordinates>-122.645353,43.574199,0</coordinates></Point></Placemark><Placemark><name>Mine - prospect</name><description>4 source record(s) merged within 75m | src: MILO</description><styleUrl>#s0</styleUrl><Point><coordinates>-122.652116,43.581681,0</coordinates></Point></Placemark><Placemark><name>Mine - prospect</name><description>4 source record(s) merged within 75m | src: MILO</description><styleUrl>#s0</styleUrl><Point><coordinates>-122.649870,43.561414,0</coordinates></Point></Placemark><Placemark><name>Mine - prospect</name><description>4 source record(s) merged within 75m | src: MILO</description><styleUrl>#s0</styleUrl><Point><coordinates>-122.620283,43.586160,0</coordinates></Point></Placemark><Placemark><name>Mine - prospect</name><description>4 source record(s) merged within 75m | src: MILO</description><styleUrl>#s0</styleUrl><Point><coordinates>-122.623524,43.587106,0</coordinates></Point></Placemark><Placemark><name>Mine - prospect</name><description>4 source record(s) merged within 75m | src: MILO</description><styleUrl>#s0</styleUrl><Point><coordinates>-122.621541,43.579176,0</coordinates></Point></Placemark><Placemark><name>Mine - mine</name><description>4 source record(s) merged within 75m | src: MILO</description><styleUrl>#s0</styleUrl><Point><coordinates>-122.615971,43.576956,0</coordinates></Point></Placemark><Placemark><name>Mine - prospect</name><description>4 source record(s) merged within 75m | src: MILO</description><styleUrl>#s0</styleUrl><Point><coordinates>-122.657369,43.631401,0</coordinates></Point></Placemark><Placemark><name>Mine - prospect</name><description>4 source record(s) merged within 75m | src: MILO</description><styleUrl>#s0</styleUrl><Point><coordinates>-122.640536,43.579950,0</coordinates></Point></Placemark><Placemark><name>Mine - prospect</name><description>4 source record(s) merged within 75m | src: MILO</description><styleUrl>#s0</styleUrl><Point><coordinates>-122.629895,43.577777,0</coordinates></Point></Placemark><Placemark><name>Mine - prospect</name><description>4 source record(s) merged within 75m | src: MILO</description><styleUrl>#s0</styleUrl><Point><coordinates>-122.663278,43.553725,0</coordinates></Point></Placemark><Placemark><name>Mine - prospect</name><description>4 source record(s) merged within 75m | src: MILO</description><styleUrl>#s0</styleUrl><Point><coordinates>-122.641960,43.575455,0</coordinates></Point></Placemark><Placemark><name>Mine - prospect</name><description>4 source record(s) merged within 75m | src: MILO</description><styleUrl>#s0</styleUrl><Point><coordinates>-122.612848,43.559348,0</coordinates></Point></Placemark><Placemark><name>Mine - prospect</name><description>4 source record(s) merged within 75m | src: MILO</description><styleUrl>#s0</styleUrl><Point><coordinates>-122.643095,43.608480,0</coordinates></Point></Placemark><Placemark><name>Mine - prospect</name><description>4 source record(s) merged within 75m | src: MILO</description><styleUrl>#s0</styleUrl><Point><coordinates>-122.654378,43.639994,0</coordinates></Point></Placemark><Placemark><name>Mine - prospect</name><description>4 source record(s) merged within 75m | src: MILO</description><styleUrl>#s0</styleUrl><Point><coordinates>-122.712354,43.591657,0</coordinates></Point></Placemark><Placemark><name>Mine - No.4 Claim</name><description>4 source record(s) merged within 75m | src: MILO</description><styleUrl>#s0</styleUrl><Point><coordinates>-122.658118,43.599370,0</coordinates></Point></Placemark><Placemark><name>Pit - Fairview Peak</name><description>3 source record(s) merged within 75m | src: MILO, USMIN</description><styleUrl>#s0</styleUrl><Point><coordinates>-122.593619,43.570107,0</coordinates></Point></Placemark><Placemark><name>Mine - Orchad mine (lower adit)</name><description>3 source record(s) merged within 75m | src: MILO</description><styleUrl>#s0</styleUrl><Point><coordinates>-122.639637,43.630647,0</coordinates></Point></Placemark><Placemark><name>Mine - Sunset Mine (lower adit)</name><description>3 source record(s) merged within 75m | src: MILO</description><styleUrl>#s0</styleUrl><Point><coordinates>-122.643838,43.622713,0</coordinates></Point></Placemark><Placemark><name>Mine - Warrener</name><description>3 source record(s) merged within 75m | src: MILO</description><styleUrl>#s0</styleUrl><Point><coordinates>-122.629441,43.598684,0</coordinates></Point></Placemark><Placemark><name>Mine - North Fairview</name><description>3 source record(s) merged within 75m | src: MILO</description><styleUrl>#s0</styleUrl><Point><coordinates>-122.657357,43.591241,0</coordinates></Point></Placemark><Placemark><name>Mine - Shotgun</name><description>3 source record(s) merged within 75m | src: MILO</description><styleUrl>#s0</styleUrl><Point><coordinates>-122.643677,43.588986,0</coordinates></Point></Placemark><Placemark><name>Mine - Yucon Vein</name><description>3 source record(s) merged within 75m | src: MILO</description><styleUrl>#s0</styleUrl><Point><coordinates>-122.655029,43.578157,0</coordinates></Point></Placemark><Placemark><name>Mine - Tipperary</name><description>3 source record(s) merged within 75m | src: MILO</description><styleUrl>#s0</styleUrl><Point><coordinates>-122.649112,43.572881,0</coordinates></Point></Placemark><Placemark><name>Mine - Cline adit</name><description>3 source record(s) merged within 75m | src: MILO</description><styleUrl>#s0</styleUrl><Point><coordinates>-122.639941,43.574737,0</coordinates></Point></Placemark><Placemark><name>Mine - Grouse Mountain Proj/Birdie Vein</name><description>3 source record(s) merged within 75m | src: MILO</description><styleUrl>#s0</styleUrl><Point><coordinates>-122.627132,43.576470,0</coordinates></Point></Placemark><Placemark><name>Mine - Glenwood</name><description>3 source record(s) merged within 75m | src: MILO</description><styleUrl>#s0</styleUrl><Point><coordinates>-122.667819,43.558701,0</coordinates></Point></Placemark><Placemark><name>Mine - Gray Eagle</name><description>3 source record(s) merged within 75m | src: MILO</description><styleUrl>#s0</styleUrl><Point><coordinates>-122.619522,43.575162,0</coordinates></Point></Placemark><Placemark><name>Mine - Ingham Group</name><description>3 source record(s) merged within 75m | src: MILO</description><styleUrl>#s0</styleUrl><Point><coordinates>-122.616481,43.570019,0</coordinates></Point></Placemark><Placemark><name>Mine - Oregon-Colorado, lower adit</name><description>3 source record(s) merged within 75m | src: MILO</description><styleUrl>#s0</styleUrl><Point><coordinates>-122.613804,43.558621,0</coordinates></Point></Placemark><Placemark><name>Mine - City Creek</name><description>3 source record(s) merged within 75m | src: MILO, MRDS</description><styleUrl>#s0</styleUrl><Point><coordinates>-122.601672,43.480517,0</coordinates></Point></Placemark><Placemark><name>Mine - Shotgun</name><description>3 source record(s) merged within 75m | src: MILO</description><styleUrl>#s0</styleUrl><Point><coordinates>-122.645074,43.589430,0</coordinates></Point></Placemark><Placemark><name>Mine - prospect</name><description>3 source record(s) merged within 75m | src: MILO</description><styleUrl>#s0</styleUrl><Point><coordinates>-122.647108,43.582182,0</coordinates></Point></Placemark><Placemark><name>Mine - Vindicator</name><description>3 source record(s) merged within 75m | src: MILO</description><styleUrl>#s0</styleUrl><Point><coordinates>-122.637682,43.582920,0</coordinates></Point></Placemark><Placemark><name>Mine - prospect</name><description>3 source record(s) merged within 75m | src: MILO</description><styleUrl>#s0</styleUrl><Point><coordinates>-122.648441,43.582845,0</coordinates></Point></Placemark><Placemark><name>Mine - prospect</name><description>3 source record(s) merged within 75m | src: MILO</description><styleUrl>#s0</styleUrl><Point><coordinates>-122.654071,43.584199,0</coordinates></Point></Placemark><Placemark><name>Mine - Lake Murphy</name><description>3 source record(s) merged within 75m | src: MILO</description><styleUrl>#s0</styleUrl><Point><coordinates>-122.653540,43.590926,0</coordinates></Point></Placemark><Placemark><name>Mine - prospect</name><description>3 source record(s) merged within 75m | src: MILO</description><styleUrl>#s0</styleUrl><Point><coordinates>-122.653310,43.592428,0</coordinates></Point></Placemark><Placemark><name>Mine - prospect</name><description>3 source record(s) merged within 75m | src: MILO</description><styleUrl>#s0</styleUrl><Point><coordinates>-122.653290,43.572828,0</coordinates></Point></Placemark><Placemark><name>Mine - prospect</name><description>3 source record(s) merged within 75m | src: MILO</description><styleUrl>#s0</styleUrl><Point><coordinates>-122.652727,43.577041,0</coordinates></Point></Placemark><Placemark><name>Mine - prospect</name><description>3 source record(s) merged within 75m | src: MILO</description><styleUrl>#s0</styleUrl><Point><coordinates>-122.655781,43.580087,0</coordinates></Point></Placemark><Placemark><name>Mine - mine</name><description>3 source record(s) merged within 75m | src: MILO</description><styleUrl>#s0</styleUrl><Point><coordinates>-122.641226,43.578457,0</coordinates></Point></Placemark><Placemark><name>Mine - prospect</name><description>3 source record(s) merged within 75m | src: MILO</description><styleUrl>#s0</styleUrl><Point><coordinates>-122.631086,43.578245,0</coordinates></Point></Placemark><Placemark><name>Mine - prospect</name><description>3 source record(s) merged within 75m | src: MILO</description><styleUrl>#s0</styleUrl><Point><coordinates>-122.646481,43.559267,0</coordinates></Point></Placemark><Placemark><name>Mine - mine</name><description>3 source record(s) merged within 75m | src: MILO</description><styleUrl>#s0</styleUrl><Point><coordinates>-122.620706,43.578376,0</coordinates></Point></Placemark><Placemark><name>Mine - prospect</name><description>3 source record(s) merged within 75m | src: MILO</description><styleUrl>#s0</styleUrl><Point><coordinates>-122.590232,43.569469,0</coordinates></Point></Placemark><Placemark><name>Mine - prospect</name><description>3 source record(s) merged within 75m | src: MILO</description><styleUrl>#s0</styleUrl><Point><coordinates>-122.588882,43.569232,0</coordinates></Point></Placemark><Placemark><name>Mine - prospect</name><description>3 source record(s) merged within 75m | src: MILO</description><styleUrl>#s0</styleUrl><Point><coordinates>-122.585275,43.568517,0</coordinates></Point></Placemark><Placemark><name>Mine - prospect</name><description>3 source record(s) merged within 75m | src: MILO</description><styleUrl>#s0</styleUrl><Point><coordinates>-122.639488,43.558270,0</coordinates></Point></Placemark><Placemark><name>Mine - prospect</name><description>3 source record(s) merged within 75m | src: MILO</description><styleUrl>#s0</styleUrl><Point><coordinates>-122.622824,43.575235,0</coordinates></Point></Placemark><Placemark><name>Mine - prospect</name><description>3 source record(s) merged within 75m | src: MILO</description><styleUrl>#s0</styleUrl><Point><coordinates>-122.608624,43.584803,0</coordinates></Point></Placemark><Placemark><name>Mine - prospect</name><description>3 source record(s) merged within 75m | src: MILO</description><styleUrl>#s0</styleUrl><Point><coordinates>-122.663371,43.554523,0</coordinates></Point></Placemark><Placemark><name>Mine - prospect</name><description>3 source record(s) merged within 75m | src: MILO</description><styleUrl>#s0</styleUrl><Point><coordinates>-122.653646,43.573415,0</coordinates></Point></Placemark><Placemark><name>Mine - prospect</name><description>3 source record(s) merged within 75m | src: MILO</description><styleUrl>#s0</styleUrl><Point><coordinates>-122.593938,43.559809,0</coordinates></Point></Placemark><Placemark><name>Mine - prospect</name><description>3 source record(s) merged within 75m | src: MILO</description><styleUrl>#s0</styleUrl><Point><coordinates>-122.595429,43.559959,0</coordinates></Point></Placemark><Placemark><name>Mine - prospect</name><description>3 source record(s) merged within 75m | src: MILO</description><styleUrl>#s0</styleUrl><Point><coordinates>-122.651227,43.601089,0</coordinates></Point></Placemark><Placemark><name>Mine - prospect</name><description>3 source record(s) merged within 75m | src: MILO</description><styleUrl>#s0</styleUrl><Point><coordinates>-122.616080,43.575267,0</coordinates></Point></Placemark><Placemark><name>Mine - prospect</name><description>3 source record(s) merged within 75m | src: MILO</description><styleUrl>#s0</styleUrl><Point><coordinates>-122.618213,43.573859,0</coordinates></Point></Placemark><Placemark><name>Mine - prospect</name><description>3 source record(s) merged within 75m | src: MILO</description><styleUrl>#s0</styleUrl><Point><coordinates>-122.608611,43.564585,0</coordinates></Point></Placemark><Placemark><name>Mine - prospect</name><description>3 source record(s) merged within 75m | src: MILO</description><styleUrl>#s0</styleUrl><Point><coordinates>-122.600091,43.568027,0</coordinates></Point></Placemark><Placemark><name>Mine - prospect</name><description>3 source record(s) merged within 75m | src: MILO</description><styleUrl>#s0</styleUrl><Point><coordinates>-122.590434,43.567373,0</coordinates></Point></Placemark><Placemark><name>Mine - prospect</name><description>3 source record(s) merged within 75m | src: MILO</description><styleUrl>#s0</styleUrl><Point><coordinates>-122.726873,43.563036,0</coordinates></Point></Placemark><Placemark><name>Mine - prospect</name><description>3 source record(s) merged within 75m | src: MILO</description><styleUrl>#s0</styleUrl><Point><coordinates>-122.628855,43.614451,0</coordinates></Point></Placemark><Placemark><name>Mine - prospect</name><description>3 source record(s) merged within 75m | src: MILO</description><styleUrl>#s0</styleUrl><Point><coordinates>-122.658800,43.578135,0</coordinates></Point></Placemark><Placemark><name>Mine - prospect</name><description>3 source record(s) merged within 75m | src: MILO</description><styleUrl>#s0</styleUrl><Point><coordinates>-122.654784,43.584256,0</coordinates></Point></Placemark><Placemark><name>Mine - prospect</name><description>3 source record(s) merged within 75m | src: MILO, MRDS</description><styleUrl>#s0</styleUrl><Point><coordinates>-122.667028,43.586598,0</coordinates></Point></Placemark><Placemark><name>Mine - prospect</name><description>3 source record(s) merged within 75m | src: MILO</description><styleUrl>#s0</styleUrl><Point><coordinates>-122.644859,43.623827,0</coordinates></Point></Placemark><Placemark><name>Mine - prospect</name><description>3 source record(s) merged within 75m | src: MILO</description><styleUrl>#s0</styleUrl><Point><coordinates>-122.679919,43.622694,0</coordinates></Point></Placemark><Placemark><name>Mine - prospect</name><description>3 source record(s) merged within 75m | src: MILO</description><styleUrl>#s0</styleUrl><Point><coordinates>-122.525248,43.535660,0</coordinates></Point></Placemark><Placemark><name>Mine - prospect</name><description>3 source record(s) merged within 75m | src: MILO</description><styleUrl>#s0</styleUrl><Point><coordinates>-122.601794,43.581714,0</coordinates></Point></Placemark><Placemark><name>Mine - Laura Claim</name><description>3 source record(s) merged within 75m | src: MILO</description><styleUrl>#s0</styleUrl><Point><coordinates>-122.638400,43.590885,0</coordinates></Point></Placemark><Placemark><name>Mine - gold prospect</name><description>2 source record(s) merged within 75m | src: MILO</description><styleUrl>#s0</styleUrl><Point><coordinates>-122.616333,43.632255,0</coordinates></Point></Placemark><Placemark><name>Mine - Big 4 claim</name><description>2 source record(s) merged within 75m | src: MILO</description><styleUrl>#s0</styleUrl><Point><coordinates>-122.707390,43.591911,0</coordinates></Point></Placemark></Folder></Document></kml>