<?xml version="1.0" encoding="UTF-8"?><kml xmlns="http://www.opengis.net/kml/2.2"><Document><name>bohemia My claims</name><Style id="s0"><LineStyle><color>ff00ffff</color><width>2</width></LineStyle><PolyStyle><color>4000ffff</color></PolyStyle></Style><Style id="s1"><IconStyle><color>ff00ffff</color><scale>1.0</scale><Icon><href>http://maps.google.com/mapfiles/kml/shapes/placemark_circle.png</href></Icon></IconStyle></Style><Folder><name>My claims</name><Placemark><name>BMOA War Eagle III</name><description>club: Bohemia Mine Owners Association (BMOA) | serial: ORMC156963 | acres: 18.19 | directions: not available (no club handbook source in this build) | boundary approx (BLM quarter-section)</description><styleUrl>#s0</styleUrl><Polygon><outerBoundaryIs><LinearRing><coordinates>-122.833227,43.688998,0 -122.828337,43.689048,0 -122.828294,43.686490,0 -122.828280,43.685625,0 -122.828224,43.682202,0 -122.833086,43.682222,0 -122.837948,43.682242,0 -122.838032,43.685595,0 -122.838117,43.688948,0 -122.833227,43.688998,0</coordinates></LinearRing></outerBoundaryIs></Polygon></Placemark><Placemark><name>BMOA War Eagle III</name><description>club: Bohemia Mine Owners Association (BMOA) | serial: ORMC156963 | acres: 18.19 | directions: not available (no club handbook source in this build) | boundary approx (BLM quarter-section)</description><styleUrl>#s1</styleUrl><Point><coordinates>-122.833139,43.685613,0</coordinates></Point></Placemark><Placemark><name>BMOA Westside</name><description>club: Bohemia Mine Owners Association (BMOA) | serial: ORMC86891 | acres: 40.0 | directions: not available (no club handbook source in this build) | boundary approx (BLM quarter-section)</description><styleUrl>#s0</styleUrl><Polygon><outerBoundaryIs><LinearRing><coordinates>-122.818180,43.667637,0 -122.818233,43.671372,0 -122.818286,43.675107,0 -122.813331,43.674966,0 -122.808376,43.674825,0 -122.808284,43.671298,0 -122.808167,43.667770,0 -122.813173,43.667701,0 -122.818180,43.667637,0</coordinates></LinearRing></outerBoundaryIs></Polygon></Placemark><Placemark><name>BMOA Westside</name><description>club: Bohemia Mine Owners Association (BMOA) | serial: ORMC86891 | acres: 40.0 | directions: not available (no club handbook source in this build) | boundary approx (BLM quarter-section)</description><styleUrl>#s1</styleUrl><Point><coordinates>-122.813302,43.671328,0</coordinates></Point></Placemark><Placemark><name>BMOA Y Not</name><description>club: Bohemia Mine Owners Association (BMOA) | serial: ORMC173540 | acres: 40.0 | directions: not available (no club handbook source in this build) | boundary approx (BLM quarter-section)</description><styleUrl>#s0</styleUrl><Polygon><outerBoundaryIs><LinearRing><coordinates>-122.808154,43.660514,0 -122.802998,43.660146,0 -122.798079,43.659794,0 -122.793160,43.659442,0 -122.793166,43.655943,0 -122.793172,43.652444,0 -122.798241,43.652723,0 -122.803311,43.653002,0 -122.808420,43.653283,0 -122.808281,43.656899,0 -122.808154,43.660514,0</coordinates></LinearRing></outerBoundaryIs></Polygon></Placemark><Placemark><name>BMOA Y Not</name><description>club: Bohemia Mine Owners Association (BMOA) | serial: ORMC173540 | acres: 40.0 | directions: not available (no club handbook source in this build) | boundary approx (BLM quarter-section)</description><styleUrl>#s1</styleUrl><Point><coordinates>-122.800769,43.656414,0</coordinates></Point></Placemark><Placemark><name>BMOA Placer Claim</name><description>club: Bohemia Mine Owners Association (BMOA) | serial: ORMC147500 | acres: 20.0 | directions: not available (no club handbook source in this build) | boundary approx (BLM quarter-section)</description><styleUrl>#s0</styleUrl><Polygon><outerBoundaryIs><LinearRing><coordinates>-122.722361,43.583084,0 -122.722383,43.590337,0 -122.712475,43.590324,0 -122.712444,43.583061,0 -122.722361,43.583084,0</coordinates></LinearRing></outerBoundaryIs></Polygon></Placemark><Placemark><name>BMOA Placer Claim</name><description>club: Bohemia Mine Owners Association (BMOA) | serial: ORMC147500 | acres: 20.0 | directions: not available (no club handbook source in this build) | boundary approx (BLM quarter-section)</description><styleUrl>#s1</styleUrl><Point><coordinates>-122.717414,43.586701,0</coordinates></Point></Placemark><Placemark><name>BMOA Little Red</name><description>club: Bohemia Mine Owners Association (BMOA) | serial: ORMC163049 | acres: 35.02 | directions: not available (no club handbook source in this build) | boundary approx (BLM quarter-section)</description><styleUrl>#s0</styleUrl><Polygon><outerBoundaryIs><LinearRing><coordinates>-122.731941,43.554136,0 -122.741540,43.554154,0 -122.741493,43.558973,0 -122.746432,43.558678,0 -122.751417,43.558387,0 -122.751325,43.561747,0 -122.751233,43.565108,0 -122.746286,43.565452,0 -122.741426,43.565801,0 -122.741391,43.569272,0 -122.731855,43.568924,0 -122.731898,43.561530,0 -122.731941,43.554136,0</coordinates></LinearRing></outerBoundaryIs></Polygon></Placemark><Placemark><name>BMOA Little Red</name><description>club: Bohemia Mine Owners Association (BMOA) | serial: ORMC163049 | acres: 35.02 | directions: not available (no club handbook source in this build) | boundary approx (BLM quarter-section)</description><styleUrl>#s1</styleUrl><Point><coordinates>-122.739778,43.561755,0</coordinates></Point></Placemark><Placemark><name>BMOA Big Bend</name><description>club: Bohemia Mine Owners Association (BMOA) | serial: ORMC159678 | acres: 20.0 | directions: not available (no club handbook source in this build) | boundary approx (BLM quarter-section)</description><styleUrl>#s0</styleUrl><Polygon><outerBoundaryIs><LinearRing><coordinates>-122.731941,43.554136,0 -122.741540,43.554154,0 -122.741493,43.558973,0 -122.746432,43.558678,0 -122.751417,43.558387,0 -122.751325,43.561747,0 -122.751233,43.565108,0 -122.746286,43.565452,0 -122.741350,43.565806,0 -122.741363,43.565033,0 -122.741403,43.562391,0 -122.741413,43.561712,0 -122.731898,43.561530,0 -122.731941,43.554136,0</coordinates></LinearRing></outerBoundaryIs></Polygon></Placemark><Placemark><name>BMOA Big Bend</name><description>club: Bohemia Mine Owners Association (BMOA) | serial: ORMC159678 | acres: 20.0 | directions: not available (no club handbook source in this build) | boundary approx (BLM quarter-section)</description><styleUrl>#s1</styleUrl><Point><coordinates>-122.741383,43.559903,0</coordinates></Point></Placemark><Placemark><name>BMOA Argentite</name><description>club: Bohemia Mine Owners Association (BMOA) | serial: ORMC159677 | acres: 20.66 | directions: not available (no club handbook source in this build) | boundary approx (BLM quarter-section)</description><styleUrl>#s0</styleUrl><Polygon><outerBoundaryIs><LinearRing><coordinates>-122.741565,43.551572,0 -122.746585,43.551482,0 -122.751605,43.551393,0 -122.751507,43.554886,0 -122.751417,43.558387,0 -122.751325,43.561747,0 -122.751233,43.565108,0 -122.746286,43.565452,0 -122.741350,43.565806,0 -122.741363,43.565033,0 -122.741403,43.562391,0 -122.741413,43.561712,0 -122.731898,43.561530,0 -122.731941,43.554136,0 -122.741540,43.554154,0 -122.741565,43.551572,0</coordinates></LinearRing></outerBoundaryIs></Polygon></Placemark><Placemark><name>BMOA Argentite</name><description>club: Bohemia Mine Owners Association (BMOA) | serial: ORMC159677 | acres: 20.66 | directions: not available (no club handbook source in this build) | boundary approx (BLM quarter-section)</description><styleUrl>#s1</styleUrl><Point><coordinates>-122.743118,43.558257,0</coordinates></Point></Placemark><Placemark><name>BMOA Exodus</name><description>club: Bohemia Mine Owners Association (BMOA) | serial: ORMC163687 | acres: 80.0 | directions: not available (no club handbook source in this build) | boundary approx (BLM quarter-section)</description><styleUrl>#s0</styleUrl><Polygon><outerBoundaryIs><LinearRing><coordinates>-122.749095,43.551437,0 -122.749052,43.553210,0 -122.749008,43.554983,0 -122.746509,43.555080,0 -122.744015,43.555177,0 -122.744045,43.553352,0 -122.744075,43.551527,0 -122.746585,43.551482,0 -122.749095,43.551437,0</coordinates></LinearRing></outerBoundaryIs></Polygon></Placemark><Placemark><name>BMOA Exodus</name><description>club: Bohemia Mine Owners Association (BMOA) | serial: ORMC163687 | acres: 80.0 | directions: not available (no club handbook source in this build) | boundary approx (BLM quarter-section)</description><styleUrl>#s1</styleUrl><Point><coordinates>-122.746536,43.553280,0</coordinates></Point></Placemark><Placemark><name>BMOA 4 Aces</name><description>club: Bohemia Mine Owners Association (BMOA) | serial: ORMC163686 | acres: 80.0 | directions: not available (no club handbook source in this build) | boundary approx (BLM quarter-section)</description><styleUrl>#s0</styleUrl><Polygon><outerBoundaryIs><LinearRing><coordinates>-122.729566,43.552332,0 -122.729590,43.550533,0 -122.732003,43.550539,0 -122.734415,43.550545,0 -122.734378,43.552342,0 -122.736783,43.552348,0 -122.736741,43.554145,0 -122.739141,43.554149,0 -122.739124,43.556029,0 -122.741522,43.556043,0 -122.741503,43.557933,0 -122.739107,43.557908,0 -122.736711,43.557883,0 -122.736726,43.556014,0 -122.734328,43.555999,0 -122.734341,43.554140,0 -122.731941,43.554136,0 -122.731972,43.552337,0 -122.729566,43.552332,0</coordinates></LinearRing></outerBoundaryIs></Polygon></Placemark><Placemark><name>BMOA 4 Aces</name><description>club: Bohemia Mine Owners Association (BMOA) | serial: ORMC163686 | acres: 80.0 | directions: not available (no club handbook source in this build) | boundary approx (BLM quarter-section)</description><styleUrl>#s1</styleUrl><Point><coordinates>-122.735597,43.554217,0</coordinates></Point></Placemark></Folder></Document></kml>