<?xml version="1.0" encoding="UTF-8"?><kml xmlns="http://www.opengis.net/kml/2.2"><Document><name>bohemia Scout candidates</name><Style id="s0"><IconStyle><color>ff0033ff</color><scale>1.0</scale><Icon><href>http://maps.google.com/mapfiles/kml/shapes/placemark_circle.png</href></Icon></IconStyle></Style><Folder><name>Scout candidates</name><Placemark><name>SCOUT 1 - Placer bench</name><description>No.1 Claim (placer (heuristic: surface workings)) | agency: USFS | 107m to stream | cluster: 6 nearby | src: MILO</description><styleUrl>#s0</styleUrl><Point><coordinates>-122.659814,43.597791,0</coordinates></Point></Placemark><Placemark><name>SCOUT 2 - Placer bench</name><description>prospect (placer (heuristic: surface workings)) | agency: USFS | 88m to stream | cluster: 3 nearby | src: MILO</description><styleUrl>#s0</styleUrl><Point><coordinates>-122.752271,43.597842,0</coordinates></Point></Placemark><Placemark><name>SCOUT 3 - Placer bench</name><description>No.5 Claim (placer (heuristic: surface workings)) | agency: USFS | 126m to stream | cluster: 2 nearby | src: MILO</description><styleUrl>#s0</styleUrl><Point><coordinates>-122.661079,43.600975,0</coordinates></Point></Placemark><Placemark><name>SCOUT 4 - Placer bench</name><description>Mineral King (placer (heuristic: surface workings)) | agency: USFS | 95m to stream | cluster: 0 nearby | src: MILO</description><styleUrl>#s0</styleUrl><Point><coordinates>-122.600541,43.559541,0</coordinates></Point></Placemark><Placemark><name>SCOUT 5 - Placer bench</name><description>Huckleberry Prospect (placer (heuristic: surface workings)) | agency: BLM | 98m to stream | cluster: 0 nearby | src: MILO</description><styleUrl>#s0</styleUrl><Point><coordinates>-122.839649,43.505473,0</coordinates></Point></Placemark><Placemark><name>SCOUT 6 - Lode/unknown outcrop</name><description>USMIN Adit | agency: USFS | 66m to stream | cluster: 10 nearby | src: USMIN</description><styleUrl>#s0</styleUrl><Point><coordinates>-122.593042,43.567914,0</coordinates></Point></Placemark><Placemark><name>SCOUT 7 - Lode/unknown outcrop</name><description>USMIN Adit | agency: USFS | 79m to stream | cluster: 5 nearby | NEAR ACTIVE CLAIM (&lt;50m, approx) | src: USMIN</description><styleUrl>#s0</styleUrl><Point><coordinates>-122.696738,43.583040,0</coordinates></Point></Placemark><Placemark><name>SCOUT 8 - Lode/unknown outcrop</name><description>USMIN Adit | agency: USFS | 71m to stream | cluster: 2 nearby | src: USMIN</description><styleUrl>#s0</styleUrl><Point><coordinates>-122.685326,43.581281,0</coordinates></Point></Placemark><Placemark><name>SCOUT 9 - Lode/unknown outcrop</name><description>USMIN Adit | agency: USFS | 84m to stream | cluster: 2 nearby | src: USMIN</description><styleUrl>#s0</styleUrl><Point><coordinates>-122.689325,43.584104,0</coordinates></Point></Placemark><Placemark><name>SCOUT 10 - Lode/unknown outcrop</name><description>USMIN Adit | agency: USFS | 145m to stream | cluster: 1 nearby | src: USMIN</description><styleUrl>#s0</styleUrl><Point><coordinates>-122.693773,43.544394,0</coordinates></Point></Placemark></Folder></Document></kml>