<?xml version="1.0" encoding="UTF-8"?>
<gpx xmlns:xsi="http://www.w3.org/2001/XMLSchema-instance" xmlns="http://www.topografix.com/GPX/1/1" xmlns:onx="http://www.onxmaps.com" xsi:schemaLocation="http://www.topografix.com/GPX/1/1 http://www.topografix.com/GPX/1/1/gpx.xsd" version="1.1" creator="onXmaps hunt ios"><wpt lat="43.597791" lon="-122.659814"><name>SCOUT 1 - Placer bench</name><desc>No.1 Claim (placer (heuristic: surface workings)) | agency: USFS | 107m to stream | cluster: 6 nearby | src: MILO</desc><extensions><onx:icon>Location</onx:icon><onx:color>rgba(255, 51, 0, 1)</onx:color></extensions></wpt><wpt lat="43.597842" lon="-122.752271"><name>SCOUT 2 - Placer bench</name><desc>prospect (placer (heuristic: surface workings)) | agency: USFS | 88m to stream | cluster: 3 nearby | src: MILO</desc><extensions><onx:icon>Location</onx:icon><onx:color>rgba(255, 51, 0, 1)</onx:color></extensions></wpt><wpt lat="43.600975" lon="-122.661079"><name>SCOUT 3 - Placer bench</name><desc>No.5 Claim (placer (heuristic: surface workings)) | agency: USFS | 126m to stream | cluster: 2 nearby | src: MILO</desc><extensions><onx:icon>Location</onx:icon><onx:color>rgba(255, 51, 0, 1)</onx:color></extensions></wpt><wpt lat="43.559541" lon="-122.600541"><name>SCOUT 4 - Placer bench</name><desc>Mineral King (placer (heuristic: surface workings)) | agency: USFS | 95m to stream | cluster: 0 nearby | src: MILO</desc><extensions><onx:icon>Location</onx:icon><onx:color>rgba(255, 51, 0, 1)</onx:color></extensions></wpt><wpt lat="43.505473" lon="-122.839649"><name>SCOUT 5 - Placer bench</name><desc>Huckleberry Prospect (placer (heuristic: surface workings)) | agency: BLM | 98m to stream | cluster: 0 nearby | src: MILO</desc><extensions><onx:icon>Location</onx:icon><onx:color>rgba(255, 51, 0, 1)</onx:color></extensions></wpt><wpt lat="43.567914" lon="-122.593042"><name>SCOUT 6 - Lode/unknown outcrop</name><desc>USMIN Adit | agency: USFS | 66m to stream | cluster: 10 nearby | src: USMIN</desc><extensions><onx:icon>Location</onx:icon><onx:color>rgba(255, 51, 0, 1)</onx:color></extensions></wpt><wpt lat="43.583040" lon="-122.696738"><name>SCOUT 7 - Lode/unknown outcrop</name><desc>USMIN Adit | agency: USFS | 79m to stream | cluster: 5 nearby | NEAR ACTIVE CLAIM (&lt;50m, approx) | src: USMIN</desc><extensions><onx:icon>Location</onx:icon><onx:color>rgba(255, 51, 0, 1)</onx:color></extensions></wpt><wpt lat="43.581281" lon="-122.685326"><name>SCOUT 8 - Lode/unknown outcrop</name><desc>USMIN Adit | agency: USFS | 71m to stream | cluster: 2 nearby | src: USMIN</desc><extensions><onx:icon>Location</onx:icon><onx:color>rgba(255, 51, 0, 1)</onx:color></extensions></wpt><wpt lat="43.584104" lon="-122.689325"><name>SCOUT 9 - Lode/unknown outcrop</name><desc>USMIN Adit | agency: USFS | 84m to stream | cluster: 2 nearby | src: USMIN</desc><extensions><onx:icon>Location</onx:icon><onx:color>rgba(255, 51, 0, 1)</onx:color></extensions></wpt><wpt lat="43.544394" lon="-122.693773"><name>SCOUT 10 - Lode/unknown outcrop</name><desc>USMIN Adit | agency: USFS | 145m to stream | cluster: 1 nearby | src: USMIN</desc><extensions><onx:icon>Location</onx:icon><onx:color>rgba(255, 51, 0, 1)</onx:color></extensions></wpt></gpx>