<?xml version="1.0" encoding="UTF-8"?>
<gpx xmlns:xsi="http://www.w3.org/2001/XMLSchema-instance" xmlns="http://www.topografix.com/GPX/1/1" xmlns:onx="http://www.onxmaps.com" xsi:schemaLocation="http://www.topografix.com/GPX/1/1 http://www.topografix.com/GPX/1/1/gpx.xsd" version="1.1" creator="onXmaps hunt ios"><wpt lat="43.685613" lon="-122.833139"><name>BMOA War Eagle III</name><desc>club: Bohemia Mine Owners Association (BMOA) | serial: ORMC156963 | acres: 18.19 | directions: not available (no club handbook source in this build) | boundary approx (BLM quarter-section)</desc><extensions><onx:icon>Mineral Site</onx:icon><onx:color>rgba(255, 255, 0, 1)</onx:color></extensions></wpt><wpt lat="43.671328" lon="-122.813302"><name>BMOA Westside</name><desc>club: Bohemia Mine Owners Association (BMOA) | serial: ORMC86891 | acres: 40.0 | directions: not available (no club handbook source in this build) | boundary approx (BLM quarter-section)</desc><extensions><onx:icon>Mineral Site</onx:icon><onx:color>rgba(255, 255, 0, 1)</onx:color></extensions></wpt><wpt lat="43.656414" lon="-122.800769"><name>BMOA Y Not</name><desc>club: Bohemia Mine Owners Association (BMOA) | serial: ORMC173540 | acres: 40.0 | directions: not available (no club handbook source in this build) | boundary approx (BLM quarter-section)</desc><extensions><onx:icon>Mineral Site</onx:icon><onx:color>rgba(255, 255, 0, 1)</onx:color></extensions></wpt><wpt lat="43.586701" lon="-122.717414"><name>BMOA Placer Claim</name><desc>club: Bohemia Mine Owners Association (BMOA) | serial: ORMC147500 | acres: 20.0 | directions: not available (no club handbook source in this build) | boundary approx (BLM quarter-section)</desc><extensions><onx:icon>Mineral Site</onx:icon><onx:color>rgba(255, 255, 0, 1)</onx:color></extensions></wpt><wpt lat="43.561755" lon="-122.739778"><name>BMOA Little Red</name><desc>club: Bohemia Mine Owners Association (BMOA) | serial: ORMC163049 | acres: 35.02 | directions: not available (no club handbook source in this build) | boundary approx (BLM quarter-section)</desc><extensions><onx:icon>Mineral Site</onx:icon><onx:color>rgba(255, 255, 0, 1)</onx:color></extensions></wpt><wpt lat="43.559903" lon="-122.741383"><name>BMOA Big Bend</name><desc>club: Bohemia Mine Owners Association (BMOA) | serial: ORMC159678 | acres: 20.0 | directions: not available (no club handbook source in this build) | boundary approx (BLM quarter-section)</desc><extensions><onx:icon>Mineral Site</onx:icon><onx:color>rgba(255, 255, 0, 1)</onx:color></extensions></wpt><wpt lat="43.558257" lon="-122.743118"><name>BMOA Argentite</name><desc>club: Bohemia Mine Owners Association (BMOA) | serial: ORMC159677 | acres: 20.66 | directions: not available (no club handbook source in this build) | boundary approx (BLM quarter-section)</desc><extensions><onx:icon>Mineral Site</onx:icon><onx:color>rgba(255, 255, 0, 1)</onx:color></extensions></wpt><wpt lat="43.553280" lon="-122.746536"><name>BMOA Exodus</name><desc>club: Bohemia Mine Owners Association (BMOA) | serial: ORMC163687 | acres: 80.0 | directions: not available (no club handbook source in this build) | boundary approx (BLM quarter-section)</desc><extensions><onx:icon>Mineral Site</onx:icon><onx:color>rgba(255, 255, 0, 1)</onx:color></extensions></wpt><wpt lat="43.554217" lon="-122.735597"><name>BMOA 4 Aces</name><desc>club: Bohemia Mine Owners Association (BMOA) | serial: ORMC163686 | acres: 80.0 | directions: not available (no club handbook source in this build) | boundary approx (BLM quarter-section)</desc><extensions><onx:icon>Mineral Site</onx:icon><onx:color>rgba(255, 255, 0, 1)</onx:color></extensions></wpt><rte><name>BMOA War Eagle III</name><type>Area</type><extensions><onx:style>solid</onx:style><onx:weight>4.0</onx:weight><onx:color>rgba(255, 255, 0, 1)</onx:color></extensions><rtept lat="43.688998" lon="-122.833227"></rtept><rtept lat="43.689048" lon="-122.828337"></rtept><rtept lat="43.686490" lon="-122.828294"></rtept><rtept lat="43.685625" lon="-122.828280"></rtept><rtept lat="43.682202" lon="-122.828224"></rtept><rtept lat="43.682222" lon="-122.833086"></rtept><rtept lat="43.682242" lon="-122.837948"></rtept><rtept lat="43.685595" lon="-122.838032"></rtept><rtept lat="43.688948" lon="-122.838117"></rtept><rtept lat="43.688998" lon="-122.833227"></rtept></rte><rte><name>BMOA Westside</name><type>Area</type><extensions><onx:style>solid</onx:style><onx:weight>4.0</onx:weight><onx:color>rgba(255, 255, 0, 1)</onx:color></extensions><rtept lat="43.667637" lon="-122.818180"></rtept><rtept lat="43.671372" lon="-122.818233"></rtept><rtept lat="43.675107" lon="-122.818286"></rtept><rtept lat="43.674966" lon="-122.813331"></rtept><rtept lat="43.674825" lon="-122.808376"></rtept><rtept lat="43.671298" lon="-122.808284"></rtept><rtept lat="43.667770" lon="-122.808167"></rtept><rtept lat="43.667701" lon="-122.813173"></rtept><rtept lat="43.667637" lon="-122.818180"></rtept></rte><rte><name>BMOA Y Not</name><type>Area</type><extensions><onx:style>solid</onx:style><onx:weight>4.0</onx:weight><onx:color>rgba(255, 255, 0, 1)</onx:color></extensions><rtept lat="43.660514" lon="-122.808154"></rtept><rtept lat="43.660146" lon="-122.802998"></rtept><rtept lat="43.659794" lon="-122.798079"></rtept><rtept lat="43.659442" lon="-122.793160"></rtept><rtept lat="43.655943" lon="-122.793166"></rtept><rtept lat="43.652444" lon="-122.793172"></rtept><rtept lat="43.652723" lon="-122.798241"></rtept><rtept lat="43.653002" lon="-122.803311"></rtept><rtept lat="43.653283" lon="-122.808420"></rtept><rtept lat="43.656899" lon="-122.808281"></rtept><rtept lat="43.660514" lon="-122.808154"></rtept></rte><rte><name>BMOA Placer Claim</name><type>Area</type><extensions><onx:style>solid</onx:style><onx:weight>4.0</onx:weight><onx:color>rgba(255, 255, 0, 1)</onx:color></extensions><rtept lat="43.583084" lon="-122.722361"></rtept><rtept lat="43.590337" lon="-122.722383"></rtept><rtept lat="43.590324" lon="-122.712475"></rtept><rtept lat="43.583061" lon="-122.712444"></rtept><rtept lat="43.583084" lon="-122.722361"></rtept></rte><rte><name>BMOA Little Red</name><type>Area</type><extensions><onx:style>solid</onx:style><onx:weight>4.0</onx:weight><onx:color>rgba(255, 255, 0, 1)</onx:color></extensions><rtept lat="43.554136" lon="-122.731941"></rtept><rtept lat="43.554154" lon="-122.741540"></rtept><rtept lat="43.558973" lon="-122.741493"></rtept><rtept lat="43.558678" lon="-122.746432"></rtept><rtept lat="43.558387" lon="-122.751417"></rtept><rtept lat="43.561747" lon="-122.751325"></rtept><rtept lat="43.565108" lon="-122.751233"></rtept><rtept lat="43.565452" lon="-122.746286"></rtept><rtept lat="43.565801" lon="-122.741426"></rtept><rtept lat="43.569272" lon="-122.741391"></rtept><rtept lat="43.568924" lon="-122.731855"></rtept><rtept lat="43.561530" lon="-122.731898"></rtept><rtept lat="43.554136" lon="-122.731941"></rtept></rte><rte><name>BMOA Big Bend</name><type>Area</type><extensions><onx:style>solid</onx:style><onx:weight>4.0</onx:weight><onx:color>rgba(255, 255, 0, 1)</onx:color></extensions><rtept lat="43.554136" lon="-122.731941"></rtept><rtept lat="43.554154" lon="-122.741540"></rtept><rtept lat="43.558973" lon="-122.741493"></rtept><rtept lat="43.558678" lon="-122.746432"></rtept><rtept lat="43.558387" lon="-122.751417"></rtept><rtept lat="43.561747" lon="-122.751325"></rtept><rtept lat="43.565108" lon="-122.751233"></rtept><rtept lat="43.565452" lon="-122.746286"></rtept><rtept lat="43.565806" lon="-122.741350"></rtept><rtept lat="43.565033" lon="-122.741363"></rtept><rtept lat="43.562391" lon="-122.741403"></rtept><rtept lat="43.561712" lon="-122.741413"></rtept><rtept lat="43.561530" lon="-122.731898"></rtept><rtept lat="43.554136" lon="-122.731941"></rtept></rte><rte><name>BMOA Argentite</name><type>Area</type><extensions><onx:style>solid</onx:style><onx:weight>4.0</onx:weight><onx:color>rgba(255, 255, 0, 1)</onx:color></extensions><rtept lat="43.551572" lon="-122.741565"></rtept><rtept lat="43.551482" lon="-122.746585"></rtept><rtept lat="43.551393" lon="-122.751605"></rtept><rtept lat="43.554886" lon="-122.751507"></rtept><rtept lat="43.558387" lon="-122.751417"></rtept><rtept lat="43.561747" lon="-122.751325"></rtept><rtept lat="43.565108" lon="-122.751233"></rtept><rtept lat="43.565452" lon="-122.746286"></rtept><rtept lat="43.565806" lon="-122.741350"></rtept><rtept lat="43.565033" lon="-122.741363"></rtept><rtept lat="43.562391" lon="-122.741403"></rtept><rtept lat="43.561712" lon="-122.741413"></rtept><rtept lat="43.561530" lon="-122.731898"></rtept><rtept lat="43.554136" lon="-122.731941"></rtept><rtept lat="43.554154" lon="-122.741540"></rtept><rtept lat="43.551572" lon="-122.741565"></rtept></rte><rte><name>BMOA Exodus</name><type>Area</type><extensions><onx:style>solid</onx:style><onx:weight>4.0</onx:weight><onx:color>rgba(255, 255, 0, 1)</onx:color></extensions><rtept lat="43.551437" lon="-122.749095"></rtept><rtept lat="43.553210" lon="-122.749052"></rtept><rtept lat="43.554983" lon="-122.749008"></rtept><rtept lat="43.555080" lon="-122.746509"></rtept><rtept lat="43.555177" lon="-122.744015"></rtept><rtept lat="43.553352" lon="-122.744045"></rtept><rtept lat="43.551527" lon="-122.744075"></rtept><rtept lat="43.551482" lon="-122.746585"></rtept><rtept lat="43.551437" lon="-122.749095"></rtept></rte><rte><name>BMOA 4 Aces</name><type>Area</type><extensions><onx:style>solid</onx:style><onx:weight>4.0</onx:weight><onx:color>rgba(255, 255, 0, 1)</onx:color></extensions><rtept lat="43.552332" lon="-122.729566"></rtept><rtept lat="43.550533" lon="-122.729590"></rtept><rtept lat="43.550539" lon="-122.732003"></rtept><rtept lat="43.550545" lon="-122.734415"></rtept><rtept lat="43.552342" lon="-122.734378"></rtept><rtept lat="43.552348" lon="-122.736783"></rtept><rtept lat="43.554145" lon="-122.736741"></rtept><rtept lat="43.554149" lon="-122.739141"></rtept><rtept lat="43.556029" lon="-122.739124"></rtept><rtept lat="43.556043" lon="-122.741522"></rtept><rtept lat="43.557933" lon="-122.741503"></rtept><rtept lat="43.557908" lon="-122.739107"></rtept><rtept lat="43.557883" lon="-122.736711"></rtept><rtept lat="43.556014" lon="-122.736726"></rtept><rtept lat="43.555999" lon="-122.734328"></rtept><rtept lat="43.554140" lon="-122.734341"></rtept><rtept lat="43.554136" lon="-122.731941"></rtept><rtept lat="43.552337" lon="-122.731972"></rtept><rtept lat="43.552332" lon="-122.729566"></rtept></rte></gpx>