{"type": "FeatureCollection", "features": [{"type": "Feature", "geometry": {"type": "Polygon", "coordinates": [[[-122.30559234392119, 44.60272556735543], [-122.300562107138, 44.602739257854694], [-122.29553186935466, 44.6027529263539], [-122.29553994219212, 44.60190909430076], [-122.29540768931834, 44.602665854360815], [-122.2943265721365, 44.602599204463786], [-122.29329036882437, 44.601825340518445], [-122.29363715536361, 44.59917218431943], [-122.29055741847999, 44.59709898249587], [-122.29056768427924, 44.59605603643007], [-122.2911791732842, 44.59558919934054], [-122.29139999131867, 44.59558893931869], [-122.29538346947294, 44.598329238094145], [-122.29514702247087, 44.59850911512871], [-122.29557214854385, 44.598543081088685], [-122.2955881202225, 44.59687413798358], [-122.29560044797404, 44.59558376990228], [-122.30005540166901, 44.595577937460604], [-122.30039951972269, 44.595577573426475], [-122.30062862475836, 44.59557713140376], [-122.3008800587976, 44.59557692137887], [-122.30565681354258, 44.59557054190527], [-122.30562459023182, 44.59914805413034], [-122.30559234392119, 44.60272556735543]]]}, "properties": {"title": "WVM 1B Dry Gulch", "description": "club: Willamette Valley Miners (WVM) | serial: ORMC171094 | acres: 18.0 | directions: not available (no club handbook source in this build) | boundary approx (BLM quarter-section)", "stroke": "#ffff00", "stroke-width": 2, "fill": "#ffff00", "fill-opacity": 0.25}}, {"type": "Feature", "geometry": {"type": "Point", "coordinates": [-122.29935872154572, 44.599136350466644]}, "properties": {"title": "WVM 1B Dry Gulch", "description": "club: Willamette Valley Miners (WVM) | serial: ORMC171094 | acres: 18.0 | directions: not available (no club handbook source in this build) | boundary approx (BLM quarter-section)", "marker-color": "#ffff00", "marker-symbol": "circle"}}, {"type": "Feature", "geometry": {"type": "Polygon", "coordinates": [[[-122.31212284077003, 44.581224218374864], [-122.3107988755631, 44.58122316650587], [-122.31058909553036, 44.581223119526676], [-122.30795743311897, 44.5812209777871], [-122.30576009377542, 44.58121916200454], [-122.3057795110811, 44.57762097377928], [-122.3057860068483, 44.57641449170368], [-122.30579061668386, 44.575562075650325], [-122.30579892838689, 44.57402280855393], [-122.31083151717358, 44.57402688305602], [-122.31586410596013, 44.574030980558135], [-122.32089669474655, 44.57403507806019], [-122.32592928353282, 44.57403915156224], [-122.3259208782287, 44.57763673478616], [-122.32591249692474, 44.581234318010054], [-122.32087508913774, 44.581230755508635], [-122.31583768135066, 44.58122717100726], [-122.31212284077003, 44.581224218374864]]]}, "properties": {"title": "Cedar Bend Placer", "description": "club: Willamette Valley Miners (WVM) | serial: ORMC30445 | acres: 18.18 | directions: not available (no club handbook source in this build) | boundary approx (BLM quarter-section)", "stroke": "#ffff00", "stroke-width": 2, "fill": "#ffff00", "fill-opacity": 0.25}}, {"type": "Feature", "geometry": {"type": "Point", "coordinates": [-122.31584989405972, 44.57762963331375]}, "properties": {"title": "Cedar Bend Placer", "description": "club: Willamette Valley Miners (WVM) | serial: ORMC30445 | acres: 18.18 | directions: not available (no club handbook source in this build) | boundary approx (BLM quarter-section)", "marker-color": "#ffff00", "marker-symbol": "circle"}}, {"type": "Feature", "geometry": {"type": "Polygon", "coordinates": [[[-122.2906428878084, 44.588412815948054], [-122.29566902759399, 44.5884137004504], [-122.2958748266261, 44.588413747429975], [-122.29574818962145, 44.5884916054474], [-122.29566679263922, 44.58864876646516], [-122.29565943478731, 44.58941824851369], [-122.2957766648156, 44.5894698205053], [-122.29565799181626, 44.58956895952319], [-122.29564101815762, 44.59134273363501], [-122.29713006351743, 44.59199791852816], [-122.29563473228394, 44.59199873367634], [-122.29562227553478, 44.59330195675846], [-122.29560044797404, 44.59558376990228], [-122.2928062595381, 44.595587283179285], [-122.29139999131867, 44.59558893931869], [-122.2911791732842, 44.59558919934054], [-122.29057227218955, 44.5955899144007], [-122.2855440844048, 44.59559608489913], [-122.28558042771373, 44.592004019672416], [-122.28561677202275, 44.58841193244574], [-122.2906428878084, 44.588412815948054]]]}, "properties": {"title": "WIRE GOLD", "description": "lode | serial ORMC101599 | 20.66 ac | Active | qtr-sec OR 33 0110S 0040E 023 A SE | recorded~2021 (DB date, not legal located date) | src: BLM MLRS Not Closed | boundary approx (BLM quarter-section) | do not dig here (active claim)", "stroke": "#ff3300", "stroke-width": 2, "fill": "#ff3300", "fill-opacity": 0.05, "stroke-dasharray": "1,6"}}, {"type": "Feature", "geometry": {"type": "Polygon", "coordinates": [[[-122.30576009377542, 44.58121916200454], [-122.30574987314125, 44.58311456712322], [-122.30574067646991, 44.5848173272298], [-122.30573911352595, 44.585107241247954], [-122.30573155379652, 44.586508842335675], [-122.30573152679712, 44.58651207833589], [-122.30572783593989, 44.58725132738211], [-122.30572737394573, 44.58728179338404], [-122.30572735894674, 44.58728689238439], [-122.30572475103963, 44.5877682464145], [-122.30572427504026, 44.58777162341475], [-122.30572125916464, 44.588415492454985], [-122.30571134037676, 44.58951722352434], [-122.30568903585355, 44.59199300568018], [-122.30567495015498, 44.59355832577868], [-122.30566119044886, 44.59508399487466], [-122.30565681354258, 44.59557054190527], [-122.3008800587976, 44.59557692137887], [-122.30062862475836, 44.59557713140376], [-122.30039951972269, 44.595577573426475], [-122.30005540166901, 44.595577937460604], [-122.29560044797404, 44.59558376990228], [-122.29562227553478, 44.59330195675846], [-122.29563473228394, 44.59199873367634], [-122.29713006351743, 44.59199791852816], [-122.29564101815762, 44.59134273363501], [-122.29565799181626, 44.58956895952319], [-122.2957766648156, 44.5894698205053], [-122.29565943478731, 44.58941824851369], [-122.29566679263922, 44.58864876646516], [-122.29574818962145, 44.5884916054474], [-122.2958748266261, 44.588413747429975], [-122.29566902759399, 44.5884137004504], [-122.29569428890059, 44.58481746822459], [-122.29571952720741, 44.581221234998765], [-122.30073979899146, 44.58122018750167], [-122.30576009377542, 44.58121916200454]]]}, "properties": {"title": "FREE GOLD", "description": "lode | serial ORMC166145 | 20.66 ac | Active | qtr-sec OR 33 0110S 0040E 026 A NW|OR 33 0110S 0040E 023 A SW | recorded~2021 (DB date, not legal located date) | src: BLM MLRS Not Closed | boundary approx (BLM quarter-section) | do not dig here (active claim)", "stroke": "#ff3300", "stroke-width": 2, "fill": "#ff3300", "fill-opacity": 0.05, "stroke-dasharray": "1,6"}}, {"type": "Feature", "geometry": {"type": "Polygon", "coordinates": [[[-122.3057860068483, 44.57641449170368], [-122.3057795110811, 44.57762097377928], [-122.30576009377542, 44.58121916200454], [-122.30574987314125, 44.58311456712322], [-122.30574067646991, 44.5848173272298], [-122.30573911352595, 44.585107241247954], [-122.30573155379652, 44.586508842335675], [-122.30573152679712, 44.58651207833589], [-122.30572783593989, 44.58725132738211], [-122.30572737394573, 44.58728179338404], [-122.30572735894674, 44.58728689238439], [-122.30572475103963, 44.5877682464145], [-122.30572427504026, 44.58777162341475], [-122.30572125916464, 44.588415492454985], [-122.30336764379696, 44.58841509668808], [-122.30069514337937, 44.58841458495268], [-122.29776811192197, 44.588414096242516], [-122.2958748266261, 44.588413747429975], [-122.29566902759399, 44.5884137004504], [-122.29569428890059, 44.58481746822459], [-122.29571952720741, 44.581221234998765], [-122.29574476551434, 44.577624537772834], [-122.29577002682136, 44.57402783954691], [-122.30078447760422, 44.57402532405044], [-122.30579892838689, 44.57402280855393], [-122.30579061668386, 44.575562075650325], [-122.3057860068483, 44.57641449170368]]]}, "properties": {"title": "RELIEF MINE", "description": "lode | serial ORMC172954 | 20.66 ac | Active | qtr-sec OR 33 0110S 0040E 026 A NW|OR 33 0110S 0040E 026 A SW | recorded~2021 (DB date, not legal located date) | src: BLM MLRS Not Closed | boundary approx (BLM quarter-section) | do not dig here (active claim)", "stroke": "#ff3300", "stroke-width": 2, "fill": "#ff3300", "fill-opacity": 0.05, "stroke-dasharray": "1,6"}}, {"type": "Feature", "geometry": {"type": "Polygon", "coordinates": [[[-122.30576009377542, 44.58121916200454], [-122.30574987314125, 44.58311456712322], [-122.30574067646991, 44.5848173272298], [-122.30573911352595, 44.585107241247954], [-122.30573155379652, 44.586508842335675], [-122.30573152679712, 44.58651207833589], [-122.30572783593989, 44.58725132738211], [-122.30572737394573, 44.58728179338404], [-122.30572735894674, 44.58728689238439], [-122.30572475103963, 44.5877682464145], [-122.30572427504026, 44.58777162341475], [-122.30572125916464, 44.588415492454985], [-122.30571134037676, 44.58951722352434], [-122.30568903585355, 44.59199300568018], [-122.30567495015498, 44.59355832577868], [-122.30566119044886, 44.59508399487466], [-122.30565681354258, 44.59557054190527], [-122.3008800587976, 44.59557692137887], [-122.30062862475836, 44.59557713140376], [-122.30039951972269, 44.595577573426475], [-122.30005540166901, 44.595577937460604], [-122.29560044797404, 44.59558376990228], [-122.29562227553478, 44.59330195675846], [-122.29563473228394, 44.59199873367634], [-122.29713006351743, 44.59199791852816], [-122.29564101815762, 44.59134273363501], [-122.29565799181626, 44.58956895952319], [-122.2957766648156, 44.5894698205053], [-122.29565943478731, 44.58941824851369], [-122.29566679263922, 44.58864876646516], [-122.29574818962145, 44.5884916054474], [-122.2958748266261, 44.588413747429975], [-122.29566902759399, 44.5884137004504], [-122.29569428890059, 44.58481746822459], [-122.29571952720741, 44.581221234998765], [-122.30073979899146, 44.58122018750167], [-122.30576009377542, 44.58121916200454]]]}, "properties": {"title": "GOLDEN DREAMS", "description": "lode | serial ORMC174152 | 20.66 ac | Active | qtr-sec OR 33 0110S 0040E 023 A SW|OR 33 0110S 0040E 026 A NW | recorded~2021 (DB date, not legal located date) | src: BLM MLRS Not Closed | boundary approx (BLM quarter-section) | do not dig here (active claim)", "stroke": "#ff3300", "stroke-width": 2, "fill": "#ff3300", "fill-opacity": 0.05, "stroke-dasharray": "1,6"}}, {"type": "Feature", "geometry": {"type": "Polygon", "coordinates": [[[-122.30039951972269, 44.595577573426475], [-122.30062862475836, 44.59557713140376], [-122.3008800587976, 44.59557692137887], [-122.30565681354258, 44.59557054190527], [-122.30562459023182, 44.59914805413034], [-122.30559234392119, 44.60272556735543], [-122.300562107138, 44.602739257854694], [-122.29553186935466, 44.6027529263539], [-122.29553994219212, 44.60190909430076], [-122.29540768931834, 44.602665854360815], [-122.2943265721365, 44.602599204463786], [-122.29329036882437, 44.601825340518445], [-122.29363715536361, 44.59917218431943], [-122.29055741847999, 44.59709898249587], [-122.29056768427924, 44.59605603643007], [-122.2911791732842, 44.59558919934054], [-122.29139999131867, 44.59558893931869], [-122.29538346947294, 44.598329238094145], [-122.29514702247087, 44.59850911512871], [-122.29557214854385, 44.598543081088685], [-122.2955881202225, 44.59687413798358], [-122.29560044797404, 44.59558376990228], [-122.30005540166901, 44.595577937460604], [-122.30039951972269, 44.595577573426475]]]}, "properties": {"title": "sweetwater", "description": "lode | serial OR106348587 | 641.57 ac | Filed | qtr-sec OR 33 0110S 0040E 023 A NW | recorded~2024 (DB date, not legal located date) | src: BLM MLRS Not Closed | boundary approx (BLM quarter-section) | do not dig here (active claim)", "stroke": "#ff3300", "stroke-width": 2, "fill": "#ff3300", "fill-opacity": 0.05, "stroke-dasharray": "1,6"}}, {"type": "Feature", "geometry": {"type": "Polygon", "coordinates": [[[-122.31466754657976, 44.593663331894405], [-122.31493471977092, 44.59443355891567], [-122.3157716058739, 44.59429090282392], [-122.31576301512021, 44.595567024903886], [-122.31573905780704, 44.59912514312683], [-122.31572972107439, 44.6005100192136], [-122.31571507649397, 44.602683284349695], [-122.31361843616827, 44.60269206255799], [-122.31065370970767, 44.602704425852586], [-122.30559234392119, 44.60272556735543], [-122.30562459023182, 44.59914805413034], [-122.30565681354258, 44.59557054190527], [-122.30566119044886, 44.59508399487466], [-122.30616734053945, 44.59514366982821], [-122.30796002075894, 44.59483142063127], [-122.30821487694196, 44.595569726651846], [-122.31070991433148, 44.59556877140458], [-122.31290431967405, 44.595568096187144], [-122.31240901930417, 44.59406056414272], [-122.31466754657976, 44.593663331894405]]]}, "properties": {"title": "Edson A", "description": "lode | serial OR106377410 | 486.09 ac | Active | qtr-sec OR 33 0110S 0040E 022 NE | recorded~2024 (DB date, not legal located date) | src: BLM MLRS Not Closed | boundary approx (BLM quarter-section) | do not dig here (active claim)", "stroke": "#ff3300", "stroke-width": 2, "fill": "#ff3300", "fill-opacity": 0.05, "stroke-dasharray": "1,6"}}, {"type": "Feature", "geometry": {"type": "Polygon", "coordinates": [[[-122.31466754657976, 44.593663331894405], [-122.31493471977092, 44.59443355891567], [-122.3157716058739, 44.59429090282392], [-122.31576301512021, 44.595567024903886], [-122.31573905780704, 44.59912514312683], [-122.31572972107439, 44.6005100192136], [-122.31571507649397, 44.602683284349695], [-122.31361843616827, 44.60269206255799], [-122.31065370970767, 44.602704425852586], [-122.30559234392119, 44.60272556735543], [-122.30562459023182, 44.59914805413034], [-122.30565681354258, 44.59557054190527], [-122.30566119044886, 44.59508399487466], [-122.30616734053945, 44.59514366982821], [-122.30796002075894, 44.59483142063127], [-122.30821487694196, 44.595569726651846], [-122.31070991433148, 44.59556877140458], [-122.31290431967405, 44.595568096187144], [-122.31240901930417, 44.59406056414272], [-122.31466754657976, 44.593663331894405]]]}, "properties": {"title": "Edson B", "description": "lode | serial OR106377411 | 486.09 ac | Active | qtr-sec OR 33 0110S 0040E 022 NE | recorded~2024 (DB date, not legal located date) | src: BLM MLRS Not Closed | boundary approx (BLM quarter-section) | do not dig here (active claim)", "stroke": "#ff3300", "stroke-width": 2, "fill": "#ff3300", "fill-opacity": 0.05, "stroke-dasharray": "1,6"}}, {"type": "Feature", "geometry": {"type": "Polygon", "coordinates": [[[-122.31466754657976, 44.593663331894405], [-122.31493471977092, 44.59443355891567], [-122.3157716058739, 44.59429090282392], [-122.31576301512021, 44.595567024903886], [-122.31573905780704, 44.59912514312683], [-122.31572972107439, 44.6005100192136], [-122.31571507649397, 44.602683284349695], [-122.31361843616827, 44.60269206255799], [-122.31065370970767, 44.602704425852586], [-122.30559234392119, 44.60272556735543], [-122.30562459023182, 44.59914805413034], [-122.30565681354258, 44.59557054190527], [-122.30566119044886, 44.59508399487466], [-122.30616734053945, 44.59514366982821], [-122.30796002075894, 44.59483142063127], [-122.30821487694196, 44.595569726651846], [-122.31070991433148, 44.59556877140458], [-122.31290431967405, 44.595568096187144], [-122.31240901930417, 44.59406056414272], [-122.31466754657976, 44.593663331894405]]]}, "properties": {"title": "Edson C", "description": "lode | serial OR106377412 | 486.09 ac | Active | qtr-sec OR 33 0110S 0040E 022 NE | recorded~2024 (DB date, not legal located date) | src: BLM MLRS Not Closed | boundary approx (BLM quarter-section) | do not dig here (active claim)", "stroke": "#ff3300", "stroke-width": 2, "fill": "#ff3300", "fill-opacity": 0.05, "stroke-dasharray": "1,6"}}, {"type": "Feature", "geometry": {"type": "Polygon", "coordinates": [[[-122.28077579840026, 44.5632959073634], [-122.2807416430893, 44.56688305958992], [-122.27567392030252, 44.56691055709304], [-122.27570812261372, 44.56332475586654], [-122.28077579840026, 44.5632959073634]]]}, "properties": {"title": "M & M B", "description": "placer | serial OR105231719 | 20.0 ac | Active | qtr-sec OR 33 0110S 0040E 036 A NESW|OR 33 0110S 0040E 036 A NESW|OR 33 0110S 0040E 036 A NESW|OR 33 0110S 0040E 036 A NESW | recorded~2021 (DB date, not legal located date) | src: BLM MLRS Not Closed | boundary approx (BLM quarter-section) | do not dig here (active claim)", "stroke": "#ff3300", "stroke-width": 2, "fill": "#ff3300", "fill-opacity": 0.05, "stroke-dasharray": "1,6"}}, {"type": "Feature", "geometry": {"type": "Polygon", "coordinates": [[[-122.29577002682136, 44.57402783954691], [-122.29574476551434, 44.577624537772834], [-122.29571952720741, 44.581221234998765], [-122.2906992314231, 44.58122181849579], [-122.28567893663866, 44.58122242399286], [-122.2857100189469, 44.577627657766364], [-122.28574112425532, 44.57403289253984], [-122.29075557503845, 44.57403037704338], [-122.29577002682136, 44.57402783954691]]]}, "properties": {"title": "XPNSV Hobby Too", "description": "placer | serial OR105788553 | 40.0 ac | Filed | qtr-sec OR 33 0110S 0040E 026 A SESE|OR 33 0110S 0040E 026 A SWSE|OR 33 0110S 0040E 026 A NESE|OR 33 0110S 0040E 026 A NWSE|OR 33 0110S 0040E 026 A SE | recorded~2022 (DB date, not legal located date) | src: BLM MLRS Not Closed | boundary approx (BLM quarter-section) | do not dig here (active claim)", "stroke": "#ff3300", "stroke-width": 2, "fill": "#ff3300", "fill-opacity": 0.05, "stroke-dasharray": "1,6"}}, {"type": "Feature", "geometry": {"type": "Polygon", "coordinates": [[[-122.27307159628666, 44.574093394797465], [-122.27053769989283, 44.57410549104897], [-122.27055385854827, 44.57231359093587], [-122.27308822594212, 44.57230110568428], [-122.27562259333592, 44.572288619432705], [-122.27560549268044, 44.57408129954592], [-122.27307159628666, 44.574093394797465]]]}, "properties": {"title": "Golden Flower 2", "description": "placer | serial OR105795368 | 40.0 ac | Active | qtr-sec OR 33 0110S 0040E 036 A N2NWNE | recorded~2022 (DB date, not legal located date) | src: BLM MLRS Not Closed | boundary approx (BLM quarter-section) | do not dig here (active claim)", "stroke": "#ff3300", "stroke-width": 2, "fill": "#ff3300", "fill-opacity": 0.05, "stroke-dasharray": "1,6"}}, {"type": "Feature", "geometry": {"type": "Polygon", "coordinates": [[[-122.3259208782287, 44.57763673478616], [-122.32591249692474, 44.581234318010054], [-122.32087508913774, 44.581230755508635], [-122.31583768135066, 44.58122717100726], [-122.31585088165534, 44.57762907578268], [-122.31586410596013, 44.574030980558135], [-122.32089669474655, 44.57403507806019], [-122.32592928353282, 44.57403915156224], [-122.3259208782287, 44.57763673478616]]]}, "properties": {"title": "ANGIE M", "description": "placer | serial ORMC135768 | 20.0 ac | Active | qtr-sec OR 33 0110S 0040E 027 A SW | recorded~2021 (DB date, not legal located date) | src: BLM MLRS Not Closed | boundary approx (BLM quarter-section) | do not dig here (active claim)", "stroke": "#ff3300", "stroke-width": 2, "fill": "#ff3300", "fill-opacity": 0.05, "stroke-dasharray": "1,6"}}, {"type": "Feature", "geometry": {"type": "Polygon", "coordinates": [[[-122.30078447760422, 44.57402532405044], [-122.30076215029781, 44.57762286027604], [-122.29574476551434, 44.577624537772834], [-122.29577002682136, 44.57402783954691], [-122.30078447760422, 44.57402532405044]]]}, "properties": {"title": "BROKEN BRIDGE", "description": "placer | serial ORMC154454 | 40.0 ac | Active | qtr-sec OR 33 0110S 0040E 026 A SESW | recorded~2021 (DB date, not legal located date) | src: BLM MLRS Not Closed | boundary approx (BLM quarter-section) | do not dig here (active claim)", "stroke": "#ff3300", "stroke-width": 2, "fill": "#ff3300", "fill-opacity": 0.05, "stroke-dasharray": "1,6"}}, {"type": "Feature", "geometry": {"type": "Polygon", "coordinates": [[[-122.30562459023182, 44.59914805413034], [-122.30559234392119, 44.60272556735543], [-122.300562107138, 44.602739257854694], [-122.29553186935466, 44.6027529263539], [-122.29453605319958, 44.60275565045274], [-122.29139102270975, 44.6027641957649], [-122.2910804026614, 44.602765033795734], [-122.29050163257124, 44.60276659385317], [-122.28806324319144, 44.60277325309517], [-122.28547141878767, 44.60278028435239], [-122.2855077400962, 44.599188196125766], [-122.2855440844048, 44.59559608489913], [-122.29057227218955, 44.5955899144007], [-122.2911791732842, 44.59558919934054], [-122.29139999131867, 44.59558893931869], [-122.2928062595381, 44.595587283179285], [-122.29560044797404, 44.59558376990228], [-122.30005540166901, 44.595577937460604], [-122.30039951972269, 44.595577573426475], [-122.30062862475836, 44.59557713140376], [-122.3008800587976, 44.59557692137887], [-122.30565681354258, 44.59557054190527], [-122.30562459023182, 44.59914805413034]]]}, "properties": {"title": "SILVER DOLLAR", "description": "placer | serial ORMC160675 | 20.0 ac | Active | qtr-sec OR 33 0110S 0040E 023 A NW|OR 33 0110S 0040E 023 A NE | recorded~2021 (DB date, not legal located date) | src: BLM MLRS Not Closed | boundary approx (BLM quarter-section) | do not dig here (active claim)", "stroke": "#ff3300", "stroke-width": 2, "fill": "#ff3300", "fill-opacity": 0.05, "stroke-dasharray": "1,6"}}, {"type": "Feature", "geometry": {"type": "Polygon", "coordinates": [[[-122.30043112206047, 44.65386435603459], [-122.29964418194024, 44.653878581113624], [-122.29544298930135, 44.653969971536284], [-122.29544305342044, 44.6494478132564], [-122.29544309971733, 44.6458373310329], [-122.29544312201436, 44.64222680280933], [-122.2954431913116, 44.63861629758577], [-122.30045133308509, 44.638568614085955], [-122.30545945085842, 44.638520929586136], [-122.30545065055925, 44.64212819781026], [-122.30544187326024, 44.6457354430343], [-122.30543309696138, 44.649342712258374], [-122.30541912981936, 44.653758183532844], [-122.30470947871093, 44.65377096360409], [-122.30043112206047, 44.65386435603459]]]}, "properties": {"title": "GOLDEN KITTY 1", "description": "placer | serial ORMC163144 | 160.0 ac | Active | qtr-sec OR 33 0110S 0040E 002 A NW | recorded~2021 (DB date, not legal located date) | src: BLM MLRS Not Closed | boundary approx (BLM quarter-section) | do not dig here (active claim)", "stroke": "#ff3300", "stroke-width": 2, "fill": "#ff3300", "fill-opacity": 0.05, "stroke-dasharray": "1,6"}}, {"type": "Feature", "geometry": {"type": "Polygon", "coordinates": [[[-122.29045247354114, 44.65407267303802], [-122.28875063428166, 44.654106594209054], [-122.28546162878096, 44.654176628539815], [-122.28544721387804, 44.64955284425494], [-122.28543806317286, 44.64593884603202], [-122.28542893546786, 44.64232487180902], [-122.28541980776303, 44.63871087458599], [-122.29043151053739, 44.63866358608591], [-122.2954431913116, 44.63861629758577], [-122.29544312201436, 44.64222680280933], [-122.29544309971733, 44.6458373310329], [-122.29544305342044, 44.6494478132564], [-122.29544298930135, 44.653969971536284], [-122.29381873205342, 44.654000788699385], [-122.29045247354114, 44.65407267303802]]]}, "properties": {"title": "GOLDEN KITTY 2", "description": "placer | serial ORMC163145 | 160.0 ac | Active | qtr-sec OR 33 0110S 0040E 002 A NE | recorded~2021 (DB date, not legal located date) | src: BLM MLRS Not Closed | boundary approx (BLM quarter-section) | do not dig here (active claim)", "stroke": "#ff3300", "stroke-width": 2, "fill": "#ff3300", "fill-opacity": 0.05, "stroke-dasharray": "1,6"}}, {"type": "Feature", "geometry": {"type": "Polygon", "coordinates": [[[-122.3155653720359, 44.63131949913787], [-122.31556392873848, 44.63493147136149], [-122.3155624864412, 44.63854344358506], [-122.32062310723369, 44.63855426908357], [-122.32568370602607, 44.63856509558215], [-122.32550011968503, 44.64209699681867], [-122.32531654434415, 44.64562894405518], [-122.32513294700337, 44.64916086929166], [-122.32491278479345, 44.653392518575004], [-122.32423082368852, 44.65340062564318], [-122.32022960907811, 44.65347496704505], [-122.3195567669734, 44.653477057111985], [-122.315556501363, 44.65355136151367], [-122.3148726152566, 44.65355352758169], [-122.31048806259031, 44.65364975602294], [-122.30979107848381, 44.65366228409293], [-122.30541912981936, 44.653758183532844], [-122.30543309696138, 44.649342712258374], [-122.30544187326024, 44.6457354430343], [-122.30545065055925, 44.64212819781026], [-122.30545945085842, 44.638520929586136], [-122.30547986916207, 44.63492607036156], [-122.30550028746585, 44.63133121213698], [-122.31053283025093, 44.631325367637444], [-122.3155653720359, 44.63131949913787]]]}, "properties": {"title": "GOLDEN KITTY 3", "description": "placer | serial ORMC163146 | 160.0 ac | Active | qtr-sec OR 33 0110S 0040E 003 A NW|OR 33 0110S 0040E 003 A NE|OR 33 0110S 0040E 003 A SE | recorded~2021 (DB date, not legal located date) | src: BLM MLRS Not Closed | boundary approx (BLM quarter-section) | do not dig here (active claim)", "stroke": "#ff3300", "stroke-width": 2, "fill": "#ff3300", "fill-opacity": 0.05, "stroke-dasharray": "1,6"}}, {"type": "Feature", "geometry": {"type": "Polygon", "coordinates": [[[-122.3256570923157, 44.63493642936044], [-122.32568370602607, 44.63856509558215], [-122.32062310723369, 44.63855426908357], [-122.3155624864412, 44.63854344358506], [-122.31556392873848, 44.63493147136149], [-122.3155653720359, 44.63131949913787], [-122.32059793682077, 44.63131363163825], [-122.32563047960545, 44.63130776413868], [-122.3256570923157, 44.63493642936044]]]}, "properties": {"title": "GOLDEN KITTY 4", "description": "placer | serial ORMC163147 | 160.0 ac | Active | qtr-sec OR 33 0110S 0040E 003 A SW | recorded~2021 (DB date, not legal located date) | src: BLM MLRS Not Closed | boundary approx (BLM quarter-section) | do not dig here (active claim)", "stroke": "#ff3300", "stroke-width": 2, "fill": "#ff3300", "fill-opacity": 0.05, "stroke-dasharray": "1,6"}}, {"type": "Feature", "geometry": {"type": "Polygon", "coordinates": [[[-122.3356409777549, 44.57768553482676], [-122.33570989646323, 44.58128397904298], [-122.33081118469404, 44.581259136526526], [-122.32591249692474, 44.581234318010054], [-122.3259208782287, 44.57763673478616], [-122.32592928353282, 44.57403915156224], [-122.33075067128986, 44.574063109086396], [-122.33557208204675, 44.57408709061058], [-122.3356409777549, 44.57768553482676]]]}, "properties": {"title": "LUCK OF THE DRAW", "description": "placer | serial ORMC163283 | 80.0 ac | Active | qtr-sec OR 33 0110S 0040E 028 A SE | recorded~2021 (DB date, not legal located date) | src: BLM MLRS Not Closed | boundary approx (BLM quarter-section) | do not dig here (active claim)", "stroke": "#ff3300", "stroke-width": 2, "fill": "#ff3300", "fill-opacity": 0.05, "stroke-dasharray": "1,6"}}, {"type": "Feature", "geometry": {"type": "Polygon", "coordinates": [[[-122.32057765572436, 44.62055012597421], [-122.31563545195577, 44.6205664714653], [-122.31565882726194, 44.61697810924083], [-122.32070831904615, 44.61695608273882], [-122.3257577888303, 44.616934079236756], [-122.3255198594928, 44.62053357148315], [-122.32057765572436, 44.62055012597421]]]}, "properties": {"title": "WHITE HORSE", "description": "placer | serial ORMC164664 | 80.0 ac | Active | qtr-sec OR 33 0110S 0040E 010 A S2SW | recorded~2021 (DB date, not legal located date) | src: BLM MLRS Not Closed | boundary approx (BLM quarter-section) | do not dig here (active claim)", "stroke": "#ff3300", "stroke-width": 2, "fill": "#ff3300", "fill-opacity": 0.05, "stroke-dasharray": "1,6"}}, {"type": "Feature", "geometry": {"type": "Polygon", "coordinates": [[[-122.31059019717092, 44.62058302596662], [-122.30554496638592, 44.62059937146789], [-122.30051060760516, 44.620629476968915], [-122.29547627282423, 44.62065932646988], [-122.2954872621293, 44.617074502246595], [-122.30052357591121, 44.61704828574567], [-122.305559866693, 44.61702209124476], [-122.3106093584775, 44.61700008874281], [-122.31565882726194, 44.61697810924083], [-122.31563545195577, 44.6205664714653], [-122.31059019717092, 44.62058302596662]]]}, "properties": {"title": "DREAM ON PLACER A", "description": "placer | serial ORMC165974 | 160.0 ac | Active | qtr-sec OR 33 0110S 0040E 010 A S2SE | OR 33 0110S 0040E 011 A S2SW | recorded~2021 (DB date, not legal located date) | src: BLM MLRS Not Closed | boundary approx (BLM quarter-section) | do not dig here (active claim)", "stroke": "#ff3300", "stroke-width": 2, "fill": "#ff3300", "fill-opacity": 0.05, "stroke-dasharray": "1,6"}}, {"type": "Feature", "geometry": {"type": "Polygon", "coordinates": [[[-122.29044191504317, 44.620689198970894], [-122.28540758026197, 44.62071883847184], [-122.28541468056507, 44.617126890248315], [-122.29045097134723, 44.61710069674746], [-122.2954872621293, 44.617074502246595], [-122.29547627282423, 44.62065932646988], [-122.29044191504317, 44.620689198970894]]]}, "properties": {"title": "MINERS MISERY", "description": "placer | serial ORMC165975 | 80.0 ac | Active | qtr-sec OR 33 0110S 0040E 011 A S2SE | recorded~2021 (DB date, not legal located date) | src: BLM MLRS Not Closed | boundary approx (BLM quarter-section) | do not dig here (active claim)", "stroke": "#ff3300", "stroke-width": 2, "fill": "#ff3300", "fill-opacity": 0.05, "stroke-dasharray": "1,6"}}, {"type": "Feature", "geometry": {"type": "Polygon", "coordinates": [[[-122.33564099935519, 44.57046242937905], [-122.33557208204675, 44.57408709061058], [-122.33075067128986, 44.574063109086396], [-122.32592928353282, 44.57403915156224], [-122.32592844382931, 44.5704085533371], [-122.32592760512597, 44.56677797811195], [-122.33081874889498, 44.56680787362973], [-122.33570991666387, 44.56683776814747], [-122.33564099935519, 44.57046242937905]]]}, "properties": {"title": "GALENA 1", "description": "placer | serial ORMC168892 | 40.0 ac | Active | qtr-sec OR 33 0110S 0040E 033 A NE | recorded~2021 (DB date, not legal located date) | src: BLM MLRS Not Closed | boundary approx (BLM quarter-section) | do not dig here (active claim)", "stroke": "#ff3300", "stroke-width": 2, "fill": "#ff3300", "fill-opacity": 0.05, "stroke-dasharray": "1,6"}}, {"type": "Feature", "geometry": {"type": "Polygon", "coordinates": [[[-122.30565681354258, 44.59557054190527], [-122.3008800587976, 44.59557692137887], [-122.30062862475836, 44.59557713140376], [-122.30039951972269, 44.595577573426475], [-122.30005540166901, 44.595577937460604], [-122.29560044797404, 44.59558376990228], [-122.29562227553478, 44.59330195675846], [-122.29563473228394, 44.59199873367634], [-122.29713006351743, 44.59199791852816], [-122.29564101815762, 44.59134273363501], [-122.29565799181626, 44.58956895952319], [-122.2957766648156, 44.5894698205053], [-122.29565943478731, 44.58941824851369], [-122.29566679263922, 44.58864876646516], [-122.29574818962145, 44.5884916054474], [-122.2958748266261, 44.588413747429975], [-122.29776811192197, 44.588414096242516], [-122.30069514337937, 44.58841458495268], [-122.30336764379696, 44.58841509668808], [-122.30572125916464, 44.588415492454985], [-122.30571134037676, 44.58951722352434], [-122.30568903585355, 44.59199300568018], [-122.30567495015498, 44.59355832577868], [-122.30566119044886, 44.59508399487466], [-122.30565681354258, 44.59557054190527]]]}, "properties": {"title": "LUCKY DUCK", "description": "placer | serial ORMC173415 | 20.0 ac | Active | qtr-sec OR 33 0110S 0040E 023 A SW | recorded~2021 (DB date, not legal located date) | src: BLM MLRS Not Closed | boundary approx (BLM quarter-section) | do not dig here (active claim)", "stroke": "#ff3300", "stroke-width": 2, "fill": "#ff3300", "fill-opacity": 0.05, "stroke-dasharray": "1,6"}}, {"type": "Feature", "geometry": {"type": "Polygon", "coordinates": [[[-122.30681842733534, 44.58841197634611], [-122.30703621736919, 44.588411278324486], [-122.30704902237122, 44.588411223323234], [-122.30771144947428, 44.58840911225747], [-122.30802167252251, 44.58840811122671], [-122.30803622452476, 44.58840804722526], [-122.31076632794947, 44.58839923995435], [-122.31103592199138, 44.588398378927614], [-122.31105245299389, 44.58839832692596], [-122.312351718196, 44.58839416479704], [-122.31236086819746, 44.58839411979609], [-122.31476233057093, 44.58838641055778], [-122.31312089745161, 44.589092679764136], [-122.31539677121195, 44.59118065766821], [-122.31579314225759, 44.591096675623774], [-122.31578720542704, 44.59197502967877], [-122.3157716058739, 44.59429090282392], [-122.31493471977092, 44.59443355891567], [-122.31466754657976, 44.593663331894405], [-122.31240901930417, 44.59406056414272], [-122.31290431967405, 44.595568096187144], [-122.31070991433148, 44.59556877140458], [-122.30821487694196, 44.595569726651846], [-122.30796002075894, 44.59483142063127], [-122.30616734053945, 44.59514366982821], [-122.30566119044886, 44.59508399487466], [-122.30565681354258, 44.59557054190527], [-122.3008800587976, 44.59557692137887], [-122.30062862475836, 44.59557713140376], [-122.30039951972269, 44.595577573426475], [-122.30005540166901, 44.595577937460604], [-122.29560044797404, 44.59558376990228], [-122.29562227553478, 44.59330195675846], [-122.29563473228394, 44.59199873367634], [-122.29713006351743, 44.59199791852816], [-122.29564101815762, 44.59134273363501], [-122.29565799181626, 44.58956895952319], [-122.2957766648156, 44.5894698205053], [-122.29565943478731, 44.58941824851369], [-122.29566679263922, 44.58864876646516], [-122.29574818962145, 44.5884916054474], [-122.2958748266261, 44.588413747429975], [-122.29776811192197, 44.588414096242516], [-122.30069514337937, 44.58841458495268], [-122.30336764379696, 44.58841509668808], [-122.30572125916464, 44.588415492454985], [-122.30681842733534, 44.58841197634611]]]}, "properties": {"title": "GOLDEN DIGGER", "description": "placer | serial ORMC173434 | 20.0 ac | Active | qtr-sec OR 33 0110S 0040E 022 A SE|OR 33 0110S 0040E 023 A SW | recorded~2021 (DB date, not legal located date) | src: BLM MLRS Not Closed | boundary approx (BLM quarter-section) | do not dig here (active claim)", "stroke": "#ff3300", "stroke-width": 2, "fill": "#ff3300", "fill-opacity": 0.05, "stroke-dasharray": "1,6"}}, {"type": "Feature", "geometry": {"type": "Polygon", "coordinates": [[[-122.30073979899146, 44.58122018750167], [-122.29571952720741, 44.581221234998765], [-122.29574476551434, 44.577624537772834], [-122.29577002682136, 44.57402783954691], [-122.30078447760422, 44.57402532405044], [-122.30579892838689, 44.57402280855393], [-122.31083151717358, 44.57402688305602], [-122.31586410596013, 44.574030980558135], [-122.31585088165534, 44.57762907578268], [-122.31583768135066, 44.58122717100726], [-122.31212284077003, 44.581224218374864], [-122.3107988755631, 44.58122316650587], [-122.31058909553036, 44.581223119526676], [-122.30795743311897, 44.5812209777871], [-122.30576009377542, 44.58121916200454], [-122.30073979899146, 44.58122018750167]]]}, "properties": {"title": "STARDUSTER", "description": "placer | serial ORMC173574 | 67.0 ac | Active | qtr-sec OR 33 0110S 0040E 026 A SW|OR 33 0110S 0040E 027 A SE | recorded~2021 (DB date, not legal located date) | src: BLM MLRS Not Closed | boundary approx (BLM quarter-section) | do not dig here (active claim)", "stroke": "#ff3300", "stroke-width": 2, "fill": "#ff3300", "fill-opacity": 0.05, "stroke-dasharray": "1,6"}}, {"type": "Feature", "geometry": {"type": "Polygon", "coordinates": [[[-122.30681842733534, 44.58841197634611], [-122.30703621736919, 44.588411278324486], [-122.30704902237122, 44.588411223323234], [-122.30771144947428, 44.58840911225747], [-122.30802167252251, 44.58840811122671], [-122.30803622452476, 44.58840804722526], [-122.31076632794947, 44.58839923995435], [-122.31103592199138, 44.588398378927614], [-122.31105245299389, 44.58839832692596], [-122.312351718196, 44.58839416479704], [-122.31236086819746, 44.58839411979609], [-122.31476233057093, 44.58838641055778], [-122.31312089745161, 44.589092679764136], [-122.31539677121195, 44.59118065766821], [-122.31579314225759, 44.591096675623774], [-122.31578720542704, 44.59197502967877], [-122.3157716058739, 44.59429090282392], [-122.31493471977092, 44.59443355891567], [-122.31466754657976, 44.593663331894405], [-122.31240901930417, 44.59406056414272], [-122.31290431967405, 44.595568096187144], [-122.31070991433148, 44.59556877140458], [-122.30821487694196, 44.595569726651846], [-122.30796002075894, 44.59483142063127], [-122.30616734053945, 44.59514366982821], [-122.30566119044886, 44.59508399487466], [-122.30565681354258, 44.59557054190527], [-122.3008800587976, 44.59557692137887], [-122.30062862475836, 44.59557713140376], [-122.30039951972269, 44.595577573426475], [-122.30005540166901, 44.595577937460604], [-122.29560044797404, 44.59558376990228], [-122.29562227553478, 44.59330195675846], [-122.29563473228394, 44.59199873367634], [-122.29713006351743, 44.59199791852816], [-122.29564101815762, 44.59134273363501], [-122.29565799181626, 44.58956895952319], [-122.2957766648156, 44.5894698205053], [-122.29565943478731, 44.58941824851369], [-122.29566679263922, 44.58864876646516], [-122.29574818962145, 44.5884916054474], [-122.2958748266261, 44.588413747429975], [-122.29776811192197, 44.588414096242516], [-122.30069514337937, 44.58841458495268], [-122.30336764379696, 44.58841509668808], [-122.30572125916464, 44.588415492454985], [-122.30681842733534, 44.58841197634611]]]}, "properties": {"title": "PARKER B 1", "description": "placer | serial ORMC173610 | 20.0 ac | Active | qtr-sec OR 33 0110S 0040E 022 A SE|OR 33 0110S 0040E 023 A SW | recorded~2021 (DB date, not legal located date) | src: BLM MLRS Not Closed | boundary approx (BLM quarter-section) | do not dig here (active claim)", "stroke": "#ff3300", "stroke-width": 2, "fill": "#ff3300", "fill-opacity": 0.05, "stroke-dasharray": "1,6"}}, {"type": "Feature", "geometry": {"type": "Polygon", "coordinates": [[[-122.32087508913774, 44.581230755508635], [-122.31583768135066, 44.58122717100726], [-122.31585088165534, 44.57762907578268], [-122.31586410596013, 44.574030980558135], [-122.32089669474655, 44.57403507806019], [-122.32592928353282, 44.57403915156224], [-122.33075067128986, 44.574063109086396], [-122.33557208204675, 44.57408709061058], [-122.3356409777549, 44.57768553482676], [-122.33570989646323, 44.58128397904298], [-122.33081118469404, 44.581259136526526], [-122.32591249692474, 44.581234318010054], [-122.32087508913774, 44.581230755508635]]]}, "properties": {"title": "HALLELUJAH MINE", "description": "placer | serial ORMC174122 | 30.0 ac | Active | qtr-sec OR 33 0110S 0040E 027 A SW|OR 33 0110S 0040E 028 A SE | recorded~2021 (DB date, not legal located date) | src: BLM MLRS Not Closed | boundary approx (BLM quarter-section) | do not dig here (active claim)", "stroke": "#ff3300", "stroke-width": 2, "fill": "#ff3300", "fill-opacity": 0.05, "stroke-dasharray": "1,6"}}, {"type": "Feature", "geometry": {"type": "Polygon", "coordinates": [[[-122.33564099935519, 44.57046242937905], [-122.33557208204675, 44.57408709061058], [-122.3356409777549, 44.57768553482676], [-122.33570989646323, 44.58128397904298], [-122.33081118469404, 44.581259136526526], [-122.32591249692474, 44.581234318010054], [-122.3259208782287, 44.57763673478616], [-122.32592928353282, 44.57403915156224], [-122.32592844382931, 44.5704085533371], [-122.32592760512597, 44.56677797811195], [-122.33081874889498, 44.56680787362973], [-122.33570991666387, 44.56683776814747], [-122.33564099935519, 44.57046242937905]]]}, "properties": {"title": "RIVERSIDE", "description": "placer | serial ORMC174123 | 40.0 ac | Active | qtr-sec OR 33 0110S 0040E 028 A SE|OR 33 0110S 0040E 033 A NE | recorded~2021 (DB date, not legal located date) | src: BLM MLRS Not Closed | boundary approx (BLM quarter-section) | do not dig here (active claim)", "stroke": "#ff3300", "stroke-width": 2, "fill": "#ff3300", "fill-opacity": 0.05, "stroke-dasharray": "1,6"}}, {"type": "Feature", "geometry": {"type": "Polygon", "coordinates": [[[-122.3316116296135, 44.559550542101036], [-122.33584789028012, 44.559580296683734], [-122.33577890397193, 44.563209032915616], [-122.33570991666387, 44.56683776814747], [-122.33081874889498, 44.56680787362973], [-122.32592760512597, 44.56677797811195], [-122.32592678942278, 44.56314740388675], [-122.32592595071979, 44.55951680466155], [-122.32650604881054, 44.559517899604195], [-122.3308873865004, 44.55954968017267], [-122.3316116296135, 44.559550542101036]]]}, "properties": {"title": "LUCKY GALENA", "description": "placer | serial ORMC174207 | 20.0 ac | Active | qtr-sec OR 33 0110S 0040E 033 A SE | recorded~2021 (DB date, not legal located date) | src: BLM MLRS Not Closed | boundary approx (BLM quarter-section) | do not dig here (active claim)", "stroke": "#ff3300", "stroke-width": 2, "fill": "#ff3300", "fill-opacity": 0.05, "stroke-dasharray": "1,6"}}, {"type": "Feature", "geometry": {"type": "Polygon", "coordinates": [[[-122.3265076774496, 44.557651808488174], [-122.32650604881054, 44.559517899604195], [-122.3308873865004, 44.55954968017267], [-122.3316116296135, 44.559550542101036], [-122.33584789028012, 44.559580296683734], [-122.33577890397193, 44.563209032915616], [-122.33570991666387, 44.56683776814747], [-122.33081874889498, 44.56680787362973], [-122.32592760512597, 44.56677797811195], [-122.32093371334925, 44.56679192560706], [-122.31593982057247, 44.56680587210219], [-122.31597772487784, 44.56318796387379], [-122.3160156291834, 44.55957007764535], [-122.31637668023932, 44.55956795860951], [-122.31640475885483, 44.557558583481956], [-122.31645560815836, 44.55391836925085], [-122.32148808095486, 44.55397520275653], [-122.32652057575113, 44.554032036262235], [-122.3265076774496, 44.557651808488174]]]}, "properties": {"title": "PHANTOM GOLD ANGEL", "description": "placer | serial ORMC174236 | 40.0 ac | Active | qtr-sec OR 33 0120S 0040E 003 A NW|OR 33 0110S 0040E 033 A SE|OR 33 0110S 0040E 034 A SW | recorded~2021 (DB date, not legal located date) | src: BLM MLRS Not Closed | boundary approx (BLM quarter-section) | do not dig here (active claim)", "stroke": "#ff3300", "stroke-width": 2, "fill": "#ff3300", "fill-opacity": 0.05, "stroke-dasharray": "1,6"}}, {"type": "Feature", "geometry": {"type": "Polygon", "coordinates": [[[-122.28067330846797, 44.57405710704291], [-122.28574112425532, 44.57403289253984], [-122.2857100189469, 44.577627657766364], [-122.28567893663866, 44.58122242399286], [-122.28061412485096, 44.58124254049548], [-122.27554933506308, 44.581262680998115], [-122.27557741437167, 44.577671989772035], [-122.27560549268044, 44.57408129954592], [-122.28067330846797, 44.57405710704291]]]}, "properties": {"title": "GOLD CREEK", "description": "placer | serial ORMC174318 | 20.0 ac | Active | qtr-sec OR 33 0110S 0040E 025 A SW | recorded~2021 (DB date, not legal located date) | src: BLM MLRS Not Closed | boundary approx (BLM quarter-section) | do not dig here (active claim)", "stroke": "#ff3300", "stroke-width": 2, "fill": "#ff3300", "fill-opacity": 0.05, "stroke-dasharray": "1,6"}}, {"type": "Feature", "geometry": {"type": "Polygon", "coordinates": [[[-122.2807416430893, 44.56688305958992], [-122.28580936587602, 44.56685553808679], [-122.28577523356557, 44.570444227313345], [-122.28574112425532, 44.57403289253984], [-122.28067330846797, 44.57405710704291], [-122.27560549268044, 44.57408129954592], [-122.27563969499136, 44.5704959393195], [-122.27567392030252, 44.56691055709304], [-122.2807416430893, 44.56688305958992]]]}, "properties": {"title": "M AND M 1", "description": "placer | serial ORMC174485 | 20.0 ac | Active | qtr-sec OR 33 0110S 0040E 036 A NW | recorded~2021 (DB date, not legal located date) | src: BLM MLRS Not Closed | boundary approx (BLM quarter-section) | do not dig here (active claim)", "stroke": "#ff3300", "stroke-width": 2, "fill": "#ff3300", "fill-opacity": 0.05, "stroke-dasharray": "1,6"}}, {"type": "Feature", "geometry": {"type": "Polygon", "coordinates": [[[-122.2807416430893, 44.56688305958992], [-122.28580936587602, 44.56685553808679], [-122.28577523356557, 44.570444227313345], [-122.28574112425532, 44.57403289253984], [-122.28067330846797, 44.57405710704291], [-122.27560549268044, 44.57408129954592], [-122.27563969499136, 44.5704959393195], [-122.27567392030252, 44.56691055709304], [-122.2807416430893, 44.56688305958992]]]}, "properties": {"title": "M AND M 2", "description": "placer | serial ORMC174486 | 20.0 ac | Active | qtr-sec OR 33 0110S 0040E 036 A NW | recorded~2021 (DB date, not legal located date) | src: BLM MLRS Not Closed | boundary approx (BLM quarter-section) | do not dig here (active claim)", "stroke": "#ff3300", "stroke-width": 2, "fill": "#ff3300", "fill-opacity": 0.05, "stroke-dasharray": "1,6"}}, {"type": "Feature", "geometry": {"type": "Polygon", "coordinates": [[[-122.2807416430893, 44.56688305958992], [-122.28580936587602, 44.56685553808679], [-122.28577523356557, 44.570444227313345], [-122.28574112425532, 44.57403289253984], [-122.28067330846797, 44.57405710704291], [-122.27560549268044, 44.57408129954592], [-122.27563969499136, 44.5704959393195], [-122.27567392030252, 44.56691055709304], [-122.2807416430893, 44.56688305958992]]]}, "properties": {"title": "M & M 2", "description": "placer | serial ORMC177986 | 20.0 ac | Active | qtr-sec OR 33 0110S 0040E 036 A NW | recorded~2021 (DB date, not legal located date) | src: BLM MLRS Not Closed | boundary approx (BLM quarter-section) | do not dig here (active claim)", "stroke": "#ff3300", "stroke-width": 2, "fill": "#ff3300", "fill-opacity": 0.05, "stroke-dasharray": "1,6"}}, {"type": "Feature", "geometry": {"type": "Polygon", "coordinates": [[[-122.2807416430893, 44.56688305958992], [-122.28580936587602, 44.56685553808679], [-122.28577523356557, 44.570444227313345], [-122.28574112425532, 44.57403289253984], [-122.28067330846797, 44.57405710704291], [-122.27560549268044, 44.57408129954592], [-122.27563969499136, 44.5704959393195], [-122.27567392030252, 44.56691055709304], [-122.2807416430893, 44.56688305958992]]]}, "properties": {"title": "M & M 3", "description": "placer | serial ORMC177987 | 20.0 ac | Active | qtr-sec OR 33 0110S 0040E 036 A NW | recorded~2021 (DB date, not legal located date) | src: BLM MLRS Not Closed | boundary approx (BLM quarter-section) | do not dig here (active claim)", "stroke": "#ff3300", "stroke-width": 2, "fill": "#ff3300", "fill-opacity": 0.05, "stroke-dasharray": "1,6"}}, {"type": "Feature", "geometry": {"type": "Polygon", "coordinates": [[[-122.3155653720359, 44.63131949913787], [-122.31558872434273, 44.62773716691383], [-122.31561207664977, 44.624154834689776], [-122.32044699140266, 44.624143937209624], [-122.32528188415552, 44.62413304072947], [-122.32545618188037, 44.627720401934056], [-122.32563047960545, 44.63130776413868], [-122.32059793682077, 44.63131363163825], [-122.3155653720359, 44.63131949913787]]]}, "properties": {"title": "XPNSV HOBBY", "description": "placer | serial ORMC178047 | 40.0 ac | Active | qtr-sec OR 33 0110S 0040E 010 A NW | recorded~2021 (DB date, not legal located date) | src: BLM MLRS Not Closed | boundary approx (BLM quarter-section) | do not dig here (active claim)", "stroke": "#ff3300", "stroke-width": 2, "fill": "#ff3300", "fill-opacity": 0.05, "stroke-dasharray": "1,6"}}, {"type": "Feature", "geometry": {"type": "Polygon", "coordinates": [[[-122.27580139347363, 44.55735800448588], [-122.28084774226915, 44.55739290498892], [-122.2809066945795, 44.55378035075827], [-122.28103887090211, 44.55017121952051], [-122.28609742069747, 44.55019664402189], [-122.28865719609874, 44.550203360769196], [-122.28857867443512, 44.55200637288914], [-122.28850015277166, 44.553809384009085], [-122.28592249536906, 44.553810246264085], [-122.285891390064, 44.557427572492244], [-122.28587760649738, 44.55967816063361], [-122.28080996571133, 44.559708569136774], [-122.28079288205572, 44.56150223825006], [-122.27825905266255, 44.56151704650163], [-122.2757252242694, 44.561531854753206], [-122.27574232492506, 44.55973895363993], [-122.27580139347363, 44.55735800448588]]]}, "properties": {"title": "Pappy 1", "description": "placer | serial OR106344032 | 211.28 ac | Under Review | qtr-sec OR 33 0120S 0040E 001 A SWNW,NWSW | OR 33 0120S 0040E 002 A E2NESE | OR 33 0120S 0040E 001 L 3,4 | OR 33 0110S 0040E 036 A S2SESW | recorded~2023 (DB date, not legal located date) | src: BLM MLRS Not Closed | boundary approx (BLM quarter-section) | do not dig here (active claim)", "stroke": "#ff3300", "stroke-width": 2, "fill": "#ff3300", "fill-opacity": 0.05, "stroke-dasharray": "1,6"}}, {"type": "Feature", "geometry": {"type": "Polygon", "coordinates": [[[-122.28567893663866, 44.58122242399286], [-122.2857100189469, 44.577627657766364], [-122.28574112425532, 44.57403289253984], [-122.29075557503845, 44.57403037704338], [-122.29577002682136, 44.57402783954691], [-122.29574476551434, 44.577624537772834], [-122.29571952720741, 44.581221234998765], [-122.2906992314231, 44.58122181849579], [-122.28567893663866, 44.58122242399286]]]}, "properties": {"title": "xpnsv ext", "description": "placer | serial OR106350535 | 160.0 ac | Active | qtr-sec OR 33 0110S 0040E 026 A SE | recorded~2024 (DB date, not legal located date) | src: BLM MLRS Not Closed | boundary approx (BLM quarter-section) | do not dig here (active claim)", "stroke": "#ff3300", "stroke-width": 2, "fill": "#ff3300", "fill-opacity": 0.05, "stroke-dasharray": "1,6"}}, {"type": "Feature", "geometry": {"type": "Polygon", "coordinates": [[[-122.32592760512597, 44.56677797811195], [-122.33081874889498, 44.56680787362973], [-122.33078471059234, 44.57043560785811], [-122.32592844382931, 44.5704085533371], [-122.32592760512597, 44.56677797811195]]]}, "properties": {"title": "Galena 1", "description": "placer | serial OR106707164 | 40.0 ac | Filed | qtr-sec OR 33 0110S 0040E 033 SENE | recorded~2024 (DB date, not legal located date) | src: BLM MLRS Not Closed | boundary approx (BLM quarter-section) | do not dig here (active claim)", "stroke": "#ff3300", "stroke-width": 2, "fill": "#ff3300", "fill-opacity": 0.05, "stroke-dasharray": "1,6"}}, {"type": "Feature", "geometry": {"type": "Polygon", "coordinates": [[[-122.33081118469404, 44.581259136526526], [-122.33079606234296, 44.57946018241649], [-122.33323574972601, 44.57947246917568], [-122.33567543710905, 44.57948475693484], [-122.33570989646323, 44.58128397904298], [-122.33326054107864, 44.58127155728475], [-122.33081118469404, 44.581259136526526]]]}, "properties": {"title": "DENWEL PLACER 1", "description": "placer | serial OR106709015 | 20.0 ac | Under Review | qtr-sec OR 33 0110S 0040E 028 N2NWSE | recorded~2024 (DB date, not legal located date) | src: BLM MLRS Not Closed | boundary approx (BLM quarter-section) | do not dig here (active claim)", "stroke": "#ff3300", "stroke-width": 2, "fill": "#ff3300", "fill-opacity": 0.05, "stroke-dasharray": "1,6"}}, {"type": "Feature", "geometry": {"type": "Polygon", "coordinates": [[[-122.31068181201947, 44.599136714628614], [-122.31065370970767, 44.602704425852586], [-122.30559234392119, 44.60272556735543], [-122.30562459023182, 44.59914805413034], [-122.31068181201947, 44.599136714628614]]]}, "properties": {"title": "XPNSV GT.A.WY 2", "description": "placer | serial OR106736573 | 20.0 ac | Active | qtr-sec OR 33 0110S 0040E 022 A NENE | recorded~2025 (DB date, not legal located date) | src: BLM MLRS Not Closed | boundary approx (BLM quarter-section) | do not dig here (active claim)", "stroke": "#ff3300", "stroke-width": 2, "fill": "#ff3300", "fill-opacity": 0.05, "stroke-dasharray": "1,6"}}, {"type": "Feature", "geometry": {"type": "Polygon", "coordinates": [[[-122.29776811192197, 44.588414096242516], [-122.30069514337937, 44.58841458495268], [-122.30336764379696, 44.58841509668808], [-122.30572125916464, 44.588415492454985], [-122.30571134037676, 44.58951722352434], [-122.30568903585355, 44.59199300568018], [-122.30567495015498, 44.59355832577868], [-122.30566119044886, 44.59508399487466], [-122.30565681354258, 44.59557054190527], [-122.30562459023182, 44.59914805413034], [-122.30559234392119, 44.60272556735543], [-122.300562107138, 44.602739257854694], [-122.29553186935466, 44.6027529263539], [-122.29453605319958, 44.60275565045274], [-122.29139102270975, 44.6027641957649], [-122.2910804026614, 44.602765033795734], [-122.29050163257124, 44.60276659385317], [-122.28806324319144, 44.60277325309517], [-122.28547141878767, 44.60278028435239], [-122.2855077400962, 44.599188196125766], [-122.2855440844048, 44.59559608489913], [-122.28558042771373, 44.592004019672416], [-122.28561677202275, 44.58841193244574], [-122.2906428878084, 44.588412815948054], [-122.29566902759399, 44.5884137004504], [-122.2958748266261, 44.588413747429975], [-122.29776811192197, 44.588414096242516]]]}, "properties": {"title": "Lucky Strike", "description": "lode | serial OR106748110 | 20.66 ac | Active | qtr-sec OR 33 0110S 0040E 023 E NWNE | recorded~2025 (DB date, not legal located date) | src: BLM MLRS Not Closed | boundary approx (BLM quarter-section) | do not dig here (active claim)", "stroke": "#ff3300", "stroke-width": 2, "fill": "#ff3300", "fill-opacity": 0.05, "stroke-dasharray": "1,6"}}, {"type": "Feature", "geometry": {"type": "Polygon", "coordinates": [[[-122.32591668757667, 44.57943552589813], [-122.3259208782287, 44.57763673478616], [-122.32835090861026, 44.57764898154635], [-122.33078093999184, 44.57766122830648], [-122.33079606234296, 44.57946018241649], [-122.32835637495977, 44.579447854657325], [-122.32591668757667, 44.57943552589813]]]}, "properties": {"title": "QCPGP", "description": "placer | serial OR106753924 | 20.0 ac | Active | qtr-sec OR 33 0110S 0040E 028 S2NESE | recorded~2025 (DB date, not legal located date) | src: BLM MLRS Not Closed | boundary approx (BLM quarter-section) | do not dig here (active claim)", "stroke": "#ff3300", "stroke-width": 2, "fill": "#ff3300", "fill-opacity": 0.05, "stroke-dasharray": "1,6"}}, {"type": "Feature", "geometry": {"type": "Polygon", "coordinates": [[[-122.29048896726505, 44.606350346076795], [-122.29047630195888, 44.609933866300395], [-122.28544303817598, 44.60995358780043], [-122.28545721648176, 44.606366924576406], [-122.29048896726505, 44.606350346076795]]]}, "properties": {"title": "Norma jean", "description": "lode | serial OR106754707 | 15.15151515 ac | Active | qtr-sec OR 33 0110S 0040E 014 A NESE | recorded~2025 (DB date, not legal located date) | src: BLM MLRS Not Closed | boundary approx (BLM quarter-section) | do not dig here (active claim)", "stroke": "#ff3300", "stroke-width": 2, "fill": "#ff3300", "fill-opacity": 0.05, "stroke-dasharray": "1,6"}}, {"type": "Feature", "geometry": {"type": "Polygon", "coordinates": [[[-122.482630573924, 44.50685922490598], [-122.47762038417817, 44.50702292641136], [-122.47261019543224, 44.50718637891667], [-122.47259664275735, 44.50370079770293], [-122.4725830900827, 44.500215216489224], [-122.4741795463234, 44.50017849932918], [-122.47542753051151, 44.50014979620409], [-122.47739519180813, 44.500104542006795], [-122.48220729153337, 44.49999386652443], [-122.48241893322856, 44.503426558715226], [-122.482630573924, 44.50685922490598]]]}, "properties": {"title": "LOST MAN'S CANYON", "description": "lode | serial ORMC178111 | 20.66 ac | Active | qtr-sec OR 33 0120S 0030E 020 A SW | recorded~2021 (DB date, not legal located date) | src: BLM MLRS Not Closed | boundary approx (BLM quarter-section) | do not dig here (active claim)", "stroke": "#ff3300", "stroke-width": 2, "fill": "#ff3300", "fill-opacity": 0.05, "stroke-dasharray": "1,6"}}, {"type": "Feature", "geometry": {"type": "Polygon", "coordinates": [[[-122.30557609330677, 44.60987381780017], [-122.30556799199977, 44.61344795502248], [-122.3005331912177, 44.61347123852303], [-122.30054282952426, 44.609893981300274], [-122.30557609330677, 44.60987381780017]]]}, "properties": {"title": "Lumlandia2", "description": "lode | serial OR106793506 | 9.09090909 ac | Filed | qtr-sec OR 33 0110S 0040E 014 SWNW | recorded~2026 (DB date, not legal located date) | src: BLM MLRS Not Closed | boundary approx (BLM quarter-section) | do not dig here (active claim)", "stroke": "#ff3300", "stroke-width": 2, "fill": "#ff3300", "fill-opacity": 0.05, "stroke-dasharray": "1,6"}}, {"type": "Feature", "geometry": {"type": "Polygon", "coordinates": [[[-122.2906428878084, 44.588412815948054], [-122.29566902759399, 44.5884137004504], [-122.2958748266261, 44.588413747429975], [-122.29776811192197, 44.588414096242516], [-122.30069514337937, 44.58841458495268], [-122.30336764379696, 44.58841509668808], [-122.30572125916464, 44.588415492454985], [-122.30571134037676, 44.58951722352434], [-122.30568903585355, 44.59199300568018], [-122.30567495015498, 44.59355832577868], [-122.30566119044886, 44.59508399487466], [-122.30565681354258, 44.59557054190527], [-122.30562459023182, 44.59914805413034], [-122.30559234392119, 44.60272556735543], [-122.300562107138, 44.602739257854694], [-122.29553186935466, 44.6027529263539], [-122.29453605319958, 44.60275565045274], [-122.29139102270975, 44.6027641957649], [-122.2910804026614, 44.602765033795734], [-122.29050163257124, 44.60276659385317], [-122.28806324319144, 44.60277325309517], [-122.28547141878767, 44.60278028435239], [-122.2855077400962, 44.599188196125766], [-122.2855440844048, 44.59559608489913], [-122.28558042771373, 44.592004019672416], [-122.28561677202275, 44.58841193244574], [-122.2906428878084, 44.588412815948054]]]}, "properties": {"title": "Accident Mine 1", "description": "lode | serial OR105816556 | 20.66 ac | Active | qtr-sec OR 33 0110S 0040E 023 A SE|OR 33 0110S 0040E 023 A SESE|OR 33 0110S 0040E 023 A Government Lot 3|OR 33 0110S 0040E 023 A SE|OR 33 0110S 0040E 023 A SE|OR 33 0110S 0040E 023 A SE|OR 33 0110S 0040E 023 A NESE|OR 33 0110S 0040E 023 A SE|OR 33 0110S 0040E 023 A SE|OR 33 0110S 0040E 023 A SE|OR 33 0110S 0040E 023 A NWSE|OR 33 0110S 0040E 023 A NESE|OR 33 0110S 0040E 023 A NWSE | recorded~2023 (DB date, not legal located date) | src: BLM MLRS Not Closed | boundary approx (BLM quarter-section) | do not dig here (active claim)", "stroke": "#ff3300", "stroke-width": 2, "fill": "#ff3300", "fill-opacity": 0.05, "stroke-dasharray": "1,6"}}, {"type": "Feature", "geometry": {"type": "Point", "coordinates": [-122.30587558316483, 44.587623568903346]}, "properties": {"title": "Pit - Quartzville", "description": "10 source record(s) merged within 75m | src: MILO, USMIN", "marker-color": "#000000", "marker-symbol": "circle"}}, {"type": "Feature", "geometry": {"type": "Point", "coordinates": [-122.3105445683002, 44.58270479463878]}, "properties": {"title": "Pit - Quartzville", "description": "4 source record(s) merged within 75m | src: MILO, USMIN", "marker-color": "#000000", "marker-symbol": "circle"}}, {"type": "Feature", "geometry": {"type": "Point", "coordinates": [-122.29175684143178, 44.57258051371252]}, "properties": {"title": "Pit - Quartzville", "description": "2 source record(s) merged within 75m | src: MILO, USMIN", "marker-color": "#000000", "marker-symbol": "circle"}}, {"type": "Feature", "geometry": {"type": "Point", "coordinates": [-122.30135376446786, 44.59973833127964]}, "properties": {"title": "Pit - Quartzville", "description": "3 source record(s) merged within 75m | src: MILO, USMIN", "marker-color": "#000000", "marker-symbol": "circle"}}, {"type": "Feature", "geometry": {"type": "Point", "coordinates": [-122.31454234440545, 44.60152634565108]}, "properties": {"title": "Pit - Quartzville", "description": "4 source record(s) merged within 75m | src: MILO, USMIN", "marker-color": "#000000", "marker-symbol": "circle"}}, {"type": "Feature", "geometry": {"type": "Point", "coordinates": [-122.31831904409506, 44.607702723647364]}, "properties": {"title": "Pit - Quartzville", "description": "2 source record(s) merged within 75m | src: MILO, USMIN", "marker-color": "#000000", "marker-symbol": "circle"}}, {"type": "Feature", "geometry": {"type": "Point", "coordinates": [-122.25808271510601, 44.54663667990195]}, "properties": {"title": "Pit - Quartzville", "description": "2 source record(s) merged within 75m | src: MILO, USMIN", "marker-color": "#000000", "marker-symbol": "circle"}}, {"type": "Feature", "geometry": {"type": "Point", "coordinates": [-122.29233665168442, 44.604875532952704]}, "properties": {"title": "Adit - Quartzville", "description": "7 source record(s) merged within 75m | src: MILO, USMIN", "marker-color": "#000000", "marker-symbol": "circle"}}, {"type": "Feature", "geometry": {"type": "Point", "coordinates": [-122.30919604738885, 44.58959100841232]}, "properties": {"title": "Pit - Quartzville", "description": "3 source record(s) merged within 75m | src: MILO, USMIN", "marker-color": "#000000", "marker-symbol": "circle"}}, {"type": "Feature", "geometry": {"type": "Point", "coordinates": [-122.30978792583792, 44.60115812310521]}, "properties": {"title": "Pit - Quartzville", "description": "2 source record(s) merged within 75m | src: MILO, USMIN", "marker-color": "#000000", "marker-symbol": "circle"}}, {"type": "Feature", "geometry": {"type": "Point", "coordinates": [-122.31156107109611, 44.58234490748551]}, "properties": {"title": "Pit - Quartzville", "description": "2 source record(s) merged within 75m | src: MILO, USMIN", "marker-color": "#000000", "marker-symbol": "circle"}}, {"type": "Feature", "geometry": {"type": "Point", "coordinates": [-122.30470698252559, 44.58806271467475]}, "properties": {"title": "Pit - Quartzville", "description": "4 source record(s) merged within 75m | src: MILO, USMIN", "marker-color": "#000000", "marker-symbol": "circle"}}, {"type": "Feature", "geometry": {"type": "Point", "coordinates": [-122.27508533186426, 44.54749018073807]}, "properties": {"title": "Pit - Quartzville", "description": "2 source record(s) merged within 75m | src: MILO, USMIN", "marker-color": "#000000", "marker-symbol": "circle"}}, {"type": "Feature", "geometry": {"type": "Point", "coordinates": [-122.31195827478409, 44.5931192913742]}, "properties": {"title": "Pit - Quartzville", "description": "3 source record(s) merged within 75m | src: MILO, USMIN", "marker-color": "#000000", "marker-symbol": "circle"}}, {"type": "Feature", "geometry": {"type": "Point", "coordinates": [-122.28149891252878, 44.56870106118601]}, "properties": {"title": "Pit - Quartzville", "description": "2 source record(s) merged within 75m | src: MILO, USMIN", "marker-color": "#000000", "marker-symbol": "circle"}}, {"type": "Feature", "geometry": {"type": "Point", "coordinates": [-122.3105408591612, 44.59914518773172]}, "properties": {"title": "Adit - Quartzville", "description": "7 source record(s) merged within 75m | src: MILO, USMIN", "marker-color": "#000000", "marker-symbol": "circle"}}, {"type": "Feature", "geometry": {"type": "Point", "coordinates": [-122.31591248652667, 44.60303100690197]}, "properties": {"title": "Adit - Quartzville", "description": "3 source record(s) merged within 75m | src: MILO, USMIN", "marker-color": "#000000", "marker-symbol": "circle"}}, {"type": "Feature", "geometry": {"type": "Point", "coordinates": [-122.30010714396073, 44.592816830371305]}, "properties": {"title": "Adit - Quartzville", "description": "2 source record(s) merged within 75m | src: MILO, USMIN", "marker-color": "#000000", "marker-symbol": "circle"}}, {"type": "Feature", "geometry": {"type": "Point", "coordinates": [-122.30123884151013, 44.59203478647989]}, "properties": {"title": "Adit - Quartzville", "description": "2 source record(s) merged within 75m | src: MILO, USMIN", "marker-color": "#000000", "marker-symbol": "circle"}}, {"type": "Feature", "geometry": {"type": "Point", "coordinates": [-122.301193, 44.594419]}, "properties": {"title": "Adit - Quartzville", "description": "1 source record(s) merged within 75m | src: USMIN", "marker-color": "#000000", "marker-symbol": "circle"}}, {"type": "Feature", "geometry": {"type": "Point", "coordinates": [-122.28585974453094, 44.55278543637741]}, "properties": {"title": "Adit - Quartzville", "description": "2 source record(s) merged within 75m | src: MILO, USMIN", "marker-color": "#000000", "marker-symbol": "circle"}}, {"type": "Feature", "geometry": {"type": "Point", "coordinates": [-122.32145005944139, 44.60370484371272]}, "properties": {"title": "Adit - Quartzville", "description": "5 source record(s) merged within 75m | src: MILO, USMIN", "marker-color": "#000000", "marker-symbol": "circle"}}, {"type": "Feature", "geometry": {"type": "Point", "coordinates": [-122.29987201311285, 44.593672116657764]}, "properties": {"title": "Adit - Quartzville", "description": "3 source record(s) merged within 75m | src: MILO, USMIN", "marker-color": "#000000", "marker-symbol": "circle"}}, {"type": "Feature", "geometry": {"type": "Point", "coordinates": [-122.29837234167542, 44.596821944308786]}, "properties": {"title": "Placer - Albany Group Tunnel No.3 (Doodlebug Claim)", "description": "4 source record(s) merged within 75m | src: MILO, MRDS, USMIN", "marker-color": "#000000", "marker-symbol": "circle"}}, {"type": "Feature", "geometry": {"type": "Point", "coordinates": [-122.298781, 44.589554500000006]}, "properties": {"title": "Adit - Quartzville", "description": "2 source record(s) merged within 75m | src: USMIN", "marker-color": "#000000", "marker-symbol": "circle"}}, {"type": "Feature", "geometry": {"type": "Point", "coordinates": [-122.31121676404227, 44.591534157033635]}, "properties": {"title": "Adit - Quartzville", "description": "2 source record(s) merged within 75m | src: MILO, USMIN", "marker-color": "#000000", "marker-symbol": "circle"}}, {"type": "Feature", "geometry": {"type": "Point", "coordinates": [-122.30124240585837, 44.589897375802565]}, "properties": {"title": "Adit - Quartzville", "description": "2 source record(s) merged within 75m | src: MILO, USMIN", "marker-color": "#000000", "marker-symbol": "circle"}}, {"type": "Feature", "geometry": {"type": "Point", "coordinates": [-122.31060768782132, 44.6000153097872]}, "properties": {"title": "Adit - Quartzville", "description": "10 source record(s) merged within 75m | src: MILO, USMIN", "marker-color": "#000000", "marker-symbol": "circle"}}, {"type": "Feature", "geometry": {"type": "Point", "coordinates": [-122.30301090599515, 44.59174245939118]}, "properties": {"title": "Adit - Quartzville", "description": "3 source record(s) merged within 75m | src: MILO, USMIN", "marker-color": "#000000", "marker-symbol": "circle"}}, {"type": "Feature", "geometry": {"type": "Point", "coordinates": [-122.30377, 44.592575]}, "properties": {"title": "Adit - Quartzville", "description": "1 source record(s) merged within 75m | src: USMIN", "marker-color": "#000000", "marker-symbol": "circle"}}, {"type": "Feature", "geometry": {"type": "Point", "coordinates": [-122.281814, 44.562098]}, "properties": {"title": "Adit - Quartzville", "description": "1 source record(s) merged within 75m | src: USMIN", "marker-color": "#000000", "marker-symbol": "circle"}}, {"type": "Feature", "geometry": {"type": "Point", "coordinates": [-122.31188635581363, 44.60081459786169]}, "properties": {"title": "Adit - Quartzville", "description": "6 source record(s) merged within 75m | src: MILO, USMIN", "marker-color": "#000000", "marker-symbol": "circle"}}, {"type": "Feature", "geometry": {"type": "Point", "coordinates": [-122.30910275326455, 44.581464962119206]}, "properties": {"title": "Adit - Quartzville", "description": "3 source record(s) merged within 75m | src: MILO, USMIN", "marker-color": "#000000", "marker-symbol": "circle"}}, {"type": "Feature", "geometry": {"type": "Point", "coordinates": [-122.3137275090144, 44.59879209471521]}, "properties": {"title": "Adit - Quartzville", "description": "2 source record(s) merged within 75m | src: MILO, USMIN", "marker-color": "#000000", "marker-symbol": "circle"}}, {"type": "Feature", "geometry": {"type": "Point", "coordinates": [-122.31715078999679, 44.605729353389364]}, "properties": {"title": "Mine - Wakefield Claim Tunnel 1 and Cut No.2", "description": "1 source record(s) merged within 75m | src: MILO", "marker-color": "#000000", "marker-symbol": "circle"}}, {"type": "Feature", "geometry": {"type": "Point", "coordinates": [-122.31509396567145, 44.60957279164245]}, "properties": {"title": "Mine - North Queen", "description": "1 source record(s) merged within 75m | src: MILO", "marker-color": "#000000", "marker-symbol": "circle"}}, {"type": "Feature", "geometry": {"type": "Point", "coordinates": [-122.29288754809106, 44.60263813609416]}, "properties": {"title": "Mine - Albany Group, Red Heifer No.2 (Abe Lincoln claim)", "description": "4 source record(s) merged within 75m | src: MILO", "marker-color": "#000000", "marker-symbol": "circle"}}, {"type": "Feature", "geometry": {"type": "Point", "coordinates": [-122.29866648985933, 44.604879289265554]}, "properties": {"title": "Mine - Hastings", "description": "2 source record(s) merged within 75m | src: MILO", "marker-color": "#000000", "marker-symbol": "circle"}}, {"type": "Feature", "geometry": {"type": "Point", "coordinates": [-122.26948206349135, 44.60610835598933]}, "properties": {"title": "Mine - Peak and Dwarf", "description": "3 source record(s) merged within 75m | src: MILO, MRDS", "marker-color": "#000000", "marker-symbol": "circle"}}, {"type": "Feature", "geometry": {"type": "Point", "coordinates": [-122.27481614953334, 44.60707536651349]}, "properties": {"title": "Mine - Hoot-En-Anne", "description": "1 source record(s) merged within 75m | src: MILO", "marker-color": "#000000", "marker-symbol": "circle"}}, {"type": "Feature", "geometry": {"type": "Point", "coordinates": [-122.36550260139047, 44.589105282036535]}, "properties": {"title": "Mine - Houf Property", "description": "1 source record(s) merged within 75m | src: MILO", "marker-color": "#000000", "marker-symbol": "circle"}}, {"type": "Feature", "geometry": {"type": "Point", "coordinates": [-122.33786762380933, 44.60122413767549]}, "properties": {"title": "Mine - gold mine", "description": "2 source record(s) merged within 75m | src: MILO, MRDS", "marker-color": "#000000", "marker-symbol": "circle"}}, {"type": "Feature", "geometry": {"type": "Point", "coordinates": [-122.30759276937076, 44.591518303967355]}, "properties": {"title": "Mine - Lawler", "description": "1 source record(s) merged within 75m | src: MILO", "marker-color": "#000000", "marker-symbol": "circle"}}, {"type": "Feature", "geometry": {"type": "Point", "coordinates": [-122.31539405711756, 44.598315423007506]}, "properties": {"title": "Mine - Quartzville", "description": "1 source record(s) merged within 75m | src: MILO", "marker-color": "#000000", "marker-symbol": "circle"}}, {"type": "Feature", "geometry": {"type": "Point", "coordinates": [-122.29890959939097, 44.601620682478696]}, "properties": {"title": "Mine - Skookum claim", "description": "1 source record(s) merged within 75m | src: MILO", "marker-color": "#000000", "marker-symbol": "circle"}}, {"type": "Feature", "geometry": {"type": "Point", "coordinates": [-122.30396226240794, 44.59696443509694]}, "properties": {"title": "Mine - Bic Mac", "description": "2 source record(s) merged within 75m | src: MILO, MRDS", "marker-color": "#000000", "marker-symbol": "circle"}}, {"type": "Feature", "geometry": {"type": "Point", "coordinates": [-122.30215579490574, 44.59882786355478]}, "properties": {"title": "Mine - Doodlebug", "description": "3 source record(s) merged within 75m | src: MILO, MRDS", "marker-color": "#000000", "marker-symbol": "circle"}}, {"type": "Feature", "geometry": {"type": "Point", "coordinates": [-122.30175655989001, 44.60123788112083]}, "properties": {"title": "Mine - Munro", "description": "1 source record(s) merged within 75m | src: MILO", "marker-color": "#000000", "marker-symbol": "circle"}}, {"type": "Feature", "geometry": {"type": "Point", "coordinates": [-122.29694523284002, 44.59671771326991]}, "properties": {"title": "Mine - Albany (Mountain Queen Claim)", "description": "1 source record(s) merged within 75m | src: MILO", "marker-color": "#000000", "marker-symbol": "circle"}}, {"type": "Feature", "geometry": {"type": "Point", "coordinates": [-122.29564458807205, 44.60040643203779]}, "properties": {"title": "Mine - Albany Group, Marion (Morning Star claim)", "description": "1 source record(s) merged within 75m | src: MILO", "marker-color": "#000000", "marker-symbol": "circle"}}, {"type": "Feature", "geometry": {"type": "Point", "coordinates": [-122.299579257524, 44.58997604468249]}, "properties": {"title": "Mine - Worlds Fair claim Disc. Cut No.1/Tunnel No.2", "description": "1 source record(s) merged within 75m | src: MILO", "marker-color": "#000000", "marker-symbol": "circle"}}, {"type": "Feature", "geometry": {"type": "Point", "coordinates": [-122.29043031937599, 44.58851209389295]}, "properties": {"title": "Mine - Accident", "description": "2 source record(s) merged within 75m | src: MILO", "marker-color": "#000000", "marker-symbol": "circle"}}, {"type": "Feature", "geometry": {"type": "Point", "coordinates": [-122.30808034302039, 44.57863099897625]}, "properties": {"title": "Mine - Riverside Claim (Riverside Group), discovery cut", "description": "1 source record(s) merged within 75m | src: MILO", "marker-color": "#000000", "marker-symbol": "circle"}}, {"type": "Feature", "geometry": {"type": "Point", "coordinates": [-122.30340470207045, 44.57882114125398]}, "properties": {"title": "Mine - Relief Property", "description": "2 source record(s) merged within 75m | src: MILO", "marker-color": "#000000", "marker-symbol": "circle"}}, {"type": "Feature", "geometry": {"type": "Point", "coordinates": [-122.30582549105459, 44.582461126397206]}, "properties": {"title": "Mine - Highland Chief", "description": "1 source record(s) merged within 75m | src: MILO", "marker-color": "#000000", "marker-symbol": "circle"}}, {"type": "Feature", "geometry": {"type": "Point", "coordinates": [-122.30904885301037, 44.56495837423509]}, "properties": {"title": "Mine - Savage Group", "description": "1 source record(s) merged within 75m | src: MILO", "marker-color": "#000000", "marker-symbol": "circle"}}, {"type": "Feature", "geometry": {"type": "Point", "coordinates": [-122.2939643374208, 44.57562219453487]}, "properties": {"title": "Mine - Winter claim", "description": "1 source record(s) merged within 75m | src: MILO", "marker-color": "#000000", "marker-symbol": "circle"}}, {"type": "Feature", "geometry": {"type": "Point", "coordinates": [-122.30483795342592, 44.56741323156138]}, "properties": {"title": "Mine - Columbia", "description": "1 source record(s) merged within 75m | src: MILO", "marker-color": "#000000", "marker-symbol": "circle"}}, {"type": "Feature", "geometry": {"type": "Point", "coordinates": [-122.27590996582218, 44.55485597253256]}, "properties": {"title": "Placer - Forty-Four Mines", "description": "2 source record(s) merged within 75m | src: MILO", "marker-color": "#000000", "marker-symbol": "circle"}}, {"type": "Feature", "geometry": {"type": "Point", "coordinates": [-122.28322664469316, 44.54784897609222]}, "properties": {"title": "Mine - Paymaster claim", "description": "1 source record(s) merged within 75m | src: MILO", "marker-color": "#000000", "marker-symbol": "circle"}}, {"type": "Feature", "geometry": {"type": "Point", "coordinates": [-122.29912379526594, 44.54202528444121]}, "properties": {"title": "Mine - Galena", "description": "1 source record(s) merged within 75m | src: MILO", "marker-color": "#000000", "marker-symbol": "circle"}}, {"type": "Feature", "geometry": {"type": "Point", "coordinates": [-122.31413977909705, 44.60418212964029]}, "properties": {"title": "Mine - Wakefield Claim Disc. cut and tunnel No.1", "description": "1 source record(s) merged within 75m | src: MILO", "marker-color": "#000000", "marker-symbol": "circle"}}, {"type": "Feature", "geometry": {"type": "Point", "coordinates": [-122.31245419951242, 44.59973537665702]}, "properties": {"title": "Mine - Lucille (Bell Claim) discovery cut", "description": "2 source record(s) merged within 75m | src: MILO", "marker-color": "#000000", "marker-symbol": "circle"}}, {"type": "Feature", "geometry": {"type": "Point", "coordinates": [-122.16675858512005, 44.58596384892761]}, "properties": {"title": "Mine - gold mine", "description": "1 source record(s) merged within 75m | src: MILO", "marker-color": "#000000", "marker-symbol": "circle"}}, {"type": "Feature", "geometry": {"type": "Point", "coordinates": [-122.29637569204151, 44.59487477589074]}, "properties": {"title": "Placer - Albany Group, Bonanza Claim (Tunnel No 2)", "description": "4 source record(s) merged within 75m | src: MILO", "marker-color": "#000000", "marker-symbol": "circle"}}, {"type": "Feature", "geometry": {"type": "Point", "coordinates": [-122.29190058815716, 44.60202663224491]}, "properties": {"title": "Mine - Albany Group, Red Heifer No.1 (Abe Lincoln claim)", "description": "3 source record(s) merged within 75m | src: MILO", "marker-color": "#000000", "marker-symbol": "circle"}}, {"type": "Feature", "geometry": {"type": "Point", "coordinates": [-122.31909758425493, 44.602882674371564]}, "properties": {"title": "Mine - Martha Claim prospect", "description": "1 source record(s) merged within 75m | src: MILO", "marker-color": "#000000", "marker-symbol": "circle"}}, {"type": "Feature", "geometry": {"type": "Point", "coordinates": [-122.29310215496467, 44.60447406611919]}, "properties": {"title": "Mine - Betty Claim large open cut (Bob and Betty)", "description": "1 source record(s) merged within 75m | src: MILO", "marker-color": "#000000", "marker-symbol": "circle"}}, {"type": "Feature", "geometry": {"type": "Point", "coordinates": [-122.30587147744804, 44.59331543801512]}, "properties": {"title": "Mine - Elk Tunnel", "description": "1 source record(s) merged within 75m | src: MILO", "marker-color": "#000000", "marker-symbol": "circle"}}, {"type": "Feature", "geometry": {"type": "Point", "coordinates": [-122.31027672651942, 44.59076765439348]}, "properties": {"title": "Mine - Lawler Consolidated Group, Red Bull (Tunnel No.2)", "description": "1 source record(s) merged within 75m | src: MILO", "marker-color": "#000000", "marker-symbol": "circle"}}, {"type": "Feature", "geometry": {"type": "Point", "coordinates": [-122.30671647685142, 44.5871373219844]}, "properties": {"title": "Mine - Lawler Consolidated Group, Red Blair Claim tunnel 1", "description": "2 source record(s) merged within 75m | src: MILO", "marker-color": "#000000", "marker-symbol": "circle"}}, {"type": "Feature", "geometry": {"type": "Point", "coordinates": [-122.30495521072093, 44.58533616730761]}, "properties": {"title": "Mine - Lawler Consolidated Group, Gold Finch Claim prospect", "description": "1 source record(s) merged within 75m | src: MILO", "marker-color": "#000000", "marker-symbol": "circle"}}, {"type": "Feature", "geometry": {"type": "Point", "coordinates": [-122.30412008119941, 44.58695719067944]}, "properties": {"title": "Mine - Lawler Consolidated Group, Gold Bug old tunnel", "description": "1 source record(s) merged within 75m | src: MILO", "marker-color": "#000000", "marker-symbol": "circle"}}, {"type": "Feature", "geometry": {"type": "Point", "coordinates": [-122.29929044646593, 44.592095758462804]}, "properties": {"title": "Mine - Worlds Fair Group, Free Gold Claim 2 (tunnel No.3)", "description": "2 source record(s) merged within 75m | src: MILO", "marker-color": "#000000", "marker-symbol": "circle"}}, {"type": "Feature", "geometry": {"type": "Point", "coordinates": [-122.3189048450944, 44.60440292562121]}, "properties": {"title": "Mine - Ruth Claim tunnel 1", "description": "8 source record(s) merged within 75m | src: MILO", "marker-color": "#000000", "marker-symbol": "circle"}}, {"type": "Feature", "geometry": {"type": "Point", "coordinates": [-122.31440733974601, 44.60296322915468]}, "properties": {"title": "Mine - Ruth Claim tunnel 2", "description": "3 source record(s) merged within 75m | src: MILO", "marker-color": "#000000", "marker-symbol": "circle"}}, {"type": "Feature", "geometry": {"type": "Point", "coordinates": [-122.31469126967711, 44.60226159138311]}, "properties": {"title": "Mine - Ruth Claim discovery cut", "description": "1 source record(s) merged within 75m | src: MILO", "marker-color": "#000000", "marker-symbol": "circle"}}, {"type": "Feature", "geometry": {"type": "Point", "coordinates": [-122.32002317108461, 44.60383335500823]}, "properties": {"title": "Mine - Martha Claim cut 3", "description": "1 source record(s) merged within 75m | src: MILO", "marker-color": "#000000", "marker-symbol": "circle"}}, {"type": "Feature", "geometry": {"type": "Point", "coordinates": [-122.32399015513802, 44.60466325642623]}, "properties": {"title": "Mine - Martha Claim cut 4", "description": "1 source record(s) merged within 75m | src: MILO", "marker-color": "#000000", "marker-symbol": "circle"}}, {"type": "Feature", "geometry": {"type": "Point", "coordinates": [-122.32258580400182, 44.603035234616506]}, "properties": {"title": "Mine - Pine Squirl Claim, discovery cut", "description": "1 source record(s) merged within 75m | src: MILO", "marker-color": "#000000", "marker-symbol": "circle"}}, {"type": "Feature", "geometry": {"type": "Point", "coordinates": [-122.29245575901166, 44.59741432545891]}, "properties": {"title": "Mine - Albany Group Marion (Morning Star claim), Tunnel No.2", "description": "2 source record(s) merged within 75m | src: MILO", "marker-color": "#000000", "marker-symbol": "circle"}}, {"type": "Feature", "geometry": {"type": "Point", "coordinates": [-122.29402932477781, 44.59948360165164]}, "properties": {"title": "Mine - Albany Group (Morning Star claim), Cut No.2", "description": "1 source record(s) merged within 75m | src: MILO", "marker-color": "#000000", "marker-symbol": "circle"}}, {"type": "Feature", "geometry": {"type": "Point", "coordinates": [-122.29231141074534, 44.59983675505199]}, "properties": {"title": "Mine - Albany Group (Abe Lincoln Claim), Cut No.5", "description": "3 source record(s) merged within 75m | src: MILO", "marker-color": "#000000", "marker-symbol": "circle"}}, {"type": "Feature", "geometry": {"type": "Point", "coordinates": [-122.29522863914055, 44.599017040434326]}, "properties": {"title": "Mine - Albany Group (Morning Star claim), Tunnel No.2", "description": "1 source record(s) merged within 75m | src: MILO", "marker-color": "#000000", "marker-symbol": "circle"}}, {"type": "Feature", "geometry": {"type": "Point", "coordinates": [-122.29703512477592, 44.59812827875677]}, "properties": {"title": "Mine - Albany Group (Queen of the Gulch Claim), Disc Cut No.1", "description": "1 source record(s) merged within 75m | src: MILO", "marker-color": "#000000", "marker-symbol": "circle"}}, {"type": "Feature", "geometry": {"type": "Point", "coordinates": [-122.2978756057674, 44.59754045617718]}, "properties": {"title": "Mine - Albany Group (Mountain King Claim), Disc Cut and Tunnel No.1", "description": "1 source record(s) merged within 75m | src: MILO", "marker-color": "#000000", "marker-symbol": "circle"}}, {"type": "Feature", "geometry": {"type": "Point", "coordinates": [-122.29569713534235, 44.596133372423026]}, "properties": {"title": "Mine - Albany (Mountain Queen Claim), Tunnel and Shaft No.2", "description": "1 source record(s) merged within 75m | src: MILO", "marker-color": "#000000", "marker-symbol": "circle"}}, {"type": "Feature", "geometry": {"type": "Point", "coordinates": [-122.29426082172195, 44.595634734997866]}, "properties": {"title": "Mine - Albany (Mountain Queen Claim), Disc Cut No.1", "description": "1 source record(s) merged within 75m | src: MILO", "marker-color": "#000000", "marker-symbol": "circle"}}, {"type": "Feature", "geometry": {"type": "Point", "coordinates": [-122.29250081182558, 44.59455216475669]}, "properties": {"title": "Mine - Albany (Murray Claim), Disc Cut No.1", "description": "1 source record(s) merged within 75m | src: MILO", "marker-color": "#000000", "marker-symbol": "circle"}}, {"type": "Feature", "geometry": {"type": "Point", "coordinates": [-122.29145689348029, 44.603945156396634]}, "properties": {"title": "Mine - Bob Claim discovery cut (Bob and Betty)", "description": "2 source record(s) merged within 75m | src: MILO", "marker-color": "#000000", "marker-symbol": "circle"}}, {"type": "Feature", "geometry": {"type": "Point", "coordinates": [-122.2899431183702, 44.603016518341086]}, "properties": {"title": "Mine - Bob Claim cut (Bob and Betty)", "description": "1 source record(s) merged within 75m | src: MILO", "marker-color": "#000000", "marker-symbol": "circle"}}, {"type": "Feature", "geometry": {"type": "Point", "coordinates": [-122.30084004292496, 44.59370677287064]}, "properties": {"title": "Mine - Tillicum claim tunnel 3", "description": "1 source record(s) merged within 75m | src: MILO", "marker-color": "#000000", "marker-symbol": "circle"}}, {"type": "Feature", "geometry": {"type": "Point", "coordinates": [-122.3206139764471, 44.608124987679766]}, "properties": {"title": "Mine - Mother Lode Claim Tunnel No.2/Disc. Cut No.1", "description": "1 source record(s) merged within 75m | src: MILO", "marker-color": "#000000", "marker-symbol": "circle"}}, {"type": "Feature", "geometry": {"type": "Point", "coordinates": [-122.31984840989941, 44.59466587460463]}, "properties": {"title": "Mine - unnamed or NA", "description": "2 source record(s) merged within 75m | src: MILO", "marker-color": "#000000", "marker-symbol": "circle"}}, {"type": "Feature", "geometry": {"type": "Point", "coordinates": [-122.32164749987341, 44.59759829438059]}, "properties": {"title": "Mine - unnamed or NA", "description": "3 source record(s) merged within 75m | src: MILO", "marker-color": "#000000", "marker-symbol": "circle"}}, {"type": "Feature", "geometry": {"type": "Point", "coordinates": [-122.32469853759324, 44.59700557298825]}, "properties": {"title": "Mine - unnamed or NA", "description": "1 source record(s) merged within 75m | src: MILO", "marker-color": "#000000", "marker-symbol": "circle"}}, {"type": "Feature", "geometry": {"type": "Point", "coordinates": [-122.3192735884159, 44.60020974816574]}, "properties": {"title": "Mine - unnamed or NA", "description": "1 source record(s) merged within 75m | src: MILO", "marker-color": "#000000", "marker-symbol": "circle"}}, {"type": "Feature", "geometry": {"type": "Point", "coordinates": [-122.3168362018501, 44.59164178502682]}, "properties": {"title": "Mine - Lawler Consolidated Placer, Bed Rock Placer (prospect?)", "description": "1 source record(s) merged within 75m | src: MILO", "marker-color": "#000000", "marker-symbol": "circle"}}, {"type": "Feature", "geometry": {"type": "Point", "coordinates": [-122.3206590276656, 44.592903323022426]}, "properties": {"title": "Mine - Lawler Consolidated Placer, Bed Rock Placer (prospect?)", "description": "1 source record(s) merged within 75m | src: MILO", "marker-color": "#000000", "marker-symbol": "circle"}}, {"type": "Feature", "geometry": {"type": "Point", "coordinates": [-122.2911482840542, 44.59371095048235]}, "properties": {"title": "Mine - Albany (Murray Claim) cut or tunnel", "description": "1 source record(s) merged within 75m | src: MILO", "marker-color": "#000000", "marker-symbol": "circle"}}, {"type": "Feature", "geometry": {"type": "Point", "coordinates": [-122.28915265733407, 44.59604788561266]}, "properties": {"title": "Mine - unnamed or NA", "description": "1 source record(s) merged within 75m | src: MILO", "marker-color": "#000000", "marker-symbol": "circle"}}, {"type": "Feature", "geometry": {"type": "Point", "coordinates": [-122.29503042032671, 44.59071564947131]}, "properties": {"title": "Mine - unnamed or NA", "description": "1 source record(s) merged within 75m | src: MILO", "marker-color": "#000000", "marker-symbol": "circle"}}, {"type": "Feature", "geometry": {"type": "Point", "coordinates": [-122.29372242533005, 44.58728208517846]}, "properties": {"title": "Mine - unnamed or NA", "description": "3 source record(s) merged within 75m | src: MILO", "marker-color": "#000000", "marker-symbol": "circle"}}, {"type": "Feature", "geometry": {"type": "Point", "coordinates": [-122.30129066508539, 44.58168606679577]}, "properties": {"title": "Mine - unnamed or NA", "description": "1 source record(s) merged within 75m | src: MILO", "marker-color": "#000000", "marker-symbol": "circle"}}, {"type": "Feature", "geometry": {"type": "Point", "coordinates": [-122.32139224806997, 44.598271706876716]}, "properties": {"title": "Mine - unnamed or NA", "description": "1 source record(s) merged within 75m | src: MILO", "marker-color": "#000000", "marker-symbol": "circle"}}, {"type": "Feature", "geometry": {"type": "Point", "coordinates": [-122.32645388746782, 44.597501740902516]}, "properties": {"title": "Mine - unnamed or NA", "description": "2 source record(s) merged within 75m | src: MILO", "marker-color": "#000000", "marker-symbol": "circle"}}, {"type": "Feature", "geometry": {"type": "Point", "coordinates": [-122.3242123165022, 44.602382512206354]}, "properties": {"title": "Mine - prospect", "description": "1 source record(s) merged within 75m | src: MILO", "marker-color": "#000000", "marker-symbol": "circle"}}, {"type": "Feature", "geometry": {"type": "Point", "coordinates": [-122.32271111337134, 44.60155235940894]}, "properties": {"title": "Mine - unnamed or NA", "description": "1 source record(s) merged within 75m | src: MILO", "marker-color": "#000000", "marker-symbol": "circle"}}, {"type": "Feature", "geometry": {"type": "Point", "coordinates": [-122.30107011881123, 44.5980632479567]}, "properties": {"title": "Mine - unnamed or NA", "description": "2 source record(s) merged within 75m | src: MILO", "marker-color": "#000000", "marker-symbol": "circle"}}, {"type": "Feature", "geometry": {"type": "Point", "coordinates": [-122.30121158058421, 44.59876135907094]}, "properties": {"title": "Mine - unnamed or NA", "description": "1 source record(s) merged within 75m | src: MILO", "marker-color": "#000000", "marker-symbol": "circle"}}, {"type": "Feature", "geometry": {"type": "Point", "coordinates": [-122.30490638953223, 44.59472174027777]}, "properties": {"title": "Mine - unnamed or NA", "description": "1 source record(s) merged within 75m | src: MILO", "marker-color": "#000000", "marker-symbol": "circle"}}, {"type": "Feature", "geometry": {"type": "Point", "coordinates": [-122.29665081327383, 44.604861774222705]}, "properties": {"title": "Mine - unnamed or NA", "description": "1 source record(s) merged within 75m | src: MILO", "marker-color": "#000000", "marker-symbol": "circle"}}, {"type": "Feature", "geometry": {"type": "Point", "coordinates": [-122.28274776561267, 44.602927317440546]}, "properties": {"title": "Mine - unnamed or NA", "description": "1 source record(s) merged within 75m | src: MILO", "marker-color": "#000000", "marker-symbol": "circle"}}, {"type": "Feature", "geometry": {"type": "Point", "coordinates": [-122.28334106513903, 44.55941817260298]}, "properties": {"title": "Mine - prospect", "description": "5 source record(s) merged within 75m | src: MILO", "marker-color": "#000000", "marker-symbol": "circle"}}, {"type": "Feature", "geometry": {"type": "Point", "coordinates": [-122.27924541193411, 44.56193787662931]}, "properties": {"title": "Mine - prospect", "description": "1 source record(s) merged within 75m | src: MILO", "marker-color": "#000000", "marker-symbol": "circle"}}, {"type": "Feature", "geometry": {"type": "Point", "coordinates": [-122.29699949317299, 44.57499513071496]}, "properties": {"title": "Mine - prospect", "description": "1 source record(s) merged within 75m | src: MILO", "marker-color": "#000000", "marker-symbol": "circle"}}, {"type": "Feature", "geometry": {"type": "Point", "coordinates": [-122.37057999999999, 44.588705000000004]}, "properties": {"title": "Mine - Houf Property", "description": "2 source record(s) merged within 75m | src: MRDS", "marker-color": "#000000", "marker-symbol": "circle"}}, {"type": "Feature", "geometry": {"type": "Point", "coordinates": [-122.31755, 44.60504]}, "properties": {"title": "Pit - Quartzville", "description": "1 source record(s) merged within 75m | src: USMIN", "marker-color": "#000000", "marker-symbol": "circle"}}, {"type": "Feature", "geometry": {"type": "Point", "coordinates": [-122.318191, 44.603182]}, "properties": {"title": "Pit - Quartzville", "description": "1 source record(s) merged within 75m | src: USMIN", "marker-color": "#000000", "marker-symbol": "circle"}}, {"type": "Feature", "geometry": {"type": "Point", "coordinates": [-122.314437, 44.605113]}, "properties": {"title": "Pit - Quartzville", "description": "1 source record(s) merged within 75m | src: USMIN", "marker-color": "#000000", "marker-symbol": "circle"}}, {"type": "Feature", "geometry": {"type": "Point", "coordinates": [-122.296906, 44.595588]}, "properties": {"title": "Pit - Quartzville", "description": "1 source record(s) merged within 75m | src: USMIN", "marker-color": "#000000", "marker-symbol": "circle"}}, {"type": "Feature", "geometry": {"type": "Point", "coordinates": [-122.27590996582218, 44.55485597253256]}, "properties": {"title": "SCOUT 1 - Placer bench", "description": "Forty-Four Mines (placer (heuristic: surface workings)) | agency: USFS | 88m to stream | cluster: 1 nearby | src: MILO", "marker-color": "#ff3300", "marker-symbol": "circle"}}, {"type": "Feature", "geometry": {"type": "Point", "coordinates": [-122.281814, 44.562098]}, "properties": {"title": "SCOUT 2 - Lode/unknown outcrop", "description": "USMIN Adit | agency: USFS | 117m to stream | cluster: 2 nearby | src: USMIN", "marker-color": "#ff3300", "marker-symbol": "circle"}}, {"type": "Feature", "geometry": {"type": "Point", "coordinates": [-122.275014, 44.54771]}, "properties": {"title": "SCOUT 3 - Placer bench", "description": "USMIN Prospect Pit | agency: USFS | 6m to stream | cluster: 1 nearby | src: USMIN", "marker-color": "#ff3300", "marker-symbol": "circle"}}, {"type": "Feature", "geometry": {"type": "Point", "coordinates": [-122.29176, 44.572628]}, "properties": {"title": "SCOUT 4 - Placer bench", "description": "USMIN Prospect Pit | agency: USFS | 14m to stream | cluster: 1 nearby | src: USMIN", "marker-color": "#ff3300", "marker-symbol": "circle"}}, {"type": "Feature", "geometry": {"type": "Point", "coordinates": [-122.258089, 44.546626]}, "properties": {"title": "SCOUT 5 - Placer bench", "description": "USMIN Prospect Pit | agency: USFS | 48m to stream | cluster: 1 nearby | src: USMIN", "marker-color": "#ff3300", "marker-symbol": "circle"}}, {"type": "Feature", "geometry": {"type": "Point", "coordinates": [-122.311554, 44.582342]}, "properties": {"title": "SCOUT 6 - Placer bench", "description": "USMIN Prospect Pit | agency: USFS | 107m to stream | cluster: 1 nearby | src: USMIN", "marker-color": "#ff3300", "marker-symbol": "circle"}}, {"type": "Feature", "geometry": {"type": "Point", "coordinates": [-122.32156913592453, 44.59715051387162]}, "properties": {"title": "SCOUT 7 - Lode/unknown outcrop", "description": "unnamed or NA (unknown) | agency: USFS | 51m to stream | cluster: 6 nearby | src: MILO", "marker-color": "#ff3300", "marker-symbol": "circle"}}, {"type": "Feature", "geometry": {"type": "Point", "coordinates": [-122.3192735884159, 44.60020974816574]}, "properties": {"title": "SCOUT 8 - Lode/unknown outcrop", "description": "unnamed or NA (unknown) | agency: USFS | 54m to stream | cluster: 4 nearby | src: MILO", "marker-color": "#ff3300", "marker-symbol": "circle"}}, {"type": "Feature", "geometry": {"type": "Point", "coordinates": [-122.32469853759324, 44.59700557298825]}, "properties": {"title": "SCOUT 9 - Lode/unknown outcrop", "description": "unnamed or NA (unknown) | agency: USFS | 136m to stream | cluster: 4 nearby | src: MILO", "marker-color": "#ff3300", "marker-symbol": "circle"}}, {"type": "Feature", "geometry": {"type": "Point", "coordinates": [-122.29075273779513, 44.58838749139097]}, "properties": {"title": "SCOUT 10 - Lode/unknown outcrop", "description": "Accident (lode) | agency: USFS | 12m to stream | cluster: 3 nearby | NEAR ACTIVE CLAIM (<50m, approx) | src: MILO", "marker-color": "#ff3300", "marker-symbol": "circle"}}]}