<?xml version="1.0" encoding="UTF-8"?>
<gpx xmlns:xsi="http://www.w3.org/2001/XMLSchema-instance" xmlns="http://www.topografix.com/GPX/1/1" xmlns:onx="http://www.onxmaps.com" xsi:schemaLocation="http://www.topografix.com/GPX/1/1 http://www.topografix.com/GPX/1/1/gpx.xsd" version="1.1" creator="onXmaps hunt ios"><wpt lat="44.599136" lon="-122.299359"><name>WVM 1B Dry Gulch</name><desc>club: Willamette Valley Miners (WVM) | serial: ORMC171094 | acres: 18.0 | directions: not available (no club handbook source in this build) | boundary approx (BLM quarter-section)</desc><extensions><onx:icon>Mineral Site</onx:icon><onx:color>rgba(255, 255, 0, 1)</onx:color></extensions></wpt><wpt lat="44.577630" lon="-122.315850"><name>Cedar Bend Placer</name><desc>club: Willamette Valley Miners (WVM) | serial: ORMC30445 | acres: 18.18 | directions: not available (no club handbook source in this build) | boundary approx (BLM quarter-section)</desc><extensions><onx:icon>Mineral Site</onx:icon><onx:color>rgba(255, 255, 0, 1)</onx:color></extensions></wpt><rte><name>WVM 1B Dry Gulch</name><type>Area</type><extensions><onx:style>solid</onx:style><onx:weight>4.0</onx:weight><onx:color>rgba(255, 255, 0, 1)</onx:color></extensions><rtept lat="44.602726" lon="-122.305592"></rtept><rtept lat="44.602739" lon="-122.300562"></rtept><rtept lat="44.602753" lon="-122.295532"></rtept><rtept lat="44.601909" lon="-122.295540"></rtept><rtept lat="44.602666" lon="-122.295408"></rtept><rtept lat="44.602599" lon="-122.294327"></rtept><rtept lat="44.601825" lon="-122.293290"></rtept><rtept lat="44.599172" lon="-122.293637"></rtept><rtept lat="44.597099" lon="-122.290557"></rtept><rtept lat="44.596056" lon="-122.290568"></rtept><rtept lat="44.595589" lon="-122.291179"></rtept><rtept lat="44.595589" lon="-122.291400"></rtept><rtept lat="44.598329" lon="-122.295383"></rtept><rtept lat="44.598509" lon="-122.295147"></rtept><rtept lat="44.598543" lon="-122.295572"></rtept><rtept lat="44.596874" lon="-122.295588"></rtept><rtept lat="44.595584" lon="-122.295600"></rtept><rtept lat="44.595578" lon="-122.300055"></rtept><rtept lat="44.595578" lon="-122.300400"></rtept><rtept lat="44.595577" lon="-122.300629"></rtept><rtept lat="44.595577" lon="-122.300880"></rtept><rtept lat="44.595571" lon="-122.305657"></rtept><rtept lat="44.599148" lon="-122.305625"></rtept><rtept lat="44.602726" lon="-122.305592"></rtept></rte><rte><name>Cedar Bend Placer</name><type>Area</type><extensions><onx:style>solid</onx:style><onx:weight>4.0</onx:weight><onx:color>rgba(255, 255, 0, 1)</onx:color></extensions><rtept lat="44.581224" lon="-122.312123"></rtept><rtept lat="44.581223" lon="-122.310799"></rtept><rtept lat="44.581223" lon="-122.310589"></rtept><rtept lat="44.581221" lon="-122.307957"></rtept><rtept lat="44.581219" lon="-122.305760"></rtept><rtept lat="44.577621" lon="-122.305780"></rtept><rtept lat="44.576414" lon="-122.305786"></rtept><rtept lat="44.575562" lon="-122.305791"></rtept><rtept lat="44.574023" lon="-122.305799"></rtept><rtept lat="44.574027" lon="-122.310832"></rtept><rtept lat="44.574031" lon="-122.315864"></rtept><rtept lat="44.574035" lon="-122.320897"></rtept><rtept lat="44.574039" lon="-122.325929"></rtept><rtept lat="44.577637" lon="-122.325921"></rtept><rtept lat="44.581234" lon="-122.325912"></rtept><rtept lat="44.581231" lon="-122.320875"></rtept><rtept lat="44.581227" lon="-122.315838"></rtept><rtept lat="44.581224" lon="-122.312123"></rtept></rte></gpx>