<?xml version="1.0" encoding="UTF-8"?>
<gpx xmlns:xsi="http://www.w3.org/2001/XMLSchema-instance" xmlns="http://www.topografix.com/GPX/1/1" xmlns:onx="http://www.onxmaps.com" xsi:schemaLocation="http://www.topografix.com/GPX/1/1 http://www.topografix.com/GPX/1/1/gpx.xsd" version="1.1" creator="onXmaps hunt ios"><wpt lat="44.554856" lon="-122.275910"><name>SCOUT 1 - Placer bench</name><desc>Forty-Four Mines (placer (heuristic: surface workings)) | agency: USFS | 88m to stream | cluster: 1 nearby | src: MILO</desc><extensions><onx:icon>Location</onx:icon><onx:color>rgba(255, 51, 0, 1)</onx:color></extensions></wpt><wpt lat="44.562098" lon="-122.281814"><name>SCOUT 2 - Lode/unknown outcrop</name><desc>USMIN Adit | agency: USFS | 117m to stream | cluster: 2 nearby | src: USMIN</desc><extensions><onx:icon>Location</onx:icon><onx:color>rgba(255, 51, 0, 1)</onx:color></extensions></wpt><wpt lat="44.547710" lon="-122.275014"><name>SCOUT 3 - Placer bench</name><desc>USMIN Prospect Pit | agency: USFS | 6m to stream | cluster: 1 nearby | src: USMIN</desc><extensions><onx:icon>Location</onx:icon><onx:color>rgba(255, 51, 0, 1)</onx:color></extensions></wpt><wpt lat="44.572628" lon="-122.291760"><name>SCOUT 4 - Placer bench</name><desc>USMIN Prospect Pit | agency: USFS | 14m to stream | cluster: 1 nearby | src: USMIN</desc><extensions><onx:icon>Location</onx:icon><onx:color>rgba(255, 51, 0, 1)</onx:color></extensions></wpt><wpt lat="44.546626" lon="-122.258089"><name>SCOUT 5 - Placer bench</name><desc>USMIN Prospect Pit | agency: USFS | 48m to stream | cluster: 1 nearby | src: USMIN</desc><extensions><onx:icon>Location</onx:icon><onx:color>rgba(255, 51, 0, 1)</onx:color></extensions></wpt><wpt lat="44.582342" lon="-122.311554"><name>SCOUT 6 - Placer bench</name><desc>USMIN Prospect Pit | agency: USFS | 107m to stream | cluster: 1 nearby | src: USMIN</desc><extensions><onx:icon>Location</onx:icon><onx:color>rgba(255, 51, 0, 1)</onx:color></extensions></wpt><wpt lat="44.597151" lon="-122.321569"><name>SCOUT 7 - Lode/unknown outcrop</name><desc>unnamed or NA (unknown) | agency: USFS | 51m to stream | cluster: 6 nearby | src: MILO</desc><extensions><onx:icon>Location</onx:icon><onx:color>rgba(255, 51, 0, 1)</onx:color></extensions></wpt><wpt lat="44.600210" lon="-122.319274"><name>SCOUT 8 - Lode/unknown outcrop</name><desc>unnamed or NA (unknown) | agency: USFS | 54m to stream | cluster: 4 nearby | src: MILO</desc><extensions><onx:icon>Location</onx:icon><onx:color>rgba(255, 51, 0, 1)</onx:color></extensions></wpt><wpt lat="44.597006" lon="-122.324699"><name>SCOUT 9 - Lode/unknown outcrop</name><desc>unnamed or NA (unknown) | agency: USFS | 136m to stream | cluster: 4 nearby | src: MILO</desc><extensions><onx:icon>Location</onx:icon><onx:color>rgba(255, 51, 0, 1)</onx:color></extensions></wpt><wpt lat="44.588387" lon="-122.290753"><name>SCOUT 10 - Lode/unknown outcrop</name><desc>Accident (lode) | agency: USFS | 12m to stream | cluster: 3 nearby | NEAR ACTIVE CLAIM (&lt;50m, approx) | src: MILO</desc><extensions><onx:icon>Location</onx:icon><onx:color>rgba(255, 51, 0, 1)</onx:color></extensions></wpt></gpx>