<?xml version="1.0" encoding="UTF-8"?>
<gpx xmlns:xsi="http://www.w3.org/2001/XMLSchema-instance" xmlns="http://www.topografix.com/GPX/1/1" xmlns:onx="http://www.onxmaps.com" xsi:schemaLocation="http://www.topografix.com/GPX/1/1 http://www.topografix.com/GPX/1/1/gpx.xsd" version="1.1" creator="onXmaps hunt ios"><rte><name>WIRE GOLD</name><type>Area</type><extensions><onx:style>dot</onx:style><onx:weight>4.0</onx:weight><onx:color>rgba(255, 51, 0, 1)</onx:color></extensions><rtept lat="44.588413" lon="-122.290643"></rtept><rtept lat="44.588414" lon="-122.295669"></rtept><rtept lat="44.588414" lon="-122.295875"></rtept><rtept lat="44.588492" lon="-122.295748"></rtept><rtept lat="44.588649" lon="-122.295667"></rtept><rtept lat="44.589418" lon="-122.295659"></rtept><rtept lat="44.589470" lon="-122.295777"></rtept><rtept lat="44.589569" lon="-122.295658"></rtept><rtept lat="44.591343" lon="-122.295641"></rtept><rtept lat="44.591998" lon="-122.297130"></rtept><rtept lat="44.591999" lon="-122.295635"></rtept><rtept lat="44.593302" lon="-122.295622"></rtept><rtept lat="44.595584" lon="-122.295600"></rtept><rtept lat="44.595587" lon="-122.292806"></rtept><rtept lat="44.595589" lon="-122.291400"></rtept><rtept lat="44.595589" lon="-122.291179"></rtept><rtept lat="44.595590" lon="-122.290572"></rtept><rtept lat="44.595596" lon="-122.285544"></rtept><rtept lat="44.592004" lon="-122.285580"></rtept><rtept lat="44.588412" lon="-122.285617"></rtept><rtept lat="44.588413" lon="-122.290643"></rtept></rte><rte><name>FREE GOLD</name><type>Area</type><extensions><onx:style>dot</onx:style><onx:weight>4.0</onx:weight><onx:color>rgba(255, 51, 0, 1)</onx:color></extensions><rtept lat="44.581219" lon="-122.305760"></rtept><rtept lat="44.583115" lon="-122.305750"></rtept><rtept lat="44.584817" lon="-122.305741"></rtept><rtept lat="44.585107" lon="-122.305739"></rtept><rtept lat="44.586509" lon="-122.305732"></rtept><rtept lat="44.586512" lon="-122.305732"></rtept><rtept lat="44.587251" lon="-122.305728"></rtept><rtept lat="44.587282" lon="-122.305727"></rtept><rtept lat="44.587287" lon="-122.305727"></rtept><rtept lat="44.587768" lon="-122.305725"></rtept><rtept lat="44.587772" lon="-122.305724"></rtept><rtept lat="44.588415" lon="-122.305721"></rtept><rtept lat="44.589517" lon="-122.305711"></rtept><rtept lat="44.591993" lon="-122.305689"></rtept><rtept lat="44.593558" lon="-122.305675"></rtept><rtept lat="44.595084" lon="-122.305661"></rtept><rtept lat="44.595571" lon="-122.305657"></rtept><rtept lat="44.595577" lon="-122.300880"></rtept><rtept lat="44.595577" lon="-122.300629"></rtept><rtept lat="44.595578" lon="-122.300400"></rtept><rtept lat="44.595578" lon="-122.300055"></rtept><rtept lat="44.595584" lon="-122.295600"></rtept><rtept lat="44.593302" lon="-122.295622"></rtept><rtept lat="44.591999" lon="-122.295635"></rtept><rtept lat="44.591998" lon="-122.297130"></rtept><rtept lat="44.591343" lon="-122.295641"></rtept><rtept lat="44.589569" lon="-122.295658"></rtept><rtept lat="44.589470" lon="-122.295777"></rtept><rtept lat="44.589418" lon="-122.295659"></rtept><rtept lat="44.588649" lon="-122.295667"></rtept><rtept lat="44.588492" lon="-122.295748"></rtept><rtept lat="44.588414" lon="-122.295875"></rtept><rtept lat="44.588414" lon="-122.295669"></rtept><rtept lat="44.584817" lon="-122.295694"></rtept><rtept lat="44.581221" lon="-122.295720"></rtept><rtept lat="44.581220" lon="-122.300740"></rtept><rtept lat="44.581219" lon="-122.305760"></rtept></rte><rte><name>RELIEF MINE</name><type>Area</type><extensions><onx:style>dot</onx:style><onx:weight>4.0</onx:weight><onx:color>rgba(255, 51, 0, 1)</onx:color></extensions><rtept lat="44.576414" lon="-122.305786"></rtept><rtept lat="44.577621" lon="-122.305780"></rtept><rtept lat="44.581219" lon="-122.305760"></rtept><rtept lat="44.583115" lon="-122.305750"></rtept><rtept lat="44.584817" lon="-122.305741"></rtept><rtept lat="44.585107" lon="-122.305739"></rtept><rtept lat="44.586509" lon="-122.305732"></rtept><rtept lat="44.586512" lon="-122.305732"></rtept><rtept lat="44.587251" lon="-122.305728"></rtept><rtept lat="44.587282" lon="-122.305727"></rtept><rtept lat="44.587287" lon="-122.305727"></rtept><rtept lat="44.587768" lon="-122.305725"></rtept><rtept lat="44.587772" lon="-122.305724"></rtept><rtept lat="44.588415" lon="-122.305721"></rtept><rtept lat="44.588415" lon="-122.303368"></rtept><rtept lat="44.588415" lon="-122.300695"></rtept><rtept lat="44.588414" lon="-122.297768"></rtept><rtept lat="44.588414" lon="-122.295875"></rtept><rtept lat="44.588414" lon="-122.295669"></rtept><rtept lat="44.584817" lon="-122.295694"></rtept><rtept lat="44.581221" lon="-122.295720"></rtept><rtept lat="44.577625" lon="-122.295745"></rtept><rtept lat="44.574028" lon="-122.295770"></rtept><rtept lat="44.574025" lon="-122.300784"></rtept><rtept lat="44.574023" lon="-122.305799"></rtept><rtept lat="44.575562" lon="-122.305791"></rtept><rtept lat="44.576414" lon="-122.305786"></rtept></rte><rte><name>GOLDEN DREAMS</name><type>Area</type><extensions><onx:style>dot</onx:style><onx:weight>4.0</onx:weight><onx:color>rgba(255, 51, 0, 1)</onx:color></extensions><rtept lat="44.581219" lon="-122.305760"></rtept><rtept lat="44.583115" lon="-122.305750"></rtept><rtept lat="44.584817" lon="-122.305741"></rtept><rtept lat="44.585107" lon="-122.305739"></rtept><rtept lat="44.586509" lon="-122.305732"></rtept><rtept lat="44.586512" lon="-122.305732"></rtept><rtept lat="44.587251" lon="-122.305728"></rtept><rtept lat="44.587282" lon="-122.305727"></rtept><rtept lat="44.587287" lon="-122.305727"></rtept><rtept lat="44.587768" lon="-122.305725"></rtept><rtept lat="44.587772" lon="-122.305724"></rtept><rtept lat="44.588415" lon="-122.305721"></rtept><rtept lat="44.589517" lon="-122.305711"></rtept><rtept lat="44.591993" lon="-122.305689"></rtept><rtept lat="44.593558" lon="-122.305675"></rtept><rtept lat="44.595084" lon="-122.305661"></rtept><rtept lat="44.595571" lon="-122.305657"></rtept><rtept lat="44.595577" lon="-122.300880"></rtept><rtept lat="44.595577" lon="-122.300629"></rtept><rtept lat="44.595578" lon="-122.300400"></rtept><rtept lat="44.595578" lon="-122.300055"></rtept><rtept lat="44.595584" lon="-122.295600"></rtept><rtept lat="44.593302" lon="-122.295622"></rtept><rtept lat="44.591999" lon="-122.295635"></rtept><rtept lat="44.591998" lon="-122.297130"></rtept><rtept lat="44.591343" lon="-122.295641"></rtept><rtept lat="44.589569" lon="-122.295658"></rtept><rtept lat="44.589470" lon="-122.295777"></rtept><rtept lat="44.589418" lon="-122.295659"></rtept><rtept lat="44.588649" lon="-122.295667"></rtept><rtept lat="44.588492" lon="-122.295748"></rtept><rtept lat="44.588414" lon="-122.295875"></rtept><rtept lat="44.588414" lon="-122.295669"></rtept><rtept lat="44.584817" lon="-122.295694"></rtept><rtept lat="44.581221" lon="-122.295720"></rtept><rtept lat="44.581220" lon="-122.300740"></rtept><rtept lat="44.581219" lon="-122.305760"></rtept></rte><rte><name>sweetwater</name><type>Area</type><extensions><onx:style>dot</onx:style><onx:weight>4.0</onx:weight><onx:color>rgba(255, 51, 0, 1)</onx:color></extensions><rtept lat="44.595578" lon="-122.300400"></rtept><rtept lat="44.595577" lon="-122.300629"></rtept><rtept lat="44.595577" lon="-122.300880"></rtept><rtept lat="44.595571" lon="-122.305657"></rtept><rtept lat="44.599148" lon="-122.305625"></rtept><rtept lat="44.602726" lon="-122.305592"></rtept><rtept lat="44.602739" lon="-122.300562"></rtept><rtept lat="44.602753" lon="-122.295532"></rtept><rtept lat="44.601909" lon="-122.295540"></rtept><rtept lat="44.602666" lon="-122.295408"></rtept><rtept lat="44.602599" lon="-122.294327"></rtept><rtept lat="44.601825" lon="-122.293290"></rtept><rtept lat="44.599172" lon="-122.293637"></rtept><rtept lat="44.597099" lon="-122.290557"></rtept><rtept lat="44.596056" lon="-122.290568"></rtept><rtept lat="44.595589" lon="-122.291179"></rtept><rtept lat="44.595589" lon="-122.291400"></rtept><rtept lat="44.598329" lon="-122.295383"></rtept><rtept lat="44.598509" lon="-122.295147"></rtept><rtept lat="44.598543" lon="-122.295572"></rtept><rtept lat="44.596874" lon="-122.295588"></rtept><rtept lat="44.595584" lon="-122.295600"></rtept><rtept lat="44.595578" lon="-122.300055"></rtept><rtept lat="44.595578" lon="-122.300400"></rtept></rte><rte><name>Edson A</name><type>Area</type><extensions><onx:style>dot</onx:style><onx:weight>4.0</onx:weight><onx:color>rgba(255, 51, 0, 1)</onx:color></extensions><rtept lat="44.593663" lon="-122.314668"></rtept><rtept lat="44.594434" lon="-122.314935"></rtept><rtept lat="44.594291" lon="-122.315772"></rtept><rtept lat="44.595567" lon="-122.315763"></rtept><rtept lat="44.599125" lon="-122.315739"></rtept><rtept lat="44.600510" lon="-122.315730"></rtept><rtept lat="44.602683" lon="-122.315715"></rtept><rtept lat="44.602692" lon="-122.313618"></rtept><rtept lat="44.602704" lon="-122.310654"></rtept><rtept lat="44.602726" lon="-122.305592"></rtept><rtept lat="44.599148" lon="-122.305625"></rtept><rtept lat="44.595571" lon="-122.305657"></rtept><rtept lat="44.595084" lon="-122.305661"></rtept><rtept lat="44.595144" lon="-122.306167"></rtept><rtept lat="44.594831" lon="-122.307960"></rtept><rtept lat="44.595570" lon="-122.308215"></rtept><rtept lat="44.595569" lon="-122.310710"></rtept><rtept lat="44.595568" lon="-122.312904"></rtept><rtept lat="44.594061" lon="-122.312409"></rtept><rtept lat="44.593663" lon="-122.314668"></rtept></rte><rte><name>Edson B</name><type>Area</type><extensions><onx:style>dot</onx:style><onx:weight>4.0</onx:weight><onx:color>rgba(255, 51, 0, 1)</onx:color></extensions><rtept lat="44.593663" lon="-122.314668"></rtept><rtept lat="44.594434" lon="-122.314935"></rtept><rtept lat="44.594291" lon="-122.315772"></rtept><rtept lat="44.595567" lon="-122.315763"></rtept><rtept lat="44.599125" lon="-122.315739"></rtept><rtept lat="44.600510" lon="-122.315730"></rtept><rtept lat="44.602683" lon="-122.315715"></rtept><rtept lat="44.602692" lon="-122.313618"></rtept><rtept lat="44.602704" lon="-122.310654"></rtept><rtept lat="44.602726" lon="-122.305592"></rtept><rtept lat="44.599148" lon="-122.305625"></rtept><rtept lat="44.595571" lon="-122.305657"></rtept><rtept lat="44.595084" lon="-122.305661"></rtept><rtept lat="44.595144" lon="-122.306167"></rtept><rtept lat="44.594831" lon="-122.307960"></rtept><rtept lat="44.595570" lon="-122.308215"></rtept><rtept lat="44.595569" lon="-122.310710"></rtept><rtept lat="44.595568" lon="-122.312904"></rtept><rtept lat="44.594061" lon="-122.312409"></rtept><rtept lat="44.593663" lon="-122.314668"></rtept></rte><rte><name>Edson C</name><type>Area</type><extensions><onx:style>dot</onx:style><onx:weight>4.0</onx:weight><onx:color>rgba(255, 51, 0, 1)</onx:color></extensions><rtept lat="44.593663" lon="-122.314668"></rtept><rtept lat="44.594434" lon="-122.314935"></rtept><rtept lat="44.594291" lon="-122.315772"></rtept><rtept lat="44.595567" lon="-122.315763"></rtept><rtept lat="44.599125" lon="-122.315739"></rtept><rtept lat="44.600510" lon="-122.315730"></rtept><rtept lat="44.602683" lon="-122.315715"></rtept><rtept lat="44.602692" lon="-122.313618"></rtept><rtept lat="44.602704" lon="-122.310654"></rtept><rtept lat="44.602726" lon="-122.305592"></rtept><rtept lat="44.599148" lon="-122.305625"></rtept><rtept lat="44.595571" lon="-122.305657"></rtept><rtept lat="44.595084" lon="-122.305661"></rtept><rtept lat="44.595144" lon="-122.306167"></rtept><rtept lat="44.594831" lon="-122.307960"></rtept><rtept lat="44.595570" lon="-122.308215"></rtept><rtept lat="44.595569" lon="-122.310710"></rtept><rtept lat="44.595568" lon="-122.312904"></rtept><rtept lat="44.594061" lon="-122.312409"></rtept><rtept lat="44.593663" lon="-122.314668"></rtept></rte><rte><name>M &amp; M B</name><type>Area</type><extensions><onx:style>dot</onx:style><onx:weight>4.0</onx:weight><onx:color>rgba(255, 51, 0, 1)</onx:color></extensions><rtept lat="44.563296" lon="-122.280776"></rtept><rtept lat="44.566883" lon="-122.280742"></rtept><rtept lat="44.566911" lon="-122.275674"></rtept><rtept lat="44.563325" lon="-122.275708"></rtept><rtept lat="44.563296" lon="-122.280776"></rtept></rte><rte><name>XPNSV Hobby Too</name><type>Area</type><extensions><onx:style>dot</onx:style><onx:weight>4.0</onx:weight><onx:color>rgba(255, 51, 0, 1)</onx:color></extensions><rtept lat="44.574028" lon="-122.295770"></rtept><rtept lat="44.577625" lon="-122.295745"></rtept><rtept lat="44.581221" lon="-122.295720"></rtept><rtept lat="44.581222" lon="-122.290699"></rtept><rtept lat="44.581222" lon="-122.285679"></rtept><rtept lat="44.577628" lon="-122.285710"></rtept><rtept lat="44.574033" lon="-122.285741"></rtept><rtept lat="44.574030" lon="-122.290756"></rtept><rtept lat="44.574028" lon="-122.295770"></rtept></rte><rte><name>Golden Flower 2</name><type>Area</type><extensions><onx:style>dot</onx:style><onx:weight>4.0</onx:weight><onx:color>rgba(255, 51, 0, 1)</onx:color></extensions><rtept lat="44.574093" lon="-122.273072"></rtept><rtept lat="44.574105" lon="-122.270538"></rtept><rtept lat="44.572314" lon="-122.270554"></rtept><rtept lat="44.572301" lon="-122.273088"></rtept><rtept lat="44.572289" lon="-122.275623"></rtept><rtept lat="44.574081" lon="-122.275605"></rtept><rtept lat="44.574093" lon="-122.273072"></rtept></rte><rte><name>ANGIE M</name><type>Area</type><extensions><onx:style>dot</onx:style><onx:weight>4.0</onx:weight><onx:color>rgba(255, 51, 0, 1)</onx:color></extensions><rtept lat="44.577637" lon="-122.325921"></rtept><rtept lat="44.581234" lon="-122.325912"></rtept><rtept lat="44.581231" lon="-122.320875"></rtept><rtept lat="44.581227" lon="-122.315838"></rtept><rtept lat="44.577629" lon="-122.315851"></rtept><rtept lat="44.574031" lon="-122.315864"></rtept><rtept lat="44.574035" lon="-122.320897"></rtept><rtept lat="44.574039" lon="-122.325929"></rtept><rtept lat="44.577637" lon="-122.325921"></rtept></rte><rte><name>BROKEN BRIDGE</name><type>Area</type><extensions><onx:style>dot</onx:style><onx:weight>4.0</onx:weight><onx:color>rgba(255, 51, 0, 1)</onx:color></extensions><rtept lat="44.574025" lon="-122.300784"></rtept><rtept lat="44.577623" lon="-122.300762"></rtept><rtept lat="44.577625" lon="-122.295745"></rtept><rtept lat="44.574028" lon="-122.295770"></rtept><rtept lat="44.574025" lon="-122.300784"></rtept></rte><rte><name>SILVER DOLLAR</name><type>Area</type><extensions><onx:style>dot</onx:style><onx:weight>4.0</onx:weight><onx:color>rgba(255, 51, 0, 1)</onx:color></extensions><rtept lat="44.599148" lon="-122.305625"></rtept><rtept lat="44.602726" lon="-122.305592"></rtept><rtept lat="44.602739" lon="-122.300562"></rtept><rtept lat="44.602753" lon="-122.295532"></rtept><rtept lat="44.602756" lon="-122.294536"></rtept><rtept lat="44.602764" lon="-122.291391"></rtept><rtept lat="44.602765" lon="-122.291080"></rtept><rtept lat="44.602767" lon="-122.290502"></rtept><rtept lat="44.602773" lon="-122.288063"></rtept><rtept lat="44.602780" lon="-122.285471"></rtept><rtept lat="44.599188" lon="-122.285508"></rtept><rtept lat="44.595596" lon="-122.285544"></rtept><rtept lat="44.595590" lon="-122.290572"></rtept><rtept lat="44.595589" lon="-122.291179"></rtept><rtept lat="44.595589" lon="-122.291400"></rtept><rtept lat="44.595587" lon="-122.292806"></rtept><rtept lat="44.595584" lon="-122.295600"></rtept><rtept lat="44.595578" lon="-122.300055"></rtept><rtept lat="44.595578" lon="-122.300400"></rtept><rtept lat="44.595577" lon="-122.300629"></rtept><rtept lat="44.595577" lon="-122.300880"></rtept><rtept lat="44.595571" lon="-122.305657"></rtept><rtept lat="44.599148" lon="-122.305625"></rtept></rte><rte><name>GOLDEN KITTY 1</name><type>Area</type><extensions><onx:style>dot</onx:style><onx:weight>4.0</onx:weight><onx:color>rgba(255, 51, 0, 1)</onx:color></extensions><rtept lat="44.653864" lon="-122.300431"></rtept><rtept lat="44.653879" lon="-122.299644"></rtept><rtept lat="44.653970" lon="-122.295443"></rtept><rtept lat="44.649448" lon="-122.295443"></rtept><rtept lat="44.645837" lon="-122.295443"></rtept><rtept lat="44.642227" lon="-122.295443"></rtept><rtept lat="44.638616" lon="-122.295443"></rtept><rtept lat="44.638569" lon="-122.300451"></rtept><rtept lat="44.638521" lon="-122.305459"></rtept><rtept lat="44.642128" lon="-122.305451"></rtept><rtept lat="44.645735" lon="-122.305442"></rtept><rtept lat="44.649343" lon="-122.305433"></rtept><rtept lat="44.653758" lon="-122.305419"></rtept><rtept lat="44.653771" lon="-122.304709"></rtept><rtept lat="44.653864" lon="-122.300431"></rtept></rte><rte><name>GOLDEN KITTY 2</name><type>Area</type><extensions><onx:style>dot</onx:style><onx:weight>4.0</onx:weight><onx:color>rgba(255, 51, 0, 1)</onx:color></extensions><rtept lat="44.654073" lon="-122.290452"></rtept><rtept lat="44.654107" lon="-122.288751"></rtept><rtept lat="44.654177" lon="-122.285462"></rtept><rtept lat="44.649553" lon="-122.285447"></rtept><rtept lat="44.645939" lon="-122.285438"></rtept><rtept lat="44.642325" lon="-122.285429"></rtept><rtept lat="44.638711" lon="-122.285420"></rtept><rtept lat="44.638664" lon="-122.290432"></rtept><rtept lat="44.638616" lon="-122.295443"></rtept><rtept lat="44.642227" lon="-122.295443"></rtept><rtept lat="44.645837" lon="-122.295443"></rtept><rtept lat="44.649448" lon="-122.295443"></rtept><rtept lat="44.653970" lon="-122.295443"></rtept><rtept lat="44.654001" lon="-122.293819"></rtept><rtept lat="44.654073" lon="-122.290452"></rtept></rte><rte><name>GOLDEN KITTY 3</name><type>Area</type><extensions><onx:style>dot</onx:style><onx:weight>4.0</onx:weight><onx:color>rgba(255, 51, 0, 1)</onx:color></extensions><rtept lat="44.631319" lon="-122.315565"></rtept><rtept lat="44.634931" lon="-122.315564"></rtept><rtept lat="44.638543" lon="-122.315562"></rtept><rtept lat="44.638554" lon="-122.320623"></rtept><rtept lat="44.638565" lon="-122.325684"></rtept><rtept lat="44.642097" lon="-122.325500"></rtept><rtept lat="44.645629" lon="-122.325317"></rtept><rtept lat="44.649161" lon="-122.325133"></rtept><rtept lat="44.653393" lon="-122.324913"></rtept><rtept lat="44.653401" lon="-122.324231"></rtept><rtept lat="44.653475" lon="-122.320230"></rtept><rtept lat="44.653477" lon="-122.319557"></rtept><rtept lat="44.653551" lon="-122.315557"></rtept><rtept lat="44.653554" lon="-122.314873"></rtept><rtept lat="44.653650" lon="-122.310488"></rtept><rtept lat="44.653662" lon="-122.309791"></rtept><rtept lat="44.653758" lon="-122.305419"></rtept><rtept lat="44.649343" lon="-122.305433"></rtept><rtept lat="44.645735" lon="-122.305442"></rtept><rtept lat="44.642128" lon="-122.305451"></rtept><rtept lat="44.638521" lon="-122.305459"></rtept><rtept lat="44.634926" lon="-122.305480"></rtept><rtept lat="44.631331" lon="-122.305500"></rtept><rtept lat="44.631325" lon="-122.310533"></rtept><rtept lat="44.631319" lon="-122.315565"></rtept></rte><rte><name>GOLDEN KITTY 4</name><type>Area</type><extensions><onx:style>dot</onx:style><onx:weight>4.0</onx:weight><onx:color>rgba(255, 51, 0, 1)</onx:color></extensions><rtept lat="44.634936" lon="-122.325657"></rtept><rtept lat="44.638565" lon="-122.325684"></rtept><rtept lat="44.638554" lon="-122.320623"></rtept><rtept lat="44.638543" lon="-122.315562"></rtept><rtept lat="44.634931" lon="-122.315564"></rtept><rtept lat="44.631319" lon="-122.315565"></rtept><rtept lat="44.631314" lon="-122.320598"></rtept><rtept lat="44.631308" lon="-122.325630"></rtept><rtept lat="44.634936" lon="-122.325657"></rtept></rte><rte><name>LUCK OF THE DRAW</name><type>Area</type><extensions><onx:style>dot</onx:style><onx:weight>4.0</onx:weight><onx:color>rgba(255, 51, 0, 1)</onx:color></extensions><rtept lat="44.577686" lon="-122.335641"></rtept><rtept lat="44.581284" lon="-122.335710"></rtept><rtept lat="44.581259" lon="-122.330811"></rtept><rtept lat="44.581234" lon="-122.325912"></rtept><rtept lat="44.577637" lon="-122.325921"></rtept><rtept lat="44.574039" lon="-122.325929"></rtept><rtept lat="44.574063" lon="-122.330751"></rtept><rtept lat="44.574087" lon="-122.335572"></rtept><rtept lat="44.577686" lon="-122.335641"></rtept></rte><rte><name>WHITE HORSE</name><type>Area</type><extensions><onx:style>dot</onx:style><onx:weight>4.0</onx:weight><onx:color>rgba(255, 51, 0, 1)</onx:color></extensions><rtept lat="44.620550" lon="-122.320578"></rtept><rtept lat="44.620566" lon="-122.315635"></rtept><rtept lat="44.616978" lon="-122.315659"></rtept><rtept lat="44.616956" lon="-122.320708"></rtept><rtept lat="44.616934" lon="-122.325758"></rtept><rtept lat="44.620534" lon="-122.325520"></rtept><rtept lat="44.620550" lon="-122.320578"></rtept></rte><rte><name>DREAM ON PLACER A</name><type>Area</type><extensions><onx:style>dot</onx:style><onx:weight>4.0</onx:weight><onx:color>rgba(255, 51, 0, 1)</onx:color></extensions><rtept lat="44.620583" lon="-122.310590"></rtept><rtept lat="44.620599" lon="-122.305545"></rtept><rtept lat="44.620629" lon="-122.300511"></rtept><rtept lat="44.620659" lon="-122.295476"></rtept><rtept lat="44.617075" lon="-122.295487"></rtept><rtept lat="44.617048" lon="-122.300524"></rtept><rtept lat="44.617022" lon="-122.305560"></rtept><rtept lat="44.617000" lon="-122.310609"></rtept><rtept lat="44.616978" lon="-122.315659"></rtept><rtept lat="44.620566" lon="-122.315635"></rtept><rtept lat="44.620583" lon="-122.310590"></rtept></rte><rte><name>MINERS MISERY</name><type>Area</type><extensions><onx:style>dot</onx:style><onx:weight>4.0</onx:weight><onx:color>rgba(255, 51, 0, 1)</onx:color></extensions><rtept lat="44.620689" lon="-122.290442"></rtept><rtept lat="44.620719" lon="-122.285408"></rtept><rtept lat="44.617127" lon="-122.285415"></rtept><rtept lat="44.617101" lon="-122.290451"></rtept><rtept lat="44.617075" lon="-122.295487"></rtept><rtept lat="44.620659" lon="-122.295476"></rtept><rtept lat="44.620689" lon="-122.290442"></rtept></rte><rte><name>GALENA 1</name><type>Area</type><extensions><onx:style>dot</onx:style><onx:weight>4.0</onx:weight><onx:color>rgba(255, 51, 0, 1)</onx:color></extensions><rtept lat="44.570462" lon="-122.335641"></rtept><rtept lat="44.574087" lon="-122.335572"></rtept><rtept lat="44.574063" lon="-122.330751"></rtept><rtept lat="44.574039" lon="-122.325929"></rtept><rtept lat="44.570409" lon="-122.325928"></rtept><rtept lat="44.566778" lon="-122.325928"></rtept><rtept lat="44.566808" lon="-122.330819"></rtept><rtept lat="44.566838" lon="-122.335710"></rtept><rtept lat="44.570462" lon="-122.335641"></rtept></rte><rte><name>LUCKY DUCK</name><type>Area</type><extensions><onx:style>dot</onx:style><onx:weight>4.0</onx:weight><onx:color>rgba(255, 51, 0, 1)</onx:color></extensions><rtept lat="44.595571" lon="-122.305657"></rtept><rtept lat="44.595577" lon="-122.300880"></rtept><rtept lat="44.595577" lon="-122.300629"></rtept><rtept lat="44.595578" lon="-122.300400"></rtept><rtept lat="44.595578" lon="-122.300055"></rtept><rtept lat="44.595584" lon="-122.295600"></rtept><rtept lat="44.593302" lon="-122.295622"></rtept><rtept lat="44.591999" lon="-122.295635"></rtept><rtept lat="44.591998" lon="-122.297130"></rtept><rtept lat="44.591343" lon="-122.295641"></rtept><rtept lat="44.589569" lon="-122.295658"></rtept><rtept lat="44.589470" lon="-122.295777"></rtept><rtept lat="44.589418" lon="-122.295659"></rtept><rtept lat="44.588649" lon="-122.295667"></rtept><rtept lat="44.588492" lon="-122.295748"></rtept><rtept lat="44.588414" lon="-122.295875"></rtept><rtept lat="44.588414" lon="-122.297768"></rtept><rtept lat="44.588415" lon="-122.300695"></rtept><rtept lat="44.588415" lon="-122.303368"></rtept><rtept lat="44.588415" lon="-122.305721"></rtept><rtept lat="44.589517" lon="-122.305711"></rtept><rtept lat="44.591993" lon="-122.305689"></rtept><rtept lat="44.593558" lon="-122.305675"></rtept><rtept lat="44.595084" lon="-122.305661"></rtept><rtept lat="44.595571" lon="-122.305657"></rtept></rte><rte><name>GOLDEN DIGGER</name><type>Area</type><extensions><onx:style>dot</onx:style><onx:weight>4.0</onx:weight><onx:color>rgba(255, 51, 0, 1)</onx:color></extensions><rtept lat="44.588412" lon="-122.306818"></rtept><rtept lat="44.588411" lon="-122.307036"></rtept><rtept lat="44.588411" lon="-122.307049"></rtept><rtept lat="44.588409" lon="-122.307711"></rtept><rtept lat="44.588408" lon="-122.308022"></rtept><rtept lat="44.588408" lon="-122.308036"></rtept><rtept lat="44.588399" lon="-122.310766"></rtept><rtept lat="44.588398" lon="-122.311036"></rtept><rtept lat="44.588398" lon="-122.311052"></rtept><rtept lat="44.588394" lon="-122.312352"></rtept><rtept lat="44.588394" lon="-122.312361"></rtept><rtept lat="44.588386" lon="-122.314762"></rtept><rtept lat="44.589093" lon="-122.313121"></rtept><rtept lat="44.591181" lon="-122.315397"></rtept><rtept lat="44.591097" lon="-122.315793"></rtept><rtept lat="44.591975" lon="-122.315787"></rtept><rtept lat="44.594291" lon="-122.315772"></rtept><rtept lat="44.594434" lon="-122.314935"></rtept><rtept lat="44.593663" lon="-122.314668"></rtept><rtept lat="44.594061" lon="-122.312409"></rtept><rtept lat="44.595568" lon="-122.312904"></rtept><rtept lat="44.595569" lon="-122.310710"></rtept><rtept lat="44.595570" lon="-122.308215"></rtept><rtept lat="44.594831" lon="-122.307960"></rtept><rtept lat="44.595144" lon="-122.306167"></rtept><rtept lat="44.595084" lon="-122.305661"></rtept><rtept lat="44.595571" lon="-122.305657"></rtept><rtept lat="44.595577" lon="-122.300880"></rtept><rtept lat="44.595577" lon="-122.300629"></rtept><rtept lat="44.595578" lon="-122.300400"></rtept><rtept lat="44.595578" lon="-122.300055"></rtept><rtept lat="44.595584" lon="-122.295600"></rtept><rtept lat="44.593302" lon="-122.295622"></rtept><rtept lat="44.591999" lon="-122.295635"></rtept><rtept lat="44.591998" lon="-122.297130"></rtept><rtept lat="44.591343" lon="-122.295641"></rtept><rtept lat="44.589569" lon="-122.295658"></rtept><rtept lat="44.589470" lon="-122.295777"></rtept><rtept lat="44.589418" lon="-122.295659"></rtept><rtept lat="44.588649" lon="-122.295667"></rtept><rtept lat="44.588492" lon="-122.295748"></rtept><rtept lat="44.588414" lon="-122.295875"></rtept><rtept lat="44.588414" lon="-122.297768"></rtept><rtept lat="44.588415" lon="-122.300695"></rtept><rtept lat="44.588415" lon="-122.303368"></rtept><rtept lat="44.588415" lon="-122.305721"></rtept><rtept lat="44.588412" lon="-122.306818"></rtept></rte><rte><name>STARDUSTER</name><type>Area</type><extensions><onx:style>dot</onx:style><onx:weight>4.0</onx:weight><onx:color>rgba(255, 51, 0, 1)</onx:color></extensions><rtept lat="44.581220" lon="-122.300740"></rtept><rtept lat="44.581221" lon="-122.295720"></rtept><rtept lat="44.577625" lon="-122.295745"></rtept><rtept lat="44.574028" lon="-122.295770"></rtept><rtept lat="44.574025" lon="-122.300784"></rtept><rtept lat="44.574023" lon="-122.305799"></rtept><rtept lat="44.574027" lon="-122.310832"></rtept><rtept lat="44.574031" lon="-122.315864"></rtept><rtept lat="44.577629" lon="-122.315851"></rtept><rtept lat="44.581227" lon="-122.315838"></rtept><rtept lat="44.581224" lon="-122.312123"></rtept><rtept lat="44.581223" lon="-122.310799"></rtept><rtept lat="44.581223" lon="-122.310589"></rtept><rtept lat="44.581221" lon="-122.307957"></rtept><rtept lat="44.581219" lon="-122.305760"></rtept><rtept lat="44.581220" lon="-122.300740"></rtept></rte><rte><name>PARKER B 1</name><type>Area</type><extensions><onx:style>dot</onx:style><onx:weight>4.0</onx:weight><onx:color>rgba(255, 51, 0, 1)</onx:color></extensions><rtept lat="44.588412" lon="-122.306818"></rtept><rtept lat="44.588411" lon="-122.307036"></rtept><rtept lat="44.588411" lon="-122.307049"></rtept><rtept lat="44.588409" lon="-122.307711"></rtept><rtept lat="44.588408" lon="-122.308022"></rtept><rtept lat="44.588408" lon="-122.308036"></rtept><rtept lat="44.588399" lon="-122.310766"></rtept><rtept lat="44.588398" lon="-122.311036"></rtept><rtept lat="44.588398" lon="-122.311052"></rtept><rtept lat="44.588394" lon="-122.312352"></rtept><rtept lat="44.588394" lon="-122.312361"></rtept><rtept lat="44.588386" lon="-122.314762"></rtept><rtept lat="44.589093" lon="-122.313121"></rtept><rtept lat="44.591181" lon="-122.315397"></rtept><rtept lat="44.591097" lon="-122.315793"></rtept><rtept lat="44.591975" lon="-122.315787"></rtept><rtept lat="44.594291" lon="-122.315772"></rtept><rtept lat="44.594434" lon="-122.314935"></rtept><rtept lat="44.593663" lon="-122.314668"></rtept><rtept lat="44.594061" lon="-122.312409"></rtept><rtept lat="44.595568" lon="-122.312904"></rtept><rtept lat="44.595569" lon="-122.310710"></rtept><rtept lat="44.595570" lon="-122.308215"></rtept><rtept lat="44.594831" lon="-122.307960"></rtept><rtept lat="44.595144" lon="-122.306167"></rtept><rtept lat="44.595084" lon="-122.305661"></rtept><rtept lat="44.595571" lon="-122.305657"></rtept><rtept lat="44.595577" lon="-122.300880"></rtept><rtept lat="44.595577" lon="-122.300629"></rtept><rtept lat="44.595578" lon="-122.300400"></rtept><rtept lat="44.595578" lon="-122.300055"></rtept><rtept lat="44.595584" lon="-122.295600"></rtept><rtept lat="44.593302" lon="-122.295622"></rtept><rtept lat="44.591999" lon="-122.295635"></rtept><rtept lat="44.591998" lon="-122.297130"></rtept><rtept lat="44.591343" lon="-122.295641"></rtept><rtept lat="44.589569" lon="-122.295658"></rtept><rtept lat="44.589470" lon="-122.295777"></rtept><rtept lat="44.589418" lon="-122.295659"></rtept><rtept lat="44.588649" lon="-122.295667"></rtept><rtept lat="44.588492" lon="-122.295748"></rtept><rtept lat="44.588414" lon="-122.295875"></rtept><rtept lat="44.588414" lon="-122.297768"></rtept><rtept lat="44.588415" lon="-122.300695"></rtept><rtept lat="44.588415" lon="-122.303368"></rtept><rtept lat="44.588415" lon="-122.305721"></rtept><rtept lat="44.588412" lon="-122.306818"></rtept></rte><rte><name>HALLELUJAH MINE</name><type>Area</type><extensions><onx:style>dot</onx:style><onx:weight>4.0</onx:weight><onx:color>rgba(255, 51, 0, 1)</onx:color></extensions><rtept lat="44.581231" lon="-122.320875"></rtept><rtept lat="44.581227" lon="-122.315838"></rtept><rtept lat="44.577629" lon="-122.315851"></rtept><rtept lat="44.574031" lon="-122.315864"></rtept><rtept lat="44.574035" lon="-122.320897"></rtept><rtept lat="44.574039" lon="-122.325929"></rtept><rtept lat="44.574063" lon="-122.330751"></rtept><rtept lat="44.574087" lon="-122.335572"></rtept><rtept lat="44.577686" lon="-122.335641"></rtept><rtept lat="44.581284" lon="-122.335710"></rtept><rtept lat="44.581259" lon="-122.330811"></rtept><rtept lat="44.581234" lon="-122.325912"></rtept><rtept lat="44.581231" lon="-122.320875"></rtept></rte><rte><name>RIVERSIDE</name><type>Area</type><extensions><onx:style>dot</onx:style><onx:weight>4.0</onx:weight><onx:color>rgba(255, 51, 0, 1)</onx:color></extensions><rtept lat="44.570462" lon="-122.335641"></rtept><rtept lat="44.574087" lon="-122.335572"></rtept><rtept lat="44.577686" lon="-122.335641"></rtept><rtept lat="44.581284" lon="-122.335710"></rtept><rtept lat="44.581259" lon="-122.330811"></rtept><rtept lat="44.581234" lon="-122.325912"></rtept><rtept lat="44.577637" lon="-122.325921"></rtept><rtept lat="44.574039" lon="-122.325929"></rtept><rtept lat="44.570409" lon="-122.325928"></rtept><rtept lat="44.566778" lon="-122.325928"></rtept><rtept lat="44.566808" lon="-122.330819"></rtept><rtept lat="44.566838" lon="-122.335710"></rtept><rtept lat="44.570462" lon="-122.335641"></rtept></rte><rte><name>LUCKY GALENA</name><type>Area</type><extensions><onx:style>dot</onx:style><onx:weight>4.0</onx:weight><onx:color>rgba(255, 51, 0, 1)</onx:color></extensions><rtept lat="44.559551" lon="-122.331612"></rtept><rtept lat="44.559580" lon="-122.335848"></rtept><rtept lat="44.563209" lon="-122.335779"></rtept><rtept lat="44.566838" lon="-122.335710"></rtept><rtept lat="44.566808" lon="-122.330819"></rtept><rtept lat="44.566778" lon="-122.325928"></rtept><rtept lat="44.563147" lon="-122.325927"></rtept><rtept lat="44.559517" lon="-122.325926"></rtept><rtept lat="44.559518" lon="-122.326506"></rtept><rtept lat="44.559550" lon="-122.330887"></rtept><rtept lat="44.559551" lon="-122.331612"></rtept></rte><rte><name>PHANTOM GOLD ANGEL</name><type>Area</type><extensions><onx:style>dot</onx:style><onx:weight>4.0</onx:weight><onx:color>rgba(255, 51, 0, 1)</onx:color></extensions><rtept lat="44.557652" lon="-122.326508"></rtept><rtept lat="44.559518" lon="-122.326506"></rtept><rtept lat="44.559550" lon="-122.330887"></rtept><rtept lat="44.559551" lon="-122.331612"></rtept><rtept lat="44.559580" lon="-122.335848"></rtept><rtept lat="44.563209" lon="-122.335779"></rtept><rtept lat="44.566838" lon="-122.335710"></rtept><rtept lat="44.566808" lon="-122.330819"></rtept><rtept lat="44.566778" lon="-122.325928"></rtept><rtept lat="44.566792" lon="-122.320934"></rtept><rtept lat="44.566806" lon="-122.315940"></rtept><rtept lat="44.563188" lon="-122.315978"></rtept><rtept lat="44.559570" lon="-122.316016"></rtept><rtept lat="44.559568" lon="-122.316377"></rtept><rtept lat="44.557559" lon="-122.316405"></rtept><rtept lat="44.553918" lon="-122.316456"></rtept><rtept lat="44.553975" lon="-122.321488"></rtept><rtept lat="44.554032" lon="-122.326521"></rtept><rtept lat="44.557652" lon="-122.326508"></rtept></rte><rte><name>GOLD CREEK</name><type>Area</type><extensions><onx:style>dot</onx:style><onx:weight>4.0</onx:weight><onx:color>rgba(255, 51, 0, 1)</onx:color></extensions><rtept lat="44.574057" lon="-122.280673"></rtept><rtept lat="44.574033" lon="-122.285741"></rtept><rtept lat="44.577628" lon="-122.285710"></rtept><rtept lat="44.581222" lon="-122.285679"></rtept><rtept lat="44.581243" lon="-122.280614"></rtept><rtept lat="44.581263" lon="-122.275549"></rtept><rtept lat="44.577672" lon="-122.275577"></rtept><rtept lat="44.574081" lon="-122.275605"></rtept><rtept lat="44.574057" lon="-122.280673"></rtept></rte><rte><name>M AND M 1</name><type>Area</type><extensions><onx:style>dot</onx:style><onx:weight>4.0</onx:weight><onx:color>rgba(255, 51, 0, 1)</onx:color></extensions><rtept lat="44.566883" lon="-122.280742"></rtept><rtept lat="44.566856" lon="-122.285809"></rtept><rtept lat="44.570444" lon="-122.285775"></rtept><rtept lat="44.574033" lon="-122.285741"></rtept><rtept lat="44.574057" lon="-122.280673"></rtept><rtept lat="44.574081" lon="-122.275605"></rtept><rtept lat="44.570496" lon="-122.275640"></rtept><rtept lat="44.566911" lon="-122.275674"></rtept><rtept lat="44.566883" lon="-122.280742"></rtept></rte><rte><name>M AND M 2</name><type>Area</type><extensions><onx:style>dot</onx:style><onx:weight>4.0</onx:weight><onx:color>rgba(255, 51, 0, 1)</onx:color></extensions><rtept lat="44.566883" lon="-122.280742"></rtept><rtept lat="44.566856" lon="-122.285809"></rtept><rtept lat="44.570444" lon="-122.285775"></rtept><rtept lat="44.574033" lon="-122.285741"></rtept><rtept lat="44.574057" lon="-122.280673"></rtept><rtept lat="44.574081" lon="-122.275605"></rtept><rtept lat="44.570496" lon="-122.275640"></rtept><rtept lat="44.566911" lon="-122.275674"></rtept><rtept lat="44.566883" lon="-122.280742"></rtept></rte><rte><name>M &amp; M 2</name><type>Area</type><extensions><onx:style>dot</onx:style><onx:weight>4.0</onx:weight><onx:color>rgba(255, 51, 0, 1)</onx:color></extensions><rtept lat="44.566883" lon="-122.280742"></rtept><rtept lat="44.566856" lon="-122.285809"></rtept><rtept lat="44.570444" lon="-122.285775"></rtept><rtept lat="44.574033" lon="-122.285741"></rtept><rtept lat="44.574057" lon="-122.280673"></rtept><rtept lat="44.574081" lon="-122.275605"></rtept><rtept lat="44.570496" lon="-122.275640"></rtept><rtept lat="44.566911" lon="-122.275674"></rtept><rtept lat="44.566883" lon="-122.280742"></rtept></rte><rte><name>M &amp; M 3</name><type>Area</type><extensions><onx:style>dot</onx:style><onx:weight>4.0</onx:weight><onx:color>rgba(255, 51, 0, 1)</onx:color></extensions><rtept lat="44.566883" lon="-122.280742"></rtept><rtept lat="44.566856" lon="-122.285809"></rtept><rtept lat="44.570444" lon="-122.285775"></rtept><rtept lat="44.574033" lon="-122.285741"></rtept><rtept lat="44.574057" lon="-122.280673"></rtept><rtept lat="44.574081" lon="-122.275605"></rtept><rtept lat="44.570496" lon="-122.275640"></rtept><rtept lat="44.566911" lon="-122.275674"></rtept><rtept lat="44.566883" lon="-122.280742"></rtept></rte><rte><name>XPNSV HOBBY</name><type>Area</type><extensions><onx:style>dot</onx:style><onx:weight>4.0</onx:weight><onx:color>rgba(255, 51, 0, 1)</onx:color></extensions><rtept lat="44.631319" lon="-122.315565"></rtept><rtept lat="44.627737" lon="-122.315589"></rtept><rtept lat="44.624155" lon="-122.315612"></rtept><rtept lat="44.624144" lon="-122.320447"></rtept><rtept lat="44.624133" lon="-122.325282"></rtept><rtept lat="44.627720" lon="-122.325456"></rtept><rtept lat="44.631308" lon="-122.325630"></rtept><rtept lat="44.631314" lon="-122.320598"></rtept><rtept lat="44.631319" lon="-122.315565"></rtept></rte><rte><name>Pappy 1</name><type>Area</type><extensions><onx:style>dot</onx:style><onx:weight>4.0</onx:weight><onx:color>rgba(255, 51, 0, 1)</onx:color></extensions><rtept lat="44.557358" lon="-122.275801"></rtept><rtept lat="44.557393" lon="-122.280848"></rtept><rtept lat="44.553780" lon="-122.280907"></rtept><rtept lat="44.550171" lon="-122.281039"></rtept><rtept lat="44.550197" lon="-122.286097"></rtept><rtept lat="44.550203" lon="-122.288657"></rtept><rtept lat="44.552006" lon="-122.288579"></rtept><rtept lat="44.553809" lon="-122.288500"></rtept><rtept lat="44.553810" lon="-122.285922"></rtept><rtept lat="44.557428" lon="-122.285891"></rtept><rtept lat="44.559678" lon="-122.285878"></rtept><rtept lat="44.559709" lon="-122.280810"></rtept><rtept lat="44.561502" lon="-122.280793"></rtept><rtept lat="44.561517" lon="-122.278259"></rtept><rtept lat="44.561532" lon="-122.275725"></rtept><rtept lat="44.559739" lon="-122.275742"></rtept><rtept lat="44.557358" lon="-122.275801"></rtept></rte><rte><name>xpnsv ext</name><type>Area</type><extensions><onx:style>dot</onx:style><onx:weight>4.0</onx:weight><onx:color>rgba(255, 51, 0, 1)</onx:color></extensions><rtept lat="44.581222" lon="-122.285679"></rtept><rtept lat="44.577628" lon="-122.285710"></rtept><rtept lat="44.574033" lon="-122.285741"></rtept><rtept lat="44.574030" lon="-122.290756"></rtept><rtept lat="44.574028" lon="-122.295770"></rtept><rtept lat="44.577625" lon="-122.295745"></rtept><rtept lat="44.581221" lon="-122.295720"></rtept><rtept lat="44.581222" lon="-122.290699"></rtept><rtept lat="44.581222" lon="-122.285679"></rtept></rte><rte><name>Galena 1</name><type>Area</type><extensions><onx:style>dot</onx:style><onx:weight>4.0</onx:weight><onx:color>rgba(255, 51, 0, 1)</onx:color></extensions><rtept lat="44.566778" lon="-122.325928"></rtept><rtept lat="44.566808" lon="-122.330819"></rtept><rtept lat="44.570436" lon="-122.330785"></rtept><rtept lat="44.570409" lon="-122.325928"></rtept><rtept lat="44.566778" lon="-122.325928"></rtept></rte><rte><name>DENWEL PLACER 1</name><type>Area</type><extensions><onx:style>dot</onx:style><onx:weight>4.0</onx:weight><onx:color>rgba(255, 51, 0, 1)</onx:color></extensions><rtept lat="44.581259" lon="-122.330811"></rtept><rtept lat="44.579460" lon="-122.330796"></rtept><rtept lat="44.579472" lon="-122.333236"></rtept><rtept lat="44.579485" lon="-122.335675"></rtept><rtept lat="44.581284" lon="-122.335710"></rtept><rtept lat="44.581272" lon="-122.333261"></rtept><rtept lat="44.581259" lon="-122.330811"></rtept></rte><rte><name>XPNSV GT.A.WY 2</name><type>Area</type><extensions><onx:style>dot</onx:style><onx:weight>4.0</onx:weight><onx:color>rgba(255, 51, 0, 1)</onx:color></extensions><rtept lat="44.599137" lon="-122.310682"></rtept><rtept lat="44.602704" lon="-122.310654"></rtept><rtept lat="44.602726" lon="-122.305592"></rtept><rtept lat="44.599148" lon="-122.305625"></rtept><rtept lat="44.599137" lon="-122.310682"></rtept></rte><rte><name>Lucky Strike</name><type>Area</type><extensions><onx:style>dot</onx:style><onx:weight>4.0</onx:weight><onx:color>rgba(255, 51, 0, 1)</onx:color></extensions><rtept lat="44.588414" lon="-122.297768"></rtept><rtept lat="44.588415" lon="-122.300695"></rtept><rtept lat="44.588415" lon="-122.303368"></rtept><rtept lat="44.588415" lon="-122.305721"></rtept><rtept lat="44.589517" lon="-122.305711"></rtept><rtept lat="44.591993" lon="-122.305689"></rtept><rtept lat="44.593558" lon="-122.305675"></rtept><rtept lat="44.595084" lon="-122.305661"></rtept><rtept lat="44.595571" lon="-122.305657"></rtept><rtept lat="44.599148" lon="-122.305625"></rtept><rtept lat="44.602726" lon="-122.305592"></rtept><rtept lat="44.602739" lon="-122.300562"></rtept><rtept lat="44.602753" lon="-122.295532"></rtept><rtept lat="44.602756" lon="-122.294536"></rtept><rtept lat="44.602764" lon="-122.291391"></rtept><rtept lat="44.602765" lon="-122.291080"></rtept><rtept lat="44.602767" lon="-122.290502"></rtept><rtept lat="44.602773" lon="-122.288063"></rtept><rtept lat="44.602780" lon="-122.285471"></rtept><rtept lat="44.599188" lon="-122.285508"></rtept><rtept lat="44.595596" lon="-122.285544"></rtept><rtept lat="44.592004" lon="-122.285580"></rtept><rtept lat="44.588412" lon="-122.285617"></rtept><rtept lat="44.588413" lon="-122.290643"></rtept><rtept lat="44.588414" lon="-122.295669"></rtept><rtept lat="44.588414" lon="-122.295875"></rtept><rtept lat="44.588414" lon="-122.297768"></rtept></rte><rte><name>QCPGP</name><type>Area</type><extensions><onx:style>dot</onx:style><onx:weight>4.0</onx:weight><onx:color>rgba(255, 51, 0, 1)</onx:color></extensions><rtept lat="44.579436" lon="-122.325917"></rtept><rtept lat="44.577637" lon="-122.325921"></rtept><rtept lat="44.577649" lon="-122.328351"></rtept><rtept lat="44.577661" lon="-122.330781"></rtept><rtept lat="44.579460" lon="-122.330796"></rtept><rtept lat="44.579448" lon="-122.328356"></rtept><rtept lat="44.579436" lon="-122.325917"></rtept></rte><rte><name>Norma jean</name><type>Area</type><extensions><onx:style>dot</onx:style><onx:weight>4.0</onx:weight><onx:color>rgba(255, 51, 0, 1)</onx:color></extensions><rtept lat="44.606350" lon="-122.290489"></rtept><rtept lat="44.609934" lon="-122.290476"></rtept><rtept lat="44.609954" lon="-122.285443"></rtept><rtept lat="44.606367" lon="-122.285457"></rtept><rtept lat="44.606350" lon="-122.290489"></rtept></rte><rte><name>LOST MAN'S CANYON</name><type>Area</type><extensions><onx:style>dot</onx:style><onx:weight>4.0</onx:weight><onx:color>rgba(255, 51, 0, 1)</onx:color></extensions><rtept lat="44.506859" lon="-122.482631"></rtept><rtept lat="44.507023" lon="-122.477620"></rtept><rtept lat="44.507186" lon="-122.472610"></rtept><rtept lat="44.503701" lon="-122.472597"></rtept><rtept lat="44.500215" lon="-122.472583"></rtept><rtept lat="44.500178" lon="-122.474180"></rtept><rtept lat="44.500150" lon="-122.475428"></rtept><rtept lat="44.500105" lon="-122.477395"></rtept><rtept lat="44.499994" lon="-122.482207"></rtept><rtept lat="44.503427" lon="-122.482419"></rtept><rtept lat="44.506859" lon="-122.482631"></rtept></rte><rte><name>Lumlandia2</name><type>Area</type><extensions><onx:style>dot</onx:style><onx:weight>4.0</onx:weight><onx:color>rgba(255, 51, 0, 1)</onx:color></extensions><rtept lat="44.609874" lon="-122.305576"></rtept><rtept lat="44.613448" lon="-122.305568"></rtept><rtept lat="44.613471" lon="-122.300533"></rtept><rtept lat="44.609894" lon="-122.300543"></rtept><rtept lat="44.609874" lon="-122.305576"></rtept></rte><rte><name>Accident Mine 1</name><type>Area</type><extensions><onx:style>dot</onx:style><onx:weight>4.0</onx:weight><onx:color>rgba(255, 51, 0, 1)</onx:color></extensions><rtept lat="44.588413" lon="-122.290643"></rtept><rtept lat="44.588414" lon="-122.295669"></rtept><rtept lat="44.588414" lon="-122.295875"></rtept><rtept lat="44.588414" lon="-122.297768"></rtept><rtept lat="44.588415" lon="-122.300695"></rtept><rtept lat="44.588415" lon="-122.303368"></rtept><rtept lat="44.588415" lon="-122.305721"></rtept><rtept lat="44.589517" lon="-122.305711"></rtept><rtept lat="44.591993" lon="-122.305689"></rtept><rtept lat="44.593558" lon="-122.305675"></rtept><rtept lat="44.595084" lon="-122.305661"></rtept><rtept lat="44.595571" lon="-122.305657"></rtept><rtept lat="44.599148" lon="-122.305625"></rtept><rtept lat="44.602726" lon="-122.305592"></rtept><rtept lat="44.602739" lon="-122.300562"></rtept><rtept lat="44.602753" lon="-122.295532"></rtept><rtept lat="44.602756" lon="-122.294536"></rtept><rtept lat="44.602764" lon="-122.291391"></rtept><rtept lat="44.602765" lon="-122.291080"></rtept><rtept lat="44.602767" lon="-122.290502"></rtept><rtept lat="44.602773" lon="-122.288063"></rtept><rtept lat="44.602780" lon="-122.285471"></rtept><rtept lat="44.599188" lon="-122.285508"></rtept><rtept lat="44.595596" lon="-122.285544"></rtept><rtept lat="44.592004" lon="-122.285580"></rtept><rtept lat="44.588412" lon="-122.285617"></rtept><rtept lat="44.588413" lon="-122.290643"></rtept></rte></gpx>