<?xml version="1.0" encoding="UTF-8"?>
<gpx xmlns:xsi="http://www.w3.org/2001/XMLSchema-instance" xmlns="http://www.topografix.com/GPX/1/1" xmlns:onx="http://www.onxmaps.com" xsi:schemaLocation="http://www.topografix.com/GPX/1/1 http://www.topografix.com/GPX/1/1/gpx.xsd" version="1.1" creator="onXmaps hunt ios"><wpt lat="44.587624" lon="-122.305876"><name>Pit - Quartzville</name><desc>10 source record(s) merged within 75m | src: MILO, USMIN</desc><extensions><onx:icon>Location</onx:icon><onx:color>rgba(0, 0, 0, 1)</onx:color></extensions></wpt><wpt lat="44.582705" lon="-122.310545"><name>Pit - Quartzville</name><desc>4 source record(s) merged within 75m | src: MILO, USMIN</desc><extensions><onx:icon>Location</onx:icon><onx:color>rgba(0, 0, 0, 1)</onx:color></extensions></wpt><wpt lat="44.572581" lon="-122.291757"><name>Pit - Quartzville</name><desc>2 source record(s) merged within 75m | src: MILO, USMIN</desc><extensions><onx:icon>Location</onx:icon><onx:color>rgba(0, 0, 0, 1)</onx:color></extensions></wpt><wpt lat="44.599738" lon="-122.301354"><name>Pit - Quartzville</name><desc>3 source record(s) merged within 75m | src: MILO, USMIN</desc><extensions><onx:icon>Location</onx:icon><onx:color>rgba(0, 0, 0, 1)</onx:color></extensions></wpt><wpt lat="44.601526" lon="-122.314542"><name>Pit - Quartzville</name><desc>4 source record(s) merged within 75m | src: MILO, USMIN</desc><extensions><onx:icon>Location</onx:icon><onx:color>rgba(0, 0, 0, 1)</onx:color></extensions></wpt><wpt lat="44.607703" lon="-122.318319"><name>Pit - Quartzville</name><desc>2 source record(s) merged within 75m | src: MILO, USMIN</desc><extensions><onx:icon>Location</onx:icon><onx:color>rgba(0, 0, 0, 1)</onx:color></extensions></wpt><wpt lat="44.546637" lon="-122.258083"><name>Pit - Quartzville</name><desc>2 source record(s) merged within 75m | src: MILO, USMIN</desc><extensions><onx:icon>Location</onx:icon><onx:color>rgba(0, 0, 0, 1)</onx:color></extensions></wpt><wpt lat="44.604876" lon="-122.292337"><name>Adit - Quartzville</name><desc>7 source record(s) merged within 75m | src: MILO, USMIN</desc><extensions><onx:icon>Location</onx:icon><onx:color>rgba(0, 0, 0, 1)</onx:color></extensions></wpt><wpt lat="44.589591" lon="-122.309196"><name>Pit - Quartzville</name><desc>3 source record(s) merged within 75m | src: MILO, USMIN</desc><extensions><onx:icon>Location</onx:icon><onx:color>rgba(0, 0, 0, 1)</onx:color></extensions></wpt><wpt lat="44.601158" lon="-122.309788"><name>Pit - Quartzville</name><desc>2 source record(s) merged within 75m | src: MILO, USMIN</desc><extensions><onx:icon>Location</onx:icon><onx:color>rgba(0, 0, 0, 1)</onx:color></extensions></wpt><wpt lat="44.582345" lon="-122.311561"><name>Pit - Quartzville</name><desc>2 source record(s) merged within 75m | src: MILO, USMIN</desc><extensions><onx:icon>Location</onx:icon><onx:color>rgba(0, 0, 0, 1)</onx:color></extensions></wpt><wpt lat="44.588063" lon="-122.304707"><name>Pit - Quartzville</name><desc>4 source record(s) merged within 75m | src: MILO, USMIN</desc><extensions><onx:icon>Location</onx:icon><onx:color>rgba(0, 0, 0, 1)</onx:color></extensions></wpt><wpt lat="44.547490" lon="-122.275085"><name>Pit - Quartzville</name><desc>2 source record(s) merged within 75m | src: MILO, USMIN</desc><extensions><onx:icon>Location</onx:icon><onx:color>rgba(0, 0, 0, 1)</onx:color></extensions></wpt><wpt lat="44.593119" lon="-122.311958"><name>Pit - Quartzville</name><desc>3 source record(s) merged within 75m | src: MILO, USMIN</desc><extensions><onx:icon>Location</onx:icon><onx:color>rgba(0, 0, 0, 1)</onx:color></extensions></wpt><wpt lat="44.568701" lon="-122.281499"><name>Pit - Quartzville</name><desc>2 source record(s) merged within 75m | src: MILO, USMIN</desc><extensions><onx:icon>Location</onx:icon><onx:color>rgba(0, 0, 0, 1)</onx:color></extensions></wpt><wpt lat="44.599145" lon="-122.310541"><name>Adit - Quartzville</name><desc>7 source record(s) merged within 75m | src: MILO, USMIN</desc><extensions><onx:icon>Location</onx:icon><onx:color>rgba(0, 0, 0, 1)</onx:color></extensions></wpt><wpt lat="44.603031" lon="-122.315912"><name>Adit - Quartzville</name><desc>3 source record(s) merged within 75m | src: MILO, USMIN</desc><extensions><onx:icon>Location</onx:icon><onx:color>rgba(0, 0, 0, 1)</onx:color></extensions></wpt><wpt lat="44.592817" lon="-122.300107"><name>Adit - Quartzville</name><desc>2 source record(s) merged within 75m | src: MILO, USMIN</desc><extensions><onx:icon>Location</onx:icon><onx:color>rgba(0, 0, 0, 1)</onx:color></extensions></wpt><wpt lat="44.592035" lon="-122.301239"><name>Adit - Quartzville</name><desc>2 source record(s) merged within 75m | src: MILO, USMIN</desc><extensions><onx:icon>Location</onx:icon><onx:color>rgba(0, 0, 0, 1)</onx:color></extensions></wpt><wpt lat="44.594419" lon="-122.301193"><name>Adit - Quartzville</name><desc>1 source record(s) merged within 75m | src: USMIN</desc><extensions><onx:icon>Location</onx:icon><onx:color>rgba(0, 0, 0, 1)</onx:color></extensions></wpt><wpt lat="44.552785" lon="-122.285860"><name>Adit - Quartzville</name><desc>2 source record(s) merged within 75m | src: MILO, USMIN</desc><extensions><onx:icon>Location</onx:icon><onx:color>rgba(0, 0, 0, 1)</onx:color></extensions></wpt><wpt lat="44.603705" lon="-122.321450"><name>Adit - Quartzville</name><desc>5 source record(s) merged within 75m | src: MILO, USMIN</desc><extensions><onx:icon>Location</onx:icon><onx:color>rgba(0, 0, 0, 1)</onx:color></extensions></wpt><wpt lat="44.593672" lon="-122.299872"><name>Adit - Quartzville</name><desc>3 source record(s) merged within 75m | src: MILO, USMIN</desc><extensions><onx:icon>Location</onx:icon><onx:color>rgba(0, 0, 0, 1)</onx:color></extensions></wpt><wpt lat="44.596822" lon="-122.298372"><name>Placer - Albany Group Tunnel No…</name><desc>4 source record(s) merged within 75m | src: MILO, MRDS, USMIN</desc><extensions><onx:icon>Mineral Site</onx:icon><onx:color>rgba(0, 0, 0, 1)</onx:color></extensions></wpt><wpt lat="44.589555" lon="-122.298781"><name>Adit - Quartzville</name><desc>2 source record(s) merged within 75m | src: USMIN</desc><extensions><onx:icon>Location</onx:icon><onx:color>rgba(0, 0, 0, 1)</onx:color></extensions></wpt><wpt lat="44.591534" lon="-122.311217"><name>Adit - Quartzville</name><desc>2 source record(s) merged within 75m | src: MILO, USMIN</desc><extensions><onx:icon>Location</onx:icon><onx:color>rgba(0, 0, 0, 1)</onx:color></extensions></wpt><wpt lat="44.589897" lon="-122.301242"><name>Adit - Quartzville</name><desc>2 source record(s) merged within 75m | src: MILO, USMIN</desc><extensions><onx:icon>Location</onx:icon><onx:color>rgba(0, 0, 0, 1)</onx:color></extensions></wpt><wpt lat="44.600015" lon="-122.310608"><name>Adit - Quartzville</name><desc>10 source record(s) merged within 75m | src: MILO, USMIN</desc><extensions><onx:icon>Location</onx:icon><onx:color>rgba(0, 0, 0, 1)</onx:color></extensions></wpt><wpt lat="44.591742" lon="-122.303011"><name>Adit - Quartzville</name><desc>3 source record(s) merged within 75m | src: MILO, USMIN</desc><extensions><onx:icon>Location</onx:icon><onx:color>rgba(0, 0, 0, 1)</onx:color></extensions></wpt><wpt lat="44.592575" lon="-122.303770"><name>Adit - Quartzville</name><desc>1 source record(s) merged within 75m | src: USMIN</desc><extensions><onx:icon>Location</onx:icon><onx:color>rgba(0, 0, 0, 1)</onx:color></extensions></wpt><wpt lat="44.562098" lon="-122.281814"><name>Adit - Quartzville</name><desc>1 source record(s) merged within 75m | src: USMIN</desc><extensions><onx:icon>Location</onx:icon><onx:color>rgba(0, 0, 0, 1)</onx:color></extensions></wpt><wpt lat="44.600815" lon="-122.311886"><name>Adit - Quartzville</name><desc>6 source record(s) merged within 75m | src: MILO, USMIN</desc><extensions><onx:icon>Location</onx:icon><onx:color>rgba(0, 0, 0, 1)</onx:color></extensions></wpt><wpt lat="44.581465" lon="-122.309103"><name>Adit - Quartzville</name><desc>3 source record(s) merged within 75m | src: MILO, USMIN</desc><extensions><onx:icon>Location</onx:icon><onx:color>rgba(0, 0, 0, 1)</onx:color></extensions></wpt><wpt lat="44.598792" lon="-122.313728"><name>Adit - Quartzville</name><desc>2 source record(s) merged within 75m | src: MILO, USMIN</desc><extensions><onx:icon>Location</onx:icon><onx:color>rgba(0, 0, 0, 1)</onx:color></extensions></wpt><wpt lat="44.605729" lon="-122.317151"><name>Mine - Wakefield Claim Tunnel 1…</name><desc>1 source record(s) merged within 75m | src: MILO</desc><extensions><onx:icon>Location</onx:icon><onx:color>rgba(0, 0, 0, 1)</onx:color></extensions></wpt><wpt lat="44.609573" lon="-122.315094"><name>Mine - North Queen</name><desc>1 source record(s) merged within 75m | src: MILO</desc><extensions><onx:icon>Location</onx:icon><onx:color>rgba(0, 0, 0, 1)</onx:color></extensions></wpt><wpt lat="44.602638" lon="-122.292888"><name>Mine - Albany Group, Red Heifer…</name><desc>4 source record(s) merged within 75m | src: MILO</desc><extensions><onx:icon>Location</onx:icon><onx:color>rgba(0, 0, 0, 1)</onx:color></extensions></wpt><wpt lat="44.604879" lon="-122.298666"><name>Mine - Hastings</name><desc>2 source record(s) merged within 75m | src: MILO</desc><extensions><onx:icon>Location</onx:icon><onx:color>rgba(0, 0, 0, 1)</onx:color></extensions></wpt><wpt lat="44.606108" lon="-122.269482"><name>Mine - Peak and Dwarf</name><desc>3 source record(s) merged within 75m | src: MILO, MRDS</desc><extensions><onx:icon>Location</onx:icon><onx:color>rgba(0, 0, 0, 1)</onx:color></extensions></wpt><wpt lat="44.607075" lon="-122.274816"><name>Mine - Hoot-En-Anne</name><desc>1 source record(s) merged within 75m | src: MILO</desc><extensions><onx:icon>Location</onx:icon><onx:color>rgba(0, 0, 0, 1)</onx:color></extensions></wpt><wpt lat="44.589105" lon="-122.365503"><name>Mine - Houf Property</name><desc>1 source record(s) merged within 75m | src: MILO</desc><extensions><onx:icon>Location</onx:icon><onx:color>rgba(0, 0, 0, 1)</onx:color></extensions></wpt><wpt lat="44.601224" lon="-122.337868"><name>Mine - gold mine</name><desc>2 source record(s) merged within 75m | src: MILO, MRDS</desc><extensions><onx:icon>Location</onx:icon><onx:color>rgba(0, 0, 0, 1)</onx:color></extensions></wpt><wpt lat="44.591518" lon="-122.307593"><name>Mine - Lawler</name><desc>1 source record(s) merged within 75m | src: MILO</desc><extensions><onx:icon>Location</onx:icon><onx:color>rgba(0, 0, 0, 1)</onx:color></extensions></wpt><wpt lat="44.598315" lon="-122.315394"><name>Mine - Quartzville</name><desc>1 source record(s) merged within 75m | src: MILO</desc><extensions><onx:icon>Location</onx:icon><onx:color>rgba(0, 0, 0, 1)</onx:color></extensions></wpt><wpt lat="44.601621" lon="-122.298910"><name>Mine - Skookum claim</name><desc>1 source record(s) merged within 75m | src: MILO</desc><extensions><onx:icon>Location</onx:icon><onx:color>rgba(0, 0, 0, 1)</onx:color></extensions></wpt><wpt lat="44.596964" lon="-122.303962"><name>Mine - Bic Mac</name><desc>2 source record(s) merged within 75m | src: MILO, MRDS</desc><extensions><onx:icon>Location</onx:icon><onx:color>rgba(0, 0, 0, 1)</onx:color></extensions></wpt><wpt lat="44.598828" lon="-122.302156"><name>Mine - Doodlebug</name><desc>3 source record(s) merged within 75m | src: MILO, MRDS</desc><extensions><onx:icon>Location</onx:icon><onx:color>rgba(0, 0, 0, 1)</onx:color></extensions></wpt><wpt lat="44.601238" lon="-122.301757"><name>Mine - Munro</name><desc>1 source record(s) merged within 75m | src: MILO</desc><extensions><onx:icon>Location</onx:icon><onx:color>rgba(0, 0, 0, 1)</onx:color></extensions></wpt><wpt lat="44.596718" lon="-122.296945"><name>Mine - Albany (Mountain Queen C…</name><desc>1 source record(s) merged within 75m | src: MILO</desc><extensions><onx:icon>Location</onx:icon><onx:color>rgba(0, 0, 0, 1)</onx:color></extensions></wpt><wpt lat="44.600406" lon="-122.295645"><name>Mine - Albany Group, Marion (Mo…</name><desc>1 source record(s) merged within 75m | src: MILO</desc><extensions><onx:icon>Location</onx:icon><onx:color>rgba(0, 0, 0, 1)</onx:color></extensions></wpt><wpt lat="44.589976" lon="-122.299579"><name>Mine - Worlds Fair claim Disc.…</name><desc>1 source record(s) merged within 75m | src: MILO</desc><extensions><onx:icon>Location</onx:icon><onx:color>rgba(0, 0, 0, 1)</onx:color></extensions></wpt><wpt lat="44.588512" lon="-122.290430"><name>Mine - Accident</name><desc>2 source record(s) merged within 75m | src: MILO</desc><extensions><onx:icon>Location</onx:icon><onx:color>rgba(0, 0, 0, 1)</onx:color></extensions></wpt><wpt lat="44.578631" lon="-122.308080"><name>Mine - Riverside Claim (Riversi…</name><desc>1 source record(s) merged within 75m | src: MILO</desc><extensions><onx:icon>Location</onx:icon><onx:color>rgba(0, 0, 0, 1)</onx:color></extensions></wpt><wpt lat="44.578821" lon="-122.303405"><name>Mine - Relief Property</name><desc>2 source record(s) merged within 75m | src: MILO</desc><extensions><onx:icon>Location</onx:icon><onx:color>rgba(0, 0, 0, 1)</onx:color></extensions></wpt><wpt lat="44.582461" lon="-122.305825"><name>Mine - Highland Chief</name><desc>1 source record(s) merged within 75m | src: MILO</desc><extensions><onx:icon>Location</onx:icon><onx:color>rgba(0, 0, 0, 1)</onx:color></extensions></wpt><wpt lat="44.564958" lon="-122.309049"><name>Mine - Savage Group</name><desc>1 source record(s) merged within 75m | src: MILO</desc><extensions><onx:icon>Location</onx:icon><onx:color>rgba(0, 0, 0, 1)</onx:color></extensions></wpt><wpt lat="44.575622" lon="-122.293964"><name>Mine - Winter claim</name><desc>1 source record(s) merged within 75m | src: MILO</desc><extensions><onx:icon>Location</onx:icon><onx:color>rgba(0, 0, 0, 1)</onx:color></extensions></wpt><wpt lat="44.567413" lon="-122.304838"><name>Mine - Columbia</name><desc>1 source record(s) merged within 75m | src: MILO</desc><extensions><onx:icon>Location</onx:icon><onx:color>rgba(0, 0, 0, 1)</onx:color></extensions></wpt><wpt lat="44.554856" lon="-122.275910"><name>Placer - Forty-Four Mines</name><desc>2 source record(s) merged within 75m | src: MILO</desc><extensions><onx:icon>Mineral Site</onx:icon><onx:color>rgba(0, 0, 0, 1)</onx:color></extensions></wpt><wpt lat="44.547849" lon="-122.283227"><name>Mine - Paymaster claim</name><desc>1 source record(s) merged within 75m | src: MILO</desc><extensions><onx:icon>Location</onx:icon><onx:color>rgba(0, 0, 0, 1)</onx:color></extensions></wpt><wpt lat="44.542025" lon="-122.299124"><name>Mine - Galena</name><desc>1 source record(s) merged within 75m | src: MILO</desc><extensions><onx:icon>Location</onx:icon><onx:color>rgba(0, 0, 0, 1)</onx:color></extensions></wpt><wpt lat="44.604182" lon="-122.314140"><name>Mine - Wakefield Claim Disc. cu…</name><desc>1 source record(s) merged within 75m | src: MILO</desc><extensions><onx:icon>Location</onx:icon><onx:color>rgba(0, 0, 0, 1)</onx:color></extensions></wpt><wpt lat="44.599735" lon="-122.312454"><name>Mine - Lucille (Bell Claim) dis…</name><desc>2 source record(s) merged within 75m | src: MILO</desc><extensions><onx:icon>Location</onx:icon><onx:color>rgba(0, 0, 0, 1)</onx:color></extensions></wpt><wpt lat="44.585964" lon="-122.166759"><name>Mine - gold mine</name><desc>1 source record(s) merged within 75m | src: MILO</desc><extensions><onx:icon>Location</onx:icon><onx:color>rgba(0, 0, 0, 1)</onx:color></extensions></wpt><wpt lat="44.594875" lon="-122.296376"><name>Placer - Albany Group, Bonanza…</name><desc>4 source record(s) merged within 75m | src: MILO</desc><extensions><onx:icon>Mineral Site</onx:icon><onx:color>rgba(0, 0, 0, 1)</onx:color></extensions></wpt><wpt lat="44.602027" lon="-122.291901"><name>Mine - Albany Group, Red Heifer…</name><desc>3 source record(s) merged within 75m | src: MILO</desc><extensions><onx:icon>Location</onx:icon><onx:color>rgba(0, 0, 0, 1)</onx:color></extensions></wpt><wpt lat="44.602883" lon="-122.319098"><name>Mine - Martha Claim prospect</name><desc>1 source record(s) merged within 75m | src: MILO</desc><extensions><onx:icon>Location</onx:icon><onx:color>rgba(0, 0, 0, 1)</onx:color></extensions></wpt><wpt lat="44.604474" lon="-122.293102"><name>Mine - Betty Claim large open c…</name><desc>1 source record(s) merged within 75m | src: MILO</desc><extensions><onx:icon>Location</onx:icon><onx:color>rgba(0, 0, 0, 1)</onx:color></extensions></wpt><wpt lat="44.593315" lon="-122.305871"><name>Mine - Elk Tunnel</name><desc>1 source record(s) merged within 75m | src: MILO</desc><extensions><onx:icon>Location</onx:icon><onx:color>rgba(0, 0, 0, 1)</onx:color></extensions></wpt><wpt lat="44.590768" lon="-122.310277"><name>Mine - Lawler Consolidated Grou…</name><desc>1 source record(s) merged within 75m | src: MILO</desc><extensions><onx:icon>Location</onx:icon><onx:color>rgba(0, 0, 0, 1)</onx:color></extensions></wpt><wpt lat="44.587137" lon="-122.306716"><name>Mine - Lawler Consolidated Grou…</name><desc>2 source record(s) merged within 75m | src: MILO</desc><extensions><onx:icon>Location</onx:icon><onx:color>rgba(0, 0, 0, 1)</onx:color></extensions></wpt><wpt lat="44.585336" lon="-122.304955"><name>Mine - Lawler Consolidated Grou…</name><desc>1 source record(s) merged within 75m | src: MILO</desc><extensions><onx:icon>Location</onx:icon><onx:color>rgba(0, 0, 0, 1)</onx:color></extensions></wpt><wpt lat="44.586957" lon="-122.304120"><name>Mine - Lawler Consolidated Grou…</name><desc>1 source record(s) merged within 75m | src: MILO</desc><extensions><onx:icon>Location</onx:icon><onx:color>rgba(0, 0, 0, 1)</onx:color></extensions></wpt><wpt lat="44.592096" lon="-122.299290"><name>Mine - Worlds Fair Group, Free…</name><desc>2 source record(s) merged within 75m | src: MILO</desc><extensions><onx:icon>Location</onx:icon><onx:color>rgba(0, 0, 0, 1)</onx:color></extensions></wpt><wpt lat="44.604403" lon="-122.318905"><name>Mine - Ruth Claim tunnel 1</name><desc>8 source record(s) merged within 75m | src: MILO</desc><extensions><onx:icon>Location</onx:icon><onx:color>rgba(0, 0, 0, 1)</onx:color></extensions></wpt><wpt lat="44.602963" lon="-122.314407"><name>Mine - Ruth Claim tunnel 2</name><desc>3 source record(s) merged within 75m | src: MILO</desc><extensions><onx:icon>Location</onx:icon><onx:color>rgba(0, 0, 0, 1)</onx:color></extensions></wpt><wpt lat="44.602262" lon="-122.314691"><name>Mine - Ruth Claim discovery cut</name><desc>1 source record(s) merged within 75m | src: MILO</desc><extensions><onx:icon>Location</onx:icon><onx:color>rgba(0, 0, 0, 1)</onx:color></extensions></wpt><wpt lat="44.603833" lon="-122.320023"><name>Mine - Martha Claim cut 3</name><desc>1 source record(s) merged within 75m | src: MILO</desc><extensions><onx:icon>Location</onx:icon><onx:color>rgba(0, 0, 0, 1)</onx:color></extensions></wpt><wpt lat="44.604663" lon="-122.323990"><name>Mine - Martha Claim cut 4</name><desc>1 source record(s) merged within 75m | src: MILO</desc><extensions><onx:icon>Location</onx:icon><onx:color>rgba(0, 0, 0, 1)</onx:color></extensions></wpt><wpt lat="44.603035" lon="-122.322586"><name>Mine - Pine Squirl Claim, disco…</name><desc>1 source record(s) merged within 75m | src: MILO</desc><extensions><onx:icon>Location</onx:icon><onx:color>rgba(0, 0, 0, 1)</onx:color></extensions></wpt><wpt lat="44.597414" lon="-122.292456"><name>Mine - Albany Group Marion (Mor…</name><desc>2 source record(s) merged within 75m | src: MILO</desc><extensions><onx:icon>Location</onx:icon><onx:color>rgba(0, 0, 0, 1)</onx:color></extensions></wpt><wpt lat="44.599484" lon="-122.294029"><name>Mine - Albany Group (Morning St…</name><desc>1 source record(s) merged within 75m | src: MILO</desc><extensions><onx:icon>Location</onx:icon><onx:color>rgba(0, 0, 0, 1)</onx:color></extensions></wpt><wpt lat="44.599837" lon="-122.292311"><name>Mine - Albany Group (Abe Lincol…</name><desc>3 source record(s) merged within 75m | src: MILO</desc><extensions><onx:icon>Location</onx:icon><onx:color>rgba(0, 0, 0, 1)</onx:color></extensions></wpt><wpt lat="44.599017" lon="-122.295229"><name>Mine - Albany Group (Morning St…</name><desc>1 source record(s) merged within 75m | src: MILO</desc><extensions><onx:icon>Location</onx:icon><onx:color>rgba(0, 0, 0, 1)</onx:color></extensions></wpt><wpt lat="44.598128" lon="-122.297035"><name>Mine - Albany Group (Queen of t…</name><desc>1 source record(s) merged within 75m | src: MILO</desc><extensions><onx:icon>Location</onx:icon><onx:color>rgba(0, 0, 0, 1)</onx:color></extensions></wpt><wpt lat="44.597540" lon="-122.297876"><name>Mine - Albany Group (Mountain K…</name><desc>1 source record(s) merged within 75m | src: MILO</desc><extensions><onx:icon>Location</onx:icon><onx:color>rgba(0, 0, 0, 1)</onx:color></extensions></wpt><wpt lat="44.596133" lon="-122.295697"><name>Mine - Albany (Mountain Queen C…</name><desc>1 source record(s) merged within 75m | src: MILO</desc><extensions><onx:icon>Location</onx:icon><onx:color>rgba(0, 0, 0, 1)</onx:color></extensions></wpt><wpt lat="44.595635" lon="-122.294261"><name>Mine - Albany (Mountain Queen C…</name><desc>1 source record(s) merged within 75m | src: MILO</desc><extensions><onx:icon>Location</onx:icon><onx:color>rgba(0, 0, 0, 1)</onx:color></extensions></wpt><wpt lat="44.594552" lon="-122.292501"><name>Mine - Albany (Murray Claim), D…</name><desc>1 source record(s) merged within 75m | src: MILO</desc><extensions><onx:icon>Location</onx:icon><onx:color>rgba(0, 0, 0, 1)</onx:color></extensions></wpt><wpt lat="44.603945" lon="-122.291457"><name>Mine - Bob Claim discovery cut…</name><desc>2 source record(s) merged within 75m | src: MILO</desc><extensions><onx:icon>Location</onx:icon><onx:color>rgba(0, 0, 0, 1)</onx:color></extensions></wpt><wpt lat="44.603017" lon="-122.289943"><name>Mine - Bob Claim cut (Bob and B…</name><desc>1 source record(s) merged within 75m | src: MILO</desc><extensions><onx:icon>Location</onx:icon><onx:color>rgba(0, 0, 0, 1)</onx:color></extensions></wpt><wpt lat="44.593707" lon="-122.300840"><name>Mine - Tillicum claim tunnel 3</name><desc>1 source record(s) merged within 75m | src: MILO</desc><extensions><onx:icon>Location</onx:icon><onx:color>rgba(0, 0, 0, 1)</onx:color></extensions></wpt><wpt lat="44.608125" lon="-122.320614"><name>Mine - Mother Lode Claim Tunnel…</name><desc>1 source record(s) merged within 75m | src: MILO</desc><extensions><onx:icon>Location</onx:icon><onx:color>rgba(0, 0, 0, 1)</onx:color></extensions></wpt><wpt lat="44.594666" lon="-122.319848"><name>Mine - unnamed or NA</name><desc>2 source record(s) merged within 75m | src: MILO</desc><extensions><onx:icon>Location</onx:icon><onx:color>rgba(0, 0, 0, 1)</onx:color></extensions></wpt><wpt lat="44.597598" lon="-122.321647"><name>Mine - unnamed or NA</name><desc>3 source record(s) merged within 75m | src: MILO</desc><extensions><onx:icon>Location</onx:icon><onx:color>rgba(0, 0, 0, 1)</onx:color></extensions></wpt><wpt lat="44.597006" lon="-122.324699"><name>Mine - unnamed or NA</name><desc>1 source record(s) merged within 75m | src: MILO</desc><extensions><onx:icon>Location</onx:icon><onx:color>rgba(0, 0, 0, 1)</onx:color></extensions></wpt><wpt lat="44.600210" lon="-122.319274"><name>Mine - unnamed or NA</name><desc>1 source record(s) merged within 75m | src: MILO</desc><extensions><onx:icon>Location</onx:icon><onx:color>rgba(0, 0, 0, 1)</onx:color></extensions></wpt><wpt lat="44.591642" lon="-122.316836"><name>Mine - Lawler Consolidated Plac…</name><desc>1 source record(s) merged within 75m | src: MILO</desc><extensions><onx:icon>Location</onx:icon><onx:color>rgba(0, 0, 0, 1)</onx:color></extensions></wpt><wpt lat="44.592903" lon="-122.320659"><name>Mine - Lawler Consolidated Plac…</name><desc>1 source record(s) merged within 75m | src: MILO</desc><extensions><onx:icon>Location</onx:icon><onx:color>rgba(0, 0, 0, 1)</onx:color></extensions></wpt><wpt lat="44.593711" lon="-122.291148"><name>Mine - Albany (Murray Claim) cu…</name><desc>1 source record(s) merged within 75m | src: MILO</desc><extensions><onx:icon>Location</onx:icon><onx:color>rgba(0, 0, 0, 1)</onx:color></extensions></wpt><wpt lat="44.596048" lon="-122.289153"><name>Mine - unnamed or NA</name><desc>1 source record(s) merged within 75m | src: MILO</desc><extensions><onx:icon>Location</onx:icon><onx:color>rgba(0, 0, 0, 1)</onx:color></extensions></wpt><wpt lat="44.590716" lon="-122.295030"><name>Mine - unnamed or NA</name><desc>1 source record(s) merged within 75m | src: MILO</desc><extensions><onx:icon>Location</onx:icon><onx:color>rgba(0, 0, 0, 1)</onx:color></extensions></wpt><wpt lat="44.587282" lon="-122.293722"><name>Mine - unnamed or NA</name><desc>3 source record(s) merged within 75m | src: MILO</desc><extensions><onx:icon>Location</onx:icon><onx:color>rgba(0, 0, 0, 1)</onx:color></extensions></wpt><wpt lat="44.581686" lon="-122.301291"><name>Mine - unnamed or NA</name><desc>1 source record(s) merged within 75m | src: MILO</desc><extensions><onx:icon>Location</onx:icon><onx:color>rgba(0, 0, 0, 1)</onx:color></extensions></wpt><wpt lat="44.598272" lon="-122.321392"><name>Mine - unnamed or NA</name><desc>1 source record(s) merged within 75m | src: MILO</desc><extensions><onx:icon>Location</onx:icon><onx:color>rgba(0, 0, 0, 1)</onx:color></extensions></wpt><wpt lat="44.597502" lon="-122.326454"><name>Mine - unnamed or NA</name><desc>2 source record(s) merged within 75m | src: MILO</desc><extensions><onx:icon>Location</onx:icon><onx:color>rgba(0, 0, 0, 1)</onx:color></extensions></wpt><wpt lat="44.602383" lon="-122.324212"><name>Mine - prospect</name><desc>1 source record(s) merged within 75m | src: MILO</desc><extensions><onx:icon>Location</onx:icon><onx:color>rgba(0, 0, 0, 1)</onx:color></extensions></wpt><wpt lat="44.601552" lon="-122.322711"><name>Mine - unnamed or NA</name><desc>1 source record(s) merged within 75m | src: MILO</desc><extensions><onx:icon>Location</onx:icon><onx:color>rgba(0, 0, 0, 1)</onx:color></extensions></wpt><wpt lat="44.598063" lon="-122.301070"><name>Mine - unnamed or NA</name><desc>2 source record(s) merged within 75m | src: MILO</desc><extensions><onx:icon>Location</onx:icon><onx:color>rgba(0, 0, 0, 1)</onx:color></extensions></wpt><wpt lat="44.598761" lon="-122.301212"><name>Mine - unnamed or NA</name><desc>1 source record(s) merged within 75m | src: MILO</desc><extensions><onx:icon>Location</onx:icon><onx:color>rgba(0, 0, 0, 1)</onx:color></extensions></wpt><wpt lat="44.594722" lon="-122.304906"><name>Mine - unnamed or NA</name><desc>1 source record(s) merged within 75m | src: MILO</desc><extensions><onx:icon>Location</onx:icon><onx:color>rgba(0, 0, 0, 1)</onx:color></extensions></wpt><wpt lat="44.604862" lon="-122.296651"><name>Mine - unnamed or NA</name><desc>1 source record(s) merged within 75m | src: MILO</desc><extensions><onx:icon>Location</onx:icon><onx:color>rgba(0, 0, 0, 1)</onx:color></extensions></wpt><wpt lat="44.602927" lon="-122.282748"><name>Mine - unnamed or NA</name><desc>1 source record(s) merged within 75m | src: MILO</desc><extensions><onx:icon>Location</onx:icon><onx:color>rgba(0, 0, 0, 1)</onx:color></extensions></wpt><wpt lat="44.559418" lon="-122.283341"><name>Mine - prospect</name><desc>5 source record(s) merged within 75m | src: MILO</desc><extensions><onx:icon>Location</onx:icon><onx:color>rgba(0, 0, 0, 1)</onx:color></extensions></wpt><wpt lat="44.561938" lon="-122.279245"><name>Mine - prospect</name><desc>1 source record(s) merged within 75m | src: MILO</desc><extensions><onx:icon>Location</onx:icon><onx:color>rgba(0, 0, 0, 1)</onx:color></extensions></wpt><wpt lat="44.574995" lon="-122.296999"><name>Mine - prospect</name><desc>1 source record(s) merged within 75m | src: MILO</desc><extensions><onx:icon>Location</onx:icon><onx:color>rgba(0, 0, 0, 1)</onx:color></extensions></wpt><wpt lat="44.588705" lon="-122.370580"><name>Mine - Houf Property</name><desc>2 source record(s) merged within 75m | src: MRDS</desc><extensions><onx:icon>Location</onx:icon><onx:color>rgba(0, 0, 0, 1)</onx:color></extensions></wpt><wpt lat="44.605040" lon="-122.317550"><name>Pit - Quartzville</name><desc>1 source record(s) merged within 75m | src: USMIN</desc><extensions><onx:icon>Location</onx:icon><onx:color>rgba(0, 0, 0, 1)</onx:color></extensions></wpt><wpt lat="44.603182" lon="-122.318191"><name>Pit - Quartzville</name><desc>1 source record(s) merged within 75m | src: USMIN</desc><extensions><onx:icon>Location</onx:icon><onx:color>rgba(0, 0, 0, 1)</onx:color></extensions></wpt><wpt lat="44.605113" lon="-122.314437"><name>Pit - Quartzville</name><desc>1 source record(s) merged within 75m | src: USMIN</desc><extensions><onx:icon>Location</onx:icon><onx:color>rgba(0, 0, 0, 1)</onx:color></extensions></wpt><wpt lat="44.595588" lon="-122.296906"><name>Pit - Quartzville</name><desc>1 source record(s) merged within 75m | src: USMIN</desc><extensions><onx:icon>Location</onx:icon><onx:color>rgba(0, 0, 0, 1)</onx:color></extensions></wpt></gpx>