<?xml version="1.0" encoding="UTF-8"?><kml xmlns="http://www.opengis.net/kml/2.2"><Document><name>quartzville My claims</name><Style id="s0"><LineStyle><color>ff00ffff</color><width>2</width></LineStyle><PolyStyle><color>4000ffff</color></PolyStyle></Style><Style id="s1"><IconStyle><color>ff00ffff</color><scale>1.0</scale><Icon><href>http://maps.google.com/mapfiles/kml/shapes/placemark_circle.png</href></Icon></IconStyle></Style><Folder><name>My claims</name><Placemark><name>WVM 1B Dry Gulch</name><description>club: Willamette Valley Miners (WVM) | serial: ORMC171094 | acres: 18.0 | directions: not available (no club handbook source in this build) | boundary approx (BLM quarter-section)</description><styleUrl>#s0</styleUrl><Polygon><outerBoundaryIs><LinearRing><coordinates>-122.305592,44.602726,0 -122.300562,44.602739,0 -122.295532,44.602753,0 -122.295540,44.601909,0 -122.295408,44.602666,0 -122.294327,44.602599,0 -122.293290,44.601825,0 -122.293637,44.599172,0 -122.290557,44.597099,0 -122.290568,44.596056,0 -122.291179,44.595589,0 -122.291400,44.595589,0 -122.295383,44.598329,0 -122.295147,44.598509,0 -122.295572,44.598543,0 -122.295588,44.596874,0 -122.295600,44.595584,0 -122.300055,44.595578,0 -122.300400,44.595578,0 -122.300629,44.595577,0 -122.300880,44.595577,0 -122.305657,44.595571,0 -122.305625,44.599148,0 -122.305592,44.602726,0</coordinates></LinearRing></outerBoundaryIs></Polygon></Placemark><Placemark><name>WVM 1B Dry Gulch</name><description>club: Willamette Valley Miners (WVM) | serial: ORMC171094 | acres: 18.0 | directions: not available (no club handbook source in this build) | boundary approx (BLM quarter-section)</description><styleUrl>#s1</styleUrl><Point><coordinates>-122.299359,44.599136,0</coordinates></Point></Placemark><Placemark><name>Cedar Bend Placer</name><description>club: Willamette Valley Miners (WVM) | serial: ORMC30445 | acres: 18.18 | directions: not available (no club handbook source in this build) | boundary approx (BLM quarter-section)</description><styleUrl>#s0</styleUrl><Polygon><outerBoundaryIs><LinearRing><coordinates>-122.312123,44.581224,0 -122.310799,44.581223,0 -122.310589,44.581223,0 -122.307957,44.581221,0 -122.305760,44.581219,0 -122.305780,44.577621,0 -122.305786,44.576414,0 -122.305791,44.575562,0 -122.305799,44.574023,0 -122.310832,44.574027,0 -122.315864,44.574031,0 -122.320897,44.574035,0 -122.325929,44.574039,0 -122.325921,44.577637,0 -122.325912,44.581234,0 -122.320875,44.581231,0 -122.315838,44.581227,0 -122.312123,44.581224,0</coordinates></LinearRing></outerBoundaryIs></Polygon></Placemark><Placemark><name>Cedar Bend Placer</name><description>club: Willamette Valley Miners (WVM) | serial: ORMC30445 | acres: 18.18 | directions: not available (no club handbook source in this build) | boundary approx (BLM quarter-section)</description><styleUrl>#s1</styleUrl><Point><coordinates>-122.315850,44.577630,0</coordinates></Point></Placemark></Folder></Document></kml>