<?xml version="1.0" encoding="UTF-8"?><kml xmlns="http://www.opengis.net/kml/2.2"><Document><name>quartzville Other active claims</name><Style id="s0"><LineStyle><color>ff0033ff</color><width>2</width></LineStyle><PolyStyle><color>400033ff</color></PolyStyle></Style><Folder><name>Other active claims</name><Placemark><name>WIRE GOLD</name><description>lode | serial ORMC101599 | 20.66 ac | Active | qtr-sec OR 33 0110S 0040E 023 A SE | recorded~2021 (DB date, not legal located date) | src: BLM MLRS Not Closed | boundary approx (BLM quarter-section) | do not dig here (active claim)</description><styleUrl>#s0</styleUrl><Polygon><outerBoundaryIs><LinearRing><coordinates>-122.290643,44.588413,0 -122.295669,44.588414,0 -122.295875,44.588414,0 -122.295748,44.588492,0 -122.295667,44.588649,0 -122.295659,44.589418,0 -122.295777,44.589470,0 -122.295658,44.589569,0 -122.295641,44.591343,0 -122.297130,44.591998,0 -122.295635,44.591999,0 -122.295622,44.593302,0 -122.295600,44.595584,0 -122.292806,44.595587,0 -122.291400,44.595589,0 -122.291179,44.595589,0 -122.290572,44.595590,0 -122.285544,44.595596,0 -122.285580,44.592004,0 -122.285617,44.588412,0 -122.290643,44.588413,0</coordinates></LinearRing></outerBoundaryIs></Polygon></Placemark><Placemark><name>FREE GOLD</name><description>lode | serial ORMC166145 | 20.66 ac | Active | qtr-sec OR 33 0110S 0040E 026 A NW|OR 33 0110S 0040E 023 A SW | recorded~2021 (DB date, not legal located date) | src: BLM MLRS Not Closed | boundary approx (BLM quarter-section) | do not dig here (active claim)</description><styleUrl>#s0</styleUrl><Polygon><outerBoundaryIs><LinearRing><coordinates>-122.305760,44.581219,0 -122.305750,44.583115,0 -122.305741,44.584817,0 -122.305739,44.585107,0 -122.305732,44.586509,0 -122.305732,44.586512,0 -122.305728,44.587251,0 -122.305727,44.587282,0 -122.305727,44.587287,0 -122.305725,44.587768,0 -122.305724,44.587772,0 -122.305721,44.588415,0 -122.305711,44.589517,0 -122.305689,44.591993,0 -122.305675,44.593558,0 -122.305661,44.595084,0 -122.305657,44.595571,0 -122.300880,44.595577,0 -122.300629,44.595577,0 -122.300400,44.595578,0 -122.300055,44.595578,0 -122.295600,44.595584,0 -122.295622,44.593302,0 -122.295635,44.591999,0 -122.297130,44.591998,0 -122.295641,44.591343,0 -122.295658,44.589569,0 -122.295777,44.589470,0 -122.295659,44.589418,0 -122.295667,44.588649,0 -122.295748,44.588492,0 -122.295875,44.588414,0 -122.295669,44.588414,0 -122.295694,44.584817,0 -122.295720,44.581221,0 -122.300740,44.581220,0 -122.305760,44.581219,0</coordinates></LinearRing></outerBoundaryIs></Polygon></Placemark><Placemark><name>RELIEF MINE</name><description>lode | serial ORMC172954 | 20.66 ac | Active | qtr-sec OR 33 0110S 0040E 026 A NW|OR 33 0110S 0040E 026 A SW | recorded~2021 (DB date, not legal located date) | src: BLM MLRS Not Closed | boundary approx (BLM quarter-section) | do not dig here (active claim)</description><styleUrl>#s0</styleUrl><Polygon><outerBoundaryIs><LinearRing><coordinates>-122.305786,44.576414,0 -122.305780,44.577621,0 -122.305760,44.581219,0 -122.305750,44.583115,0 -122.305741,44.584817,0 -122.305739,44.585107,0 -122.305732,44.586509,0 -122.305732,44.586512,0 -122.305728,44.587251,0 -122.305727,44.587282,0 -122.305727,44.587287,0 -122.305725,44.587768,0 -122.305724,44.587772,0 -122.305721,44.588415,0 -122.303368,44.588415,0 -122.300695,44.588415,0 -122.297768,44.588414,0 -122.295875,44.588414,0 -122.295669,44.588414,0 -122.295694,44.584817,0 -122.295720,44.581221,0 -122.295745,44.577625,0 -122.295770,44.574028,0 -122.300784,44.574025,0 -122.305799,44.574023,0 -122.305791,44.575562,0 -122.305786,44.576414,0</coordinates></LinearRing></outerBoundaryIs></Polygon></Placemark><Placemark><name>GOLDEN DREAMS</name><description>lode | serial ORMC174152 | 20.66 ac | Active | qtr-sec OR 33 0110S 0040E 023 A SW|OR 33 0110S 0040E 026 A NW | recorded~2021 (DB date, not legal located date) | src: BLM MLRS Not Closed | boundary approx (BLM quarter-section) | do not dig here (active claim)</description><styleUrl>#s0</styleUrl><Polygon><outerBoundaryIs><LinearRing><coordinates>-122.305760,44.581219,0 -122.305750,44.583115,0 -122.305741,44.584817,0 -122.305739,44.585107,0 -122.305732,44.586509,0 -122.305732,44.586512,0 -122.305728,44.587251,0 -122.305727,44.587282,0 -122.305727,44.587287,0 -122.305725,44.587768,0 -122.305724,44.587772,0 -122.305721,44.588415,0 -122.305711,44.589517,0 -122.305689,44.591993,0 -122.305675,44.593558,0 -122.305661,44.595084,0 -122.305657,44.595571,0 -122.300880,44.595577,0 -122.300629,44.595577,0 -122.300400,44.595578,0 -122.300055,44.595578,0 -122.295600,44.595584,0 -122.295622,44.593302,0 -122.295635,44.591999,0 -122.297130,44.591998,0 -122.295641,44.591343,0 -122.295658,44.589569,0 -122.295777,44.589470,0 -122.295659,44.589418,0 -122.295667,44.588649,0 -122.295748,44.588492,0 -122.295875,44.588414,0 -122.295669,44.588414,0 -122.295694,44.584817,0 -122.295720,44.581221,0 -122.300740,44.581220,0 -122.305760,44.581219,0</coordinates></LinearRing></outerBoundaryIs></Polygon></Placemark><Placemark><name>sweetwater</name><description>lode | serial OR106348587 | 641.57 ac | Filed | qtr-sec OR 33 0110S 0040E 023 A NW | recorded~2024 (DB date, not legal located date) | src: BLM MLRS Not Closed | boundary approx (BLM quarter-section) | do not dig here (active claim)</description><styleUrl>#s0</styleUrl><Polygon><outerBoundaryIs><LinearRing><coordinates>-122.300400,44.595578,0 -122.300629,44.595577,0 -122.300880,44.595577,0 -122.305657,44.595571,0 -122.305625,44.599148,0 -122.305592,44.602726,0 -122.300562,44.602739,0 -122.295532,44.602753,0 -122.295540,44.601909,0 -122.295408,44.602666,0 -122.294327,44.602599,0 -122.293290,44.601825,0 -122.293637,44.599172,0 -122.290557,44.597099,0 -122.290568,44.596056,0 -122.291179,44.595589,0 -122.291400,44.595589,0 -122.295383,44.598329,0 -122.295147,44.598509,0 -122.295572,44.598543,0 -122.295588,44.596874,0 -122.295600,44.595584,0 -122.300055,44.595578,0 -122.300400,44.595578,0</coordinates></LinearRing></outerBoundaryIs></Polygon></Placemark><Placemark><name>Edson A</name><description>lode | serial OR106377410 | 486.09 ac | Active | qtr-sec OR 33 0110S 0040E 022 NE | recorded~2024 (DB date, not legal located date) | src: BLM MLRS Not Closed | boundary approx (BLM quarter-section) | do not dig here (active claim)</description><styleUrl>#s0</styleUrl><Polygon><outerBoundaryIs><LinearRing><coordinates>-122.314668,44.593663,0 -122.314935,44.594434,0 -122.315772,44.594291,0 -122.315763,44.595567,0 -122.315739,44.599125,0 -122.315730,44.600510,0 -122.315715,44.602683,0 -122.313618,44.602692,0 -122.310654,44.602704,0 -122.305592,44.602726,0 -122.305625,44.599148,0 -122.305657,44.595571,0 -122.305661,44.595084,0 -122.306167,44.595144,0 -122.307960,44.594831,0 -122.308215,44.595570,0 -122.310710,44.595569,0 -122.312904,44.595568,0 -122.312409,44.594061,0 -122.314668,44.593663,0</coordinates></LinearRing></outerBoundaryIs></Polygon></Placemark><Placemark><name>Edson B</name><description>lode | serial OR106377411 | 486.09 ac | Active | qtr-sec OR 33 0110S 0040E 022 NE | recorded~2024 (DB date, not legal located date) | src: BLM MLRS Not Closed | boundary approx (BLM quarter-section) | do not dig here (active claim)</description><styleUrl>#s0</styleUrl><Polygon><outerBoundaryIs><LinearRing><coordinates>-122.314668,44.593663,0 -122.314935,44.594434,0 -122.315772,44.594291,0 -122.315763,44.595567,0 -122.315739,44.599125,0 -122.315730,44.600510,0 -122.315715,44.602683,0 -122.313618,44.602692,0 -122.310654,44.602704,0 -122.305592,44.602726,0 -122.305625,44.599148,0 -122.305657,44.595571,0 -122.305661,44.595084,0 -122.306167,44.595144,0 -122.307960,44.594831,0 -122.308215,44.595570,0 -122.310710,44.595569,0 -122.312904,44.595568,0 -122.312409,44.594061,0 -122.314668,44.593663,0</coordinates></LinearRing></outerBoundaryIs></Polygon></Placemark><Placemark><name>Edson C</name><description>lode | serial OR106377412 | 486.09 ac | Active | qtr-sec OR 33 0110S 0040E 022 NE | recorded~2024 (DB date, not legal located date) | src: BLM MLRS Not Closed | boundary approx (BLM quarter-section) | do not dig here (active claim)</description><styleUrl>#s0</styleUrl><Polygon><outerBoundaryIs><LinearRing><coordinates>-122.314668,44.593663,0 -122.314935,44.594434,0 -122.315772,44.594291,0 -122.315763,44.595567,0 -122.315739,44.599125,0 -122.315730,44.600510,0 -122.315715,44.602683,0 -122.313618,44.602692,0 -122.310654,44.602704,0 -122.305592,44.602726,0 -122.305625,44.599148,0 -122.305657,44.595571,0 -122.305661,44.595084,0 -122.306167,44.595144,0 -122.307960,44.594831,0 -122.308215,44.595570,0 -122.310710,44.595569,0 -122.312904,44.595568,0 -122.312409,44.594061,0 -122.314668,44.593663,0</coordinates></LinearRing></outerBoundaryIs></Polygon></Placemark><Placemark><name>M &amp; M B</name><description>placer | serial OR105231719 | 20.0 ac | Active | qtr-sec OR 33 0110S 0040E 036 A NESW|OR 33 0110S 0040E 036 A NESW|OR 33 0110S 0040E 036 A NESW|OR 33 0110S 0040E 036 A NESW | recorded~2021 (DB date, not legal located date) | src: BLM MLRS Not Closed | boundary approx (BLM quarter-section) | do not …</description><styleUrl>#s0</styleUrl><Polygon><outerBoundaryIs><LinearRing><coordinates>-122.280776,44.563296,0 -122.280742,44.566883,0 -122.275674,44.566911,0 -122.275708,44.563325,0 -122.280776,44.563296,0</coordinates></LinearRing></outerBoundaryIs></Polygon></Placemark><Placemark><name>XPNSV Hobby Too</name><description>placer | serial OR105788553 | 40.0 ac | Filed | qtr-sec OR 33 0110S 0040E 026 A SESE|OR 33 0110S 0040E 026 A SWSE|OR 33 0110S 0040E 026 A NESE|OR 33 0110S 0040E 026 A NWSE|OR 33 0110S 0040E 026 A SE | recorded~2022 (DB date, not legal located date) | src: BLM MLRS Not Closed | boundary approx (BLM …</description><styleUrl>#s0</styleUrl><Polygon><outerBoundaryIs><LinearRing><coordinates>-122.295770,44.574028,0 -122.295745,44.577625,0 -122.295720,44.581221,0 -122.290699,44.581222,0 -122.285679,44.581222,0 -122.285710,44.577628,0 -122.285741,44.574033,0 -122.290756,44.574030,0 -122.295770,44.574028,0</coordinates></LinearRing></outerBoundaryIs></Polygon></Placemark><Placemark><name>Golden Flower 2</name><description>placer | serial OR105795368 | 40.0 ac | Active | qtr-sec OR 33 0110S 0040E 036 A N2NWNE | recorded~2022 (DB date, not legal located date) | src: BLM MLRS Not Closed | boundary approx (BLM quarter-section) | do not dig here (active claim)</description><styleUrl>#s0</styleUrl><Polygon><outerBoundaryIs><LinearRing><coordinates>-122.273072,44.574093,0 -122.270538,44.574105,0 -122.270554,44.572314,0 -122.273088,44.572301,0 -122.275623,44.572289,0 -122.275605,44.574081,0 -122.273072,44.574093,0</coordinates></LinearRing></outerBoundaryIs></Polygon></Placemark><Placemark><name>ANGIE M</name><description>placer | serial ORMC135768 | 20.0 ac | Active | qtr-sec OR 33 0110S 0040E 027 A SW | recorded~2021 (DB date, not legal located date) | src: BLM MLRS Not Closed | boundary approx (BLM quarter-section) | do not dig here (active claim)</description><styleUrl>#s0</styleUrl><Polygon><outerBoundaryIs><LinearRing><coordinates>-122.325921,44.577637,0 -122.325912,44.581234,0 -122.320875,44.581231,0 -122.315838,44.581227,0 -122.315851,44.577629,0 -122.315864,44.574031,0 -122.320897,44.574035,0 -122.325929,44.574039,0 -122.325921,44.577637,0</coordinates></LinearRing></outerBoundaryIs></Polygon></Placemark><Placemark><name>BROKEN BRIDGE</name><description>placer | serial ORMC154454 | 40.0 ac | Active | qtr-sec OR 33 0110S 0040E 026 A SESW | recorded~2021 (DB date, not legal located date) | src: BLM MLRS Not Closed | boundary approx (BLM quarter-section) | do not dig here (active claim)</description><styleUrl>#s0</styleUrl><Polygon><outerBoundaryIs><LinearRing><coordinates>-122.300784,44.574025,0 -122.300762,44.577623,0 -122.295745,44.577625,0 -122.295770,44.574028,0 -122.300784,44.574025,0</coordinates></LinearRing></outerBoundaryIs></Polygon></Placemark><Placemark><name>SILVER DOLLAR</name><description>placer | serial ORMC160675 | 20.0 ac | Active | qtr-sec OR 33 0110S 0040E 023 A NW|OR 33 0110S 0040E 023 A NE | recorded~2021 (DB date, not legal located date) | src: BLM MLRS Not Closed | boundary approx (BLM quarter-section) | do not dig here (active claim)</description><styleUrl>#s0</styleUrl><Polygon><outerBoundaryIs><LinearRing><coordinates>-122.305625,44.599148,0 -122.305592,44.602726,0 -122.300562,44.602739,0 -122.295532,44.602753,0 -122.294536,44.602756,0 -122.291391,44.602764,0 -122.291080,44.602765,0 -122.290502,44.602767,0 -122.288063,44.602773,0 -122.285471,44.602780,0 -122.285508,44.599188,0 -122.285544,44.595596,0 -122.290572,44.595590,0 -122.291179,44.595589,0 -122.291400,44.595589,0 -122.292806,44.595587,0 -122.295600,44.595584,0 -122.300055,44.595578,0 -122.300400,44.595578,0 -122.300629,44.595577,0 -122.300880,44.595577,0 -122.305657,44.595571,0 -122.305625,44.599148,0</coordinates></LinearRing></outerBoundaryIs></Polygon></Placemark><Placemark><name>GOLDEN KITTY 1</name><description>placer | serial ORMC163144 | 160.0 ac | Active | qtr-sec OR 33 0110S 0040E 002 A NW | recorded~2021 (DB date, not legal located date) | src: BLM MLRS Not Closed | boundary approx (BLM quarter-section) | do not dig here (active claim)</description><styleUrl>#s0</styleUrl><Polygon><outerBoundaryIs><LinearRing><coordinates>-122.300431,44.653864,0 -122.299644,44.653879,0 -122.295443,44.653970,0 -122.295443,44.649448,0 -122.295443,44.645837,0 -122.295443,44.642227,0 -122.295443,44.638616,0 -122.300451,44.638569,0 -122.305459,44.638521,0 -122.305451,44.642128,0 -122.305442,44.645735,0 -122.305433,44.649343,0 -122.305419,44.653758,0 -122.304709,44.653771,0 -122.300431,44.653864,0</coordinates></LinearRing></outerBoundaryIs></Polygon></Placemark><Placemark><name>GOLDEN KITTY 2</name><description>placer | serial ORMC163145 | 160.0 ac | Active | qtr-sec OR 33 0110S 0040E 002 A NE | recorded~2021 (DB date, not legal located date) | src: BLM MLRS Not Closed | boundary approx (BLM quarter-section) | do not dig here (active claim)</description><styleUrl>#s0</styleUrl><Polygon><outerBoundaryIs><LinearRing><coordinates>-122.290452,44.654073,0 -122.288751,44.654107,0 -122.285462,44.654177,0 -122.285447,44.649553,0 -122.285438,44.645939,0 -122.285429,44.642325,0 -122.285420,44.638711,0 -122.290432,44.638664,0 -122.295443,44.638616,0 -122.295443,44.642227,0 -122.295443,44.645837,0 -122.295443,44.649448,0 -122.295443,44.653970,0 -122.293819,44.654001,0 -122.290452,44.654073,0</coordinates></LinearRing></outerBoundaryIs></Polygon></Placemark><Placemark><name>GOLDEN KITTY 3</name><description>placer | serial ORMC163146 | 160.0 ac | Active | qtr-sec OR 33 0110S 0040E 003 A NW|OR 33 0110S 0040E 003 A NE|OR 33 0110S 0040E 003 A SE | recorded~2021 (DB date, not legal located date) | src: BLM MLRS Not Closed | boundary approx (BLM quarter-section) | do not dig here (active claim)</description><styleUrl>#s0</styleUrl><Polygon><outerBoundaryIs><LinearRing><coordinates>-122.315565,44.631319,0 -122.315564,44.634931,0 -122.315562,44.638543,0 -122.320623,44.638554,0 -122.325684,44.638565,0 -122.325500,44.642097,0 -122.325317,44.645629,0 -122.325133,44.649161,0 -122.324913,44.653393,0 -122.324231,44.653401,0 -122.320230,44.653475,0 -122.319557,44.653477,0 -122.315557,44.653551,0 -122.314873,44.653554,0 -122.310488,44.653650,0 -122.309791,44.653662,0 -122.305419,44.653758,0 -122.305433,44.649343,0 -122.305442,44.645735,0 -122.305451,44.642128,0 -122.305459,44.638521,0 -122.305480,44.634926,0 -122.305500,44.631331,0 -122.310533,44.631325,0 -122.315565,44.631319,0</coordinates></LinearRing></outerBoundaryIs></Polygon></Placemark><Placemark><name>GOLDEN KITTY 4</name><description>placer | serial ORMC163147 | 160.0 ac | Active | qtr-sec OR 33 0110S 0040E 003 A SW | recorded~2021 (DB date, not legal located date) | src: BLM MLRS Not Closed | boundary approx (BLM quarter-section) | do not dig here (active claim)</description><styleUrl>#s0</styleUrl><Polygon><outerBoundaryIs><LinearRing><coordinates>-122.325657,44.634936,0 -122.325684,44.638565,0 -122.320623,44.638554,0 -122.315562,44.638543,0 -122.315564,44.634931,0 -122.315565,44.631319,0 -122.320598,44.631314,0 -122.325630,44.631308,0 -122.325657,44.634936,0</coordinates></LinearRing></outerBoundaryIs></Polygon></Placemark><Placemark><name>LUCK OF THE DRAW</name><description>placer | serial ORMC163283 | 80.0 ac | Active | qtr-sec OR 33 0110S 0040E 028 A SE | recorded~2021 (DB date, not legal located date) | src: BLM MLRS Not Closed | boundary approx (BLM quarter-section) | do not dig here (active claim)</description><styleUrl>#s0</styleUrl><Polygon><outerBoundaryIs><LinearRing><coordinates>-122.335641,44.577686,0 -122.335710,44.581284,0 -122.330811,44.581259,0 -122.325912,44.581234,0 -122.325921,44.577637,0 -122.325929,44.574039,0 -122.330751,44.574063,0 -122.335572,44.574087,0 -122.335641,44.577686,0</coordinates></LinearRing></outerBoundaryIs></Polygon></Placemark><Placemark><name>WHITE HORSE</name><description>placer | serial ORMC164664 | 80.0 ac | Active | qtr-sec OR 33 0110S 0040E 010 A S2SW | recorded~2021 (DB date, not legal located date) | src: BLM MLRS Not Closed | boundary approx (BLM quarter-section) | do not dig here (active claim)</description><styleUrl>#s0</styleUrl><Polygon><outerBoundaryIs><LinearRing><coordinates>-122.320578,44.620550,0 -122.315635,44.620566,0 -122.315659,44.616978,0 -122.320708,44.616956,0 -122.325758,44.616934,0 -122.325520,44.620534,0 -122.320578,44.620550,0</coordinates></LinearRing></outerBoundaryIs></Polygon></Placemark><Placemark><name>DREAM ON PLACER A</name><description>placer | serial ORMC165974 | 160.0 ac | Active | qtr-sec OR 33 0110S 0040E 010 A S2SE | OR 33 0110S 0040E 011 A S2SW | recorded~2021 (DB date, not legal located date) | src: BLM MLRS Not Closed | boundary approx (BLM quarter-section) | do not dig here (active claim)</description><styleUrl>#s0</styleUrl><Polygon><outerBoundaryIs><LinearRing><coordinates>-122.310590,44.620583,0 -122.305545,44.620599,0 -122.300511,44.620629,0 -122.295476,44.620659,0 -122.295487,44.617075,0 -122.300524,44.617048,0 -122.305560,44.617022,0 -122.310609,44.617000,0 -122.315659,44.616978,0 -122.315635,44.620566,0 -122.310590,44.620583,0</coordinates></LinearRing></outerBoundaryIs></Polygon></Placemark><Placemark><name>MINERS MISERY</name><description>placer | serial ORMC165975 | 80.0 ac | Active | qtr-sec OR 33 0110S 0040E 011 A S2SE | recorded~2021 (DB date, not legal located date) | src: BLM MLRS Not Closed | boundary approx (BLM quarter-section) | do not dig here (active claim)</description><styleUrl>#s0</styleUrl><Polygon><outerBoundaryIs><LinearRing><coordinates>-122.290442,44.620689,0 -122.285408,44.620719,0 -122.285415,44.617127,0 -122.290451,44.617101,0 -122.295487,44.617075,0 -122.295476,44.620659,0 -122.290442,44.620689,0</coordinates></LinearRing></outerBoundaryIs></Polygon></Placemark><Placemark><name>GALENA 1</name><description>placer | serial ORMC168892 | 40.0 ac | Active | qtr-sec OR 33 0110S 0040E 033 A NE | recorded~2021 (DB date, not legal located date) | src: BLM MLRS Not Closed | boundary approx (BLM quarter-section) | do not dig here (active claim)</description><styleUrl>#s0</styleUrl><Polygon><outerBoundaryIs><LinearRing><coordinates>-122.335641,44.570462,0 -122.335572,44.574087,0 -122.330751,44.574063,0 -122.325929,44.574039,0 -122.325928,44.570409,0 -122.325928,44.566778,0 -122.330819,44.566808,0 -122.335710,44.566838,0 -122.335641,44.570462,0</coordinates></LinearRing></outerBoundaryIs></Polygon></Placemark><Placemark><name>LUCKY DUCK</name><description>placer | serial ORMC173415 | 20.0 ac | Active | qtr-sec OR 33 0110S 0040E 023 A SW | recorded~2021 (DB date, not legal located date) | src: BLM MLRS Not Closed | boundary approx (BLM quarter-section) | do not dig here (active claim)</description><styleUrl>#s0</styleUrl><Polygon><outerBoundaryIs><LinearRing><coordinates>-122.305657,44.595571,0 -122.300880,44.595577,0 -122.300629,44.595577,0 -122.300400,44.595578,0 -122.300055,44.595578,0 -122.295600,44.595584,0 -122.295622,44.593302,0 -122.295635,44.591999,0 -122.297130,44.591998,0 -122.295641,44.591343,0 -122.295658,44.589569,0 -122.295777,44.589470,0 -122.295659,44.589418,0 -122.295667,44.588649,0 -122.295748,44.588492,0 -122.295875,44.588414,0 -122.297768,44.588414,0 -122.300695,44.588415,0 -122.303368,44.588415,0 -122.305721,44.588415,0 -122.305711,44.589517,0 -122.305689,44.591993,0 -122.305675,44.593558,0 -122.305661,44.595084,0 -122.305657,44.595571,0</coordinates></LinearRing></outerBoundaryIs></Polygon></Placemark><Placemark><name>GOLDEN DIGGER</name><description>placer | serial ORMC173434 | 20.0 ac | Active | qtr-sec OR 33 0110S 0040E 022 A SE|OR 33 0110S 0040E 023 A SW | recorded~2021 (DB date, not legal located date) | src: BLM MLRS Not Closed | boundary approx (BLM quarter-section) | do not dig here (active claim)</description><styleUrl>#s0</styleUrl><Polygon><outerBoundaryIs><LinearRing><coordinates>-122.306818,44.588412,0 -122.307036,44.588411,0 -122.307049,44.588411,0 -122.307711,44.588409,0 -122.308022,44.588408,0 -122.308036,44.588408,0 -122.310766,44.588399,0 -122.311036,44.588398,0 -122.311052,44.588398,0 -122.312352,44.588394,0 -122.312361,44.588394,0 -122.314762,44.588386,0 -122.313121,44.589093,0 -122.315397,44.591181,0 -122.315793,44.591097,0 -122.315787,44.591975,0 -122.315772,44.594291,0 -122.314935,44.594434,0 -122.314668,44.593663,0 -122.312409,44.594061,0 -122.312904,44.595568,0 -122.310710,44.595569,0 -122.308215,44.595570,0 -122.307960,44.594831,0 -122.306167,44.595144,0 -122.305661,44.595084,0 -122.305657,44.595571,0 -122.300880,44.595577,0 -122.300629,44.595577,0 -122.300400,44.595578,0 -122.300055,44.595578,0 -122.295600,44.595584,0 -122.295622,44.593302,0 -122.295635,44.591999,0 -122.297130,44.591998,0 -122.295641,44.591343,0 -122.295658,44.589569,0 -122.295777,44.589470,0 -122.295659,44.589418,0 -122.295667,44.588649,0 -122.295748,44.588492,0 -122.295875,44.588414,0 -122.297768,44.588414,0 -122.300695,44.588415,0 -122.303368,44.588415,0 -122.305721,44.588415,0 -122.306818,44.588412,0</coordinates></LinearRing></outerBoundaryIs></Polygon></Placemark><Placemark><name>STARDUSTER</name><description>placer | serial ORMC173574 | 67.0 ac | Active | qtr-sec OR 33 0110S 0040E 026 A SW|OR 33 0110S 0040E 027 A SE | recorded~2021 (DB date, not legal located date) | src: BLM MLRS Not Closed | boundary approx (BLM quarter-section) | do not dig here (active claim)</description><styleUrl>#s0</styleUrl><Polygon><outerBoundaryIs><LinearRing><coordinates>-122.300740,44.581220,0 -122.295720,44.581221,0 -122.295745,44.577625,0 -122.295770,44.574028,0 -122.300784,44.574025,0 -122.305799,44.574023,0 -122.310832,44.574027,0 -122.315864,44.574031,0 -122.315851,44.577629,0 -122.315838,44.581227,0 -122.312123,44.581224,0 -122.310799,44.581223,0 -122.310589,44.581223,0 -122.307957,44.581221,0 -122.305760,44.581219,0 -122.300740,44.581220,0</coordinates></LinearRing></outerBoundaryIs></Polygon></Placemark><Placemark><name>PARKER B 1</name><description>placer | serial ORMC173610 | 20.0 ac | Active | qtr-sec OR 33 0110S 0040E 022 A SE|OR 33 0110S 0040E 023 A SW | recorded~2021 (DB date, not legal located date) | src: BLM MLRS Not Closed | boundary approx (BLM quarter-section) | do not dig here (active claim)</description><styleUrl>#s0</styleUrl><Polygon><outerBoundaryIs><LinearRing><coordinates>-122.306818,44.588412,0 -122.307036,44.588411,0 -122.307049,44.588411,0 -122.307711,44.588409,0 -122.308022,44.588408,0 -122.308036,44.588408,0 -122.310766,44.588399,0 -122.311036,44.588398,0 -122.311052,44.588398,0 -122.312352,44.588394,0 -122.312361,44.588394,0 -122.314762,44.588386,0 -122.313121,44.589093,0 -122.315397,44.591181,0 -122.315793,44.591097,0 -122.315787,44.591975,0 -122.315772,44.594291,0 -122.314935,44.594434,0 -122.314668,44.593663,0 -122.312409,44.594061,0 -122.312904,44.595568,0 -122.310710,44.595569,0 -122.308215,44.595570,0 -122.307960,44.594831,0 -122.306167,44.595144,0 -122.305661,44.595084,0 -122.305657,44.595571,0 -122.300880,44.595577,0 -122.300629,44.595577,0 -122.300400,44.595578,0 -122.300055,44.595578,0 -122.295600,44.595584,0 -122.295622,44.593302,0 -122.295635,44.591999,0 -122.297130,44.591998,0 -122.295641,44.591343,0 -122.295658,44.589569,0 -122.295777,44.589470,0 -122.295659,44.589418,0 -122.295667,44.588649,0 -122.295748,44.588492,0 -122.295875,44.588414,0 -122.297768,44.588414,0 -122.300695,44.588415,0 -122.303368,44.588415,0 -122.305721,44.588415,0 -122.306818,44.588412,0</coordinates></LinearRing></outerBoundaryIs></Polygon></Placemark><Placemark><name>HALLELUJAH MINE</name><description>placer | serial ORMC174122 | 30.0 ac | Active | qtr-sec OR 33 0110S 0040E 027 A SW|OR 33 0110S 0040E 028 A SE | recorded~2021 (DB date, not legal located date) | src: BLM MLRS Not Closed | boundary approx (BLM quarter-section) | do not dig here (active claim)</description><styleUrl>#s0</styleUrl><Polygon><outerBoundaryIs><LinearRing><coordinates>-122.320875,44.581231,0 -122.315838,44.581227,0 -122.315851,44.577629,0 -122.315864,44.574031,0 -122.320897,44.574035,0 -122.325929,44.574039,0 -122.330751,44.574063,0 -122.335572,44.574087,0 -122.335641,44.577686,0 -122.335710,44.581284,0 -122.330811,44.581259,0 -122.325912,44.581234,0 -122.320875,44.581231,0</coordinates></LinearRing></outerBoundaryIs></Polygon></Placemark><Placemark><name>RIVERSIDE</name><description>placer | serial ORMC174123 | 40.0 ac | Active | qtr-sec OR 33 0110S 0040E 028 A SE|OR 33 0110S 0040E 033 A NE | recorded~2021 (DB date, not legal located date) | src: BLM MLRS Not Closed | boundary approx (BLM quarter-section) | do not dig here (active claim)</description><styleUrl>#s0</styleUrl><Polygon><outerBoundaryIs><LinearRing><coordinates>-122.335641,44.570462,0 -122.335572,44.574087,0 -122.335641,44.577686,0 -122.335710,44.581284,0 -122.330811,44.581259,0 -122.325912,44.581234,0 -122.325921,44.577637,0 -122.325929,44.574039,0 -122.325928,44.570409,0 -122.325928,44.566778,0 -122.330819,44.566808,0 -122.335710,44.566838,0 -122.335641,44.570462,0</coordinates></LinearRing></outerBoundaryIs></Polygon></Placemark><Placemark><name>LUCKY GALENA</name><description>placer | serial ORMC174207 | 20.0 ac | Active | qtr-sec OR 33 0110S 0040E 033 A SE | recorded~2021 (DB date, not legal located date) | src: BLM MLRS Not Closed | boundary approx (BLM quarter-section) | do not dig here (active claim)</description><styleUrl>#s0</styleUrl><Polygon><outerBoundaryIs><LinearRing><coordinates>-122.331612,44.559551,0 -122.335848,44.559580,0 -122.335779,44.563209,0 -122.335710,44.566838,0 -122.330819,44.566808,0 -122.325928,44.566778,0 -122.325927,44.563147,0 -122.325926,44.559517,0 -122.326506,44.559518,0 -122.330887,44.559550,0 -122.331612,44.559551,0</coordinates></LinearRing></outerBoundaryIs></Polygon></Placemark><Placemark><name>PHANTOM GOLD ANGEL</name><description>placer | serial ORMC174236 | 40.0 ac | Active | qtr-sec OR 33 0120S 0040E 003 A NW|OR 33 0110S 0040E 033 A SE|OR 33 0110S 0040E 034 A SW | recorded~2021 (DB date, not legal located date) | src: BLM MLRS Not Closed | boundary approx (BLM quarter-section) | do not dig here (active claim)</description><styleUrl>#s0</styleUrl><Polygon><outerBoundaryIs><LinearRing><coordinates>-122.326508,44.557652,0 -122.326506,44.559518,0 -122.330887,44.559550,0 -122.331612,44.559551,0 -122.335848,44.559580,0 -122.335779,44.563209,0 -122.335710,44.566838,0 -122.330819,44.566808,0 -122.325928,44.566778,0 -122.320934,44.566792,0 -122.315940,44.566806,0 -122.315978,44.563188,0 -122.316016,44.559570,0 -122.316377,44.559568,0 -122.316405,44.557559,0 -122.316456,44.553918,0 -122.321488,44.553975,0 -122.326521,44.554032,0 -122.326508,44.557652,0</coordinates></LinearRing></outerBoundaryIs></Polygon></Placemark><Placemark><name>GOLD CREEK</name><description>placer | serial ORMC174318 | 20.0 ac | Active | qtr-sec OR 33 0110S 0040E 025 A SW | recorded~2021 (DB date, not legal located date) | src: BLM MLRS Not Closed | boundary approx (BLM quarter-section) | do not dig here (active claim)</description><styleUrl>#s0</styleUrl><Polygon><outerBoundaryIs><LinearRing><coordinates>-122.280673,44.574057,0 -122.285741,44.574033,0 -122.285710,44.577628,0 -122.285679,44.581222,0 -122.280614,44.581243,0 -122.275549,44.581263,0 -122.275577,44.577672,0 -122.275605,44.574081,0 -122.280673,44.574057,0</coordinates></LinearRing></outerBoundaryIs></Polygon></Placemark><Placemark><name>M AND M 1</name><description>placer | serial ORMC174485 | 20.0 ac | Active | qtr-sec OR 33 0110S 0040E 036 A NW | recorded~2021 (DB date, not legal located date) | src: BLM MLRS Not Closed | boundary approx (BLM quarter-section) | do not dig here (active claim)</description><styleUrl>#s0</styleUrl><Polygon><outerBoundaryIs><LinearRing><coordinates>-122.280742,44.566883,0 -122.285809,44.566856,0 -122.285775,44.570444,0 -122.285741,44.574033,0 -122.280673,44.574057,0 -122.275605,44.574081,0 -122.275640,44.570496,0 -122.275674,44.566911,0 -122.280742,44.566883,0</coordinates></LinearRing></outerBoundaryIs></Polygon></Placemark><Placemark><name>M AND M 2</name><description>placer | serial ORMC174486 | 20.0 ac | Active | qtr-sec OR 33 0110S 0040E 036 A NW | recorded~2021 (DB date, not legal located date) | src: BLM MLRS Not Closed | boundary approx (BLM quarter-section) | do not dig here (active claim)</description><styleUrl>#s0</styleUrl><Polygon><outerBoundaryIs><LinearRing><coordinates>-122.280742,44.566883,0 -122.285809,44.566856,0 -122.285775,44.570444,0 -122.285741,44.574033,0 -122.280673,44.574057,0 -122.275605,44.574081,0 -122.275640,44.570496,0 -122.275674,44.566911,0 -122.280742,44.566883,0</coordinates></LinearRing></outerBoundaryIs></Polygon></Placemark><Placemark><name>M &amp; M 2</name><description>placer | serial ORMC177986 | 20.0 ac | Active | qtr-sec OR 33 0110S 0040E 036 A NW | recorded~2021 (DB date, not legal located date) | src: BLM MLRS Not Closed | boundary approx (BLM quarter-section) | do not dig here (active claim)</description><styleUrl>#s0</styleUrl><Polygon><outerBoundaryIs><LinearRing><coordinates>-122.280742,44.566883,0 -122.285809,44.566856,0 -122.285775,44.570444,0 -122.285741,44.574033,0 -122.280673,44.574057,0 -122.275605,44.574081,0 -122.275640,44.570496,0 -122.275674,44.566911,0 -122.280742,44.566883,0</coordinates></LinearRing></outerBoundaryIs></Polygon></Placemark><Placemark><name>M &amp; M 3</name><description>placer | serial ORMC177987 | 20.0 ac | Active | qtr-sec OR 33 0110S 0040E 036 A NW | recorded~2021 (DB date, not legal located date) | src: BLM MLRS Not Closed | boundary approx (BLM quarter-section) | do not dig here (active claim)</description><styleUrl>#s0</styleUrl><Polygon><outerBoundaryIs><LinearRing><coordinates>-122.280742,44.566883,0 -122.285809,44.566856,0 -122.285775,44.570444,0 -122.285741,44.574033,0 -122.280673,44.574057,0 -122.275605,44.574081,0 -122.275640,44.570496,0 -122.275674,44.566911,0 -122.280742,44.566883,0</coordinates></LinearRing></outerBoundaryIs></Polygon></Placemark><Placemark><name>XPNSV HOBBY</name><description>placer | serial ORMC178047 | 40.0 ac | Active | qtr-sec OR 33 0110S 0040E 010 A NW | recorded~2021 (DB date, not legal located date) | src: BLM MLRS Not Closed | boundary approx (BLM quarter-section) | do not dig here (active claim)</description><styleUrl>#s0</styleUrl><Polygon><outerBoundaryIs><LinearRing><coordinates>-122.315565,44.631319,0 -122.315589,44.627737,0 -122.315612,44.624155,0 -122.320447,44.624144,0 -122.325282,44.624133,0 -122.325456,44.627720,0 -122.325630,44.631308,0 -122.320598,44.631314,0 -122.315565,44.631319,0</coordinates></LinearRing></outerBoundaryIs></Polygon></Placemark><Placemark><name>Pappy 1</name><description>placer | serial OR106344032 | 211.28 ac | Under Review | qtr-sec OR 33 0120S 0040E 001 A SWNW,NWSW | OR 33 0120S 0040E 002 A E2NESE | OR 33 0120S 0040E 001 L 3,4 | OR 33 0110S 0040E 036 A S2SESW | recorded~2023 (DB date, not legal located date) | src: BLM MLRS Not Closed | boundary approx (BLM quar…</description><styleUrl>#s0</styleUrl><Polygon><outerBoundaryIs><LinearRing><coordinates>-122.275801,44.557358,0 -122.280848,44.557393,0 -122.280907,44.553780,0 -122.281039,44.550171,0 -122.286097,44.550197,0 -122.288657,44.550203,0 -122.288579,44.552006,0 -122.288500,44.553809,0 -122.285922,44.553810,0 -122.285891,44.557428,0 -122.285878,44.559678,0 -122.280810,44.559709,0 -122.280793,44.561502,0 -122.278259,44.561517,0 -122.275725,44.561532,0 -122.275742,44.559739,0 -122.275801,44.557358,0</coordinates></LinearRing></outerBoundaryIs></Polygon></Placemark><Placemark><name>xpnsv ext</name><description>placer | serial OR106350535 | 160.0 ac | Active | qtr-sec OR 33 0110S 0040E 026 A SE | recorded~2024 (DB date, not legal located date) | src: BLM MLRS Not Closed | boundary approx (BLM quarter-section) | do not dig here (active claim)</description><styleUrl>#s0</styleUrl><Polygon><outerBoundaryIs><LinearRing><coordinates>-122.285679,44.581222,0 -122.285710,44.577628,0 -122.285741,44.574033,0 -122.290756,44.574030,0 -122.295770,44.574028,0 -122.295745,44.577625,0 -122.295720,44.581221,0 -122.290699,44.581222,0 -122.285679,44.581222,0</coordinates></LinearRing></outerBoundaryIs></Polygon></Placemark><Placemark><name>Galena 1</name><description>placer | serial OR106707164 | 40.0 ac | Filed | qtr-sec OR 33 0110S 0040E 033 SENE | recorded~2024 (DB date, not legal located date) | src: BLM MLRS Not Closed | boundary approx (BLM quarter-section) | do not dig here (active claim)</description><styleUrl>#s0</styleUrl><Polygon><outerBoundaryIs><LinearRing><coordinates>-122.325928,44.566778,0 -122.330819,44.566808,0 -122.330785,44.570436,0 -122.325928,44.570409,0 -122.325928,44.566778,0</coordinates></LinearRing></outerBoundaryIs></Polygon></Placemark><Placemark><name>DENWEL PLACER 1</name><description>placer | serial OR106709015 | 20.0 ac | Under Review | qtr-sec OR 33 0110S 0040E 028 N2NWSE | recorded~2024 (DB date, not legal located date) | src: BLM MLRS Not Closed | boundary approx (BLM quarter-section) | do not dig here (active claim)</description><styleUrl>#s0</styleUrl><Polygon><outerBoundaryIs><LinearRing><coordinates>-122.330811,44.581259,0 -122.330796,44.579460,0 -122.333236,44.579472,0 -122.335675,44.579485,0 -122.335710,44.581284,0 -122.333261,44.581272,0 -122.330811,44.581259,0</coordinates></LinearRing></outerBoundaryIs></Polygon></Placemark><Placemark><name>XPNSV GT.A.WY 2</name><description>placer | serial OR106736573 | 20.0 ac | Active | qtr-sec OR 33 0110S 0040E 022 A NENE | recorded~2025 (DB date, not legal located date) | src: BLM MLRS Not Closed | boundary approx (BLM quarter-section) | do not dig here (active claim)</description><styleUrl>#s0</styleUrl><Polygon><outerBoundaryIs><LinearRing><coordinates>-122.310682,44.599137,0 -122.310654,44.602704,0 -122.305592,44.602726,0 -122.305625,44.599148,0 -122.310682,44.599137,0</coordinates></LinearRing></outerBoundaryIs></Polygon></Placemark><Placemark><name>Lucky Strike</name><description>lode | serial OR106748110 | 20.66 ac | Active | qtr-sec OR 33 0110S 0040E 023 E NWNE | recorded~2025 (DB date, not legal located date) | src: BLM MLRS Not Closed | boundary approx (BLM quarter-section) | do not dig here (active claim)</description><styleUrl>#s0</styleUrl><Polygon><outerBoundaryIs><LinearRing><coordinates>-122.297768,44.588414,0 -122.300695,44.588415,0 -122.303368,44.588415,0 -122.305721,44.588415,0 -122.305711,44.589517,0 -122.305689,44.591993,0 -122.305675,44.593558,0 -122.305661,44.595084,0 -122.305657,44.595571,0 -122.305625,44.599148,0 -122.305592,44.602726,0 -122.300562,44.602739,0 -122.295532,44.602753,0 -122.294536,44.602756,0 -122.291391,44.602764,0 -122.291080,44.602765,0 -122.290502,44.602767,0 -122.288063,44.602773,0 -122.285471,44.602780,0 -122.285508,44.599188,0 -122.285544,44.595596,0 -122.285580,44.592004,0 -122.285617,44.588412,0 -122.290643,44.588413,0 -122.295669,44.588414,0 -122.295875,44.588414,0 -122.297768,44.588414,0</coordinates></LinearRing></outerBoundaryIs></Polygon></Placemark><Placemark><name>QCPGP</name><description>placer | serial OR106753924 | 20.0 ac | Active | qtr-sec OR 33 0110S 0040E 028 S2NESE | recorded~2025 (DB date, not legal located date) | src: BLM MLRS Not Closed | boundary approx (BLM quarter-section) | do not dig here (active claim)</description><styleUrl>#s0</styleUrl><Polygon><outerBoundaryIs><LinearRing><coordinates>-122.325917,44.579436,0 -122.325921,44.577637,0 -122.328351,44.577649,0 -122.330781,44.577661,0 -122.330796,44.579460,0 -122.328356,44.579448,0 -122.325917,44.579436,0</coordinates></LinearRing></outerBoundaryIs></Polygon></Placemark><Placemark><name>Norma jean</name><description>lode | serial OR106754707 | 15.15151515 ac | Active | qtr-sec OR 33 0110S 0040E 014 A NESE | recorded~2025 (DB date, not legal located date) | src: BLM MLRS Not Closed | boundary approx (BLM quarter-section) | do not dig here (active claim)</description><styleUrl>#s0</styleUrl><Polygon><outerBoundaryIs><LinearRing><coordinates>-122.290489,44.606350,0 -122.290476,44.609934,0 -122.285443,44.609954,0 -122.285457,44.606367,0 -122.290489,44.606350,0</coordinates></LinearRing></outerBoundaryIs></Polygon></Placemark><Placemark><name>LOST MAN'S CANYON</name><description>lode | serial ORMC178111 | 20.66 ac | Active | qtr-sec OR 33 0120S 0030E 020 A SW | recorded~2021 (DB date, not legal located date) | src: BLM MLRS Not Closed | boundary approx (BLM quarter-section) | do not dig here (active claim)</description><styleUrl>#s0</styleUrl><Polygon><outerBoundaryIs><LinearRing><coordinates>-122.482631,44.506859,0 -122.477620,44.507023,0 -122.472610,44.507186,0 -122.472597,44.503701,0 -122.472583,44.500215,0 -122.474180,44.500178,0 -122.475428,44.500150,0 -122.477395,44.500105,0 -122.482207,44.499994,0 -122.482419,44.503427,0 -122.482631,44.506859,0</coordinates></LinearRing></outerBoundaryIs></Polygon></Placemark><Placemark><name>Lumlandia2</name><description>lode | serial OR106793506 | 9.09090909 ac | Filed | qtr-sec OR 33 0110S 0040E 014 SWNW | recorded~2026 (DB date, not legal located date) | src: BLM MLRS Not Closed | boundary approx (BLM quarter-section) | do not dig here (active claim)</description><styleUrl>#s0</styleUrl><Polygon><outerBoundaryIs><LinearRing><coordinates>-122.305576,44.609874,0 -122.305568,44.613448,0 -122.300533,44.613471,0 -122.300543,44.609894,0 -122.305576,44.609874,0</coordinates></LinearRing></outerBoundaryIs></Polygon></Placemark><Placemark><name>Accident Mine 1</name><description>lode | serial OR105816556 | 20.66 ac | Active | qtr-sec OR 33 0110S 0040E 023 A SE|OR 33 0110S 0040E 023 A SESE|OR 33 0110S 0040E 023 A Government Lot 3|OR 33 0110S 0040E 023 A SE|OR 33 0110S 0040E 023 A SE|OR 33 0110S 0040E 023 A SE|OR 33 0110S 0040E 023 A NESE|OR 33 0110S 0040E 023 A SE|OR 33 011…</description><styleUrl>#s0</styleUrl><Polygon><outerBoundaryIs><LinearRing><coordinates>-122.290643,44.588413,0 -122.295669,44.588414,0 -122.295875,44.588414,0 -122.297768,44.588414,0 -122.300695,44.588415,0 -122.303368,44.588415,0 -122.305721,44.588415,0 -122.305711,44.589517,0 -122.305689,44.591993,0 -122.305675,44.593558,0 -122.305661,44.595084,0 -122.305657,44.595571,0 -122.305625,44.599148,0 -122.305592,44.602726,0 -122.300562,44.602739,0 -122.295532,44.602753,0 -122.294536,44.602756,0 -122.291391,44.602764,0 -122.291080,44.602765,0 -122.290502,44.602767,0 -122.288063,44.602773,0 -122.285471,44.602780,0 -122.285508,44.599188,0 -122.285544,44.595596,0 -122.285580,44.592004,0 -122.285617,44.588412,0 -122.290643,44.588413,0</coordinates></LinearRing></outerBoundaryIs></Polygon></Placemark></Folder></Document></kml>