<?xml version="1.0" encoding="UTF-8"?><kml xmlns="http://www.opengis.net/kml/2.2"><Document><name>quartzville Scout candidates</name><Style id="s0"><IconStyle><color>ff0033ff</color><scale>1.0</scale><Icon><href>http://maps.google.com/mapfiles/kml/shapes/placemark_circle.png</href></Icon></IconStyle></Style><Folder><name>Scout candidates</name><Placemark><name>SCOUT 1 - Placer bench</name><description>Forty-Four Mines (placer (heuristic: surface workings)) | agency: USFS | 88m to stream | cluster: 1 nearby | src: MILO</description><styleUrl>#s0</styleUrl><Point><coordinates>-122.275910,44.554856,0</coordinates></Point></Placemark><Placemark><name>SCOUT 2 - Lode/unknown outcrop</name><description>USMIN Adit | agency: USFS | 117m to stream | cluster: 2 nearby | src: USMIN</description><styleUrl>#s0</styleUrl><Point><coordinates>-122.281814,44.562098,0</coordinates></Point></Placemark><Placemark><name>SCOUT 3 - Placer bench</name><description>USMIN Prospect Pit | agency: USFS | 6m to stream | cluster: 1 nearby | src: USMIN</description><styleUrl>#s0</styleUrl><Point><coordinates>-122.275014,44.547710,0</coordinates></Point></Placemark><Placemark><name>SCOUT 4 - Placer bench</name><description>USMIN Prospect Pit | agency: USFS | 14m to stream | cluster: 1 nearby | src: USMIN</description><styleUrl>#s0</styleUrl><Point><coordinates>-122.291760,44.572628,0</coordinates></Point></Placemark><Placemark><name>SCOUT 5 - Placer bench</name><description>USMIN Prospect Pit | agency: USFS | 48m to stream | cluster: 1 nearby | src: USMIN</description><styleUrl>#s0</styleUrl><Point><coordinates>-122.258089,44.546626,0</coordinates></Point></Placemark><Placemark><name>SCOUT 6 - Placer bench</name><description>USMIN Prospect Pit | agency: USFS | 107m to stream | cluster: 1 nearby | src: USMIN</description><styleUrl>#s0</styleUrl><Point><coordinates>-122.311554,44.582342,0</coordinates></Point></Placemark><Placemark><name>SCOUT 7 - Lode/unknown outcrop</name><description>unnamed or NA (unknown) | agency: USFS | 51m to stream | cluster: 6 nearby | src: MILO</description><styleUrl>#s0</styleUrl><Point><coordinates>-122.321569,44.597151,0</coordinates></Point></Placemark><Placemark><name>SCOUT 8 - Lode/unknown outcrop</name><description>unnamed or NA (unknown) | agency: USFS | 54m to stream | cluster: 4 nearby | src: MILO</description><styleUrl>#s0</styleUrl><Point><coordinates>-122.319274,44.600210,0</coordinates></Point></Placemark><Placemark><name>SCOUT 9 - Lode/unknown outcrop</name><description>unnamed or NA (unknown) | agency: USFS | 136m to stream | cluster: 4 nearby | src: MILO</description><styleUrl>#s0</styleUrl><Point><coordinates>-122.324699,44.597006,0</coordinates></Point></Placemark><Placemark><name>SCOUT 10 - Lode/unknown outcrop</name><description>Accident (lode) | agency: USFS | 12m to stream | cluster: 3 nearby | NEAR ACTIVE CLAIM (&lt;50m, approx) | src: MILO</description><styleUrl>#s0</styleUrl><Point><coordinates>-122.290753,44.588387,0</coordinates></Point></Placemark></Folder></Document></kml>