<?xml version="1.0" encoding="UTF-8"?><kml xmlns="http://www.opengis.net/kml/2.2"><Document><name>quartzville Historical sites</name><Style id="s0"><IconStyle><color>ff000000</color><scale>1.0</scale><Icon><href>http://maps.google.com/mapfiles/kml/shapes/placemark_circle.png</href></Icon></IconStyle></Style><Folder><name>Historical sites</name><Placemark><name>Pit - Quartzville</name><description>10 source record(s) merged within 75m | src: MILO, USMIN</description><styleUrl>#s0</styleUrl><Point><coordinates>-122.305876,44.587624,0</coordinates></Point></Placemark><Placemark><name>Pit - Quartzville</name><description>4 source record(s) merged within 75m | src: MILO, USMIN</description><styleUrl>#s0</styleUrl><Point><coordinates>-122.310545,44.582705,0</coordinates></Point></Placemark><Placemark><name>Pit - Quartzville</name><description>2 source record(s) merged within 75m | src: MILO, USMIN</description><styleUrl>#s0</styleUrl><Point><coordinates>-122.291757,44.572581,0</coordinates></Point></Placemark><Placemark><name>Pit - Quartzville</name><description>3 source record(s) merged within 75m | src: MILO, USMIN</description><styleUrl>#s0</styleUrl><Point><coordinates>-122.301354,44.599738,0</coordinates></Point></Placemark><Placemark><name>Pit - Quartzville</name><description>4 source record(s) merged within 75m | src: MILO, USMIN</description><styleUrl>#s0</styleUrl><Point><coordinates>-122.314542,44.601526,0</coordinates></Point></Placemark><Placemark><name>Pit - Quartzville</name><description>2 source record(s) merged within 75m | src: MILO, USMIN</description><styleUrl>#s0</styleUrl><Point><coordinates>-122.318319,44.607703,0</coordinates></Point></Placemark><Placemark><name>Pit - Quartzville</name><description>2 source record(s) merged within 75m | src: MILO, USMIN</description><styleUrl>#s0</styleUrl><Point><coordinates>-122.258083,44.546637,0</coordinates></Point></Placemark><Placemark><name>Adit - Quartzville</name><description>7 source record(s) merged within 75m | src: MILO, USMIN</description><styleUrl>#s0</styleUrl><Point><coordinates>-122.292337,44.604876,0</coordinates></Point></Placemark><Placemark><name>Pit - Quartzville</name><description>3 source record(s) merged within 75m | src: MILO, USMIN</description><styleUrl>#s0</styleUrl><Point><coordinates>-122.309196,44.589591,0</coordinates></Point></Placemark><Placemark><name>Pit - Quartzville</name><description>2 source record(s) merged within 75m | src: MILO, USMIN</description><styleUrl>#s0</styleUrl><Point><coordinates>-122.309788,44.601158,0</coordinates></Point></Placemark><Placemark><name>Pit - Quartzville</name><description>2 source record(s) merged within 75m | src: MILO, USMIN</description><styleUrl>#s0</styleUrl><Point><coordinates>-122.311561,44.582345,0</coordinates></Point></Placemark><Placemark><name>Pit - Quartzville</name><description>4 source record(s) merged within 75m | src: MILO, USMIN</description><styleUrl>#s0</styleUrl><Point><coordinates>-122.304707,44.588063,0</coordinates></Point></Placemark><Placemark><name>Pit - Quartzville</name><description>2 source record(s) merged within 75m | src: MILO, USMIN</description><styleUrl>#s0</styleUrl><Point><coordinates>-122.275085,44.547490,0</coordinates></Point></Placemark><Placemark><name>Pit - Quartzville</name><description>3 source record(s) merged within 75m | src: MILO, USMIN</description><styleUrl>#s0</styleUrl><Point><coordinates>-122.311958,44.593119,0</coordinates></Point></Placemark><Placemark><name>Pit - Quartzville</name><description>2 source record(s) merged within 75m | src: MILO, USMIN</description><styleUrl>#s0</styleUrl><Point><coordinates>-122.281499,44.568701,0</coordinates></Point></Placemark><Placemark><name>Adit - Quartzville</name><description>7 source record(s) merged within 75m | src: MILO, USMIN</description><styleUrl>#s0</styleUrl><Point><coordinates>-122.310541,44.599145,0</coordinates></Point></Placemark><Placemark><name>Adit - Quartzville</name><description>3 source record(s) merged within 75m | src: MILO, USMIN</description><styleUrl>#s0</styleUrl><Point><coordinates>-122.315912,44.603031,0</coordinates></Point></Placemark><Placemark><name>Adit - Quartzville</name><description>2 source record(s) merged within 75m | src: MILO, USMIN</description><styleUrl>#s0</styleUrl><Point><coordinates>-122.300107,44.592817,0</coordinates></Point></Placemark><Placemark><name>Adit - Quartzville</name><description>2 source record(s) merged within 75m | src: MILO, USMIN</description><styleUrl>#s0</styleUrl><Point><coordinates>-122.301239,44.592035,0</coordinates></Point></Placemark><Placemark><name>Adit - Quartzville</name><description>1 source record(s) merged within 75m | src: USMIN</description><styleUrl>#s0</styleUrl><Point><coordinates>-122.301193,44.594419,0</coordinates></Point></Placemark><Placemark><name>Adit - Quartzville</name><description>2 source record(s) merged within 75m | src: MILO, USMIN</description><styleUrl>#s0</styleUrl><Point><coordinates>-122.285860,44.552785,0</coordinates></Point></Placemark><Placemark><name>Adit - Quartzville</name><description>5 source record(s) merged within 75m | src: MILO, USMIN</description><styleUrl>#s0</styleUrl><Point><coordinates>-122.321450,44.603705,0</coordinates></Point></Placemark><Placemark><name>Adit - Quartzville</name><description>3 source record(s) merged within 75m | src: MILO, USMIN</description><styleUrl>#s0</styleUrl><Point><coordinates>-122.299872,44.593672,0</coordinates></Point></Placemark><Placemark><name>Placer - Albany Group Tunnel No.3 (Doodlebug Claim)</name><description>4 source record(s) merged within 75m | src: MILO, MRDS, USMIN</description><styleUrl>#s0</styleUrl><Point><coordinates>-122.298372,44.596822,0</coordinates></Point></Placemark><Placemark><name>Adit - Quartzville</name><description>2 source record(s) merged within 75m | src: USMIN</description><styleUrl>#s0</styleUrl><Point><coordinates>-122.298781,44.589555,0</coordinates></Point></Placemark><Placemark><name>Adit - Quartzville</name><description>2 source record(s) merged within 75m | src: MILO, USMIN</description><styleUrl>#s0</styleUrl><Point><coordinates>-122.311217,44.591534,0</coordinates></Point></Placemark><Placemark><name>Adit - Quartzville</name><description>2 source record(s) merged within 75m | src: MILO, USMIN</description><styleUrl>#s0</styleUrl><Point><coordinates>-122.301242,44.589897,0</coordinates></Point></Placemark><Placemark><name>Adit - Quartzville</name><description>10 source record(s) merged within 75m | src: MILO, USMIN</description><styleUrl>#s0</styleUrl><Point><coordinates>-122.310608,44.600015,0</coordinates></Point></Placemark><Placemark><name>Adit - Quartzville</name><description>3 source record(s) merged within 75m | src: MILO, USMIN</description><styleUrl>#s0</styleUrl><Point><coordinates>-122.303011,44.591742,0</coordinates></Point></Placemark><Placemark><name>Adit - Quartzville</name><description>1 source record(s) merged within 75m | src: USMIN</description><styleUrl>#s0</styleUrl><Point><coordinates>-122.303770,44.592575,0</coordinates></Point></Placemark><Placemark><name>Adit - Quartzville</name><description>1 source record(s) merged within 75m | src: USMIN</description><styleUrl>#s0</styleUrl><Point><coordinates>-122.281814,44.562098,0</coordinates></Point></Placemark><Placemark><name>Adit - Quartzville</name><description>6 source record(s) merged within 75m | src: MILO, USMIN</description><styleUrl>#s0</styleUrl><Point><coordinates>-122.311886,44.600815,0</coordinates></Point></Placemark><Placemark><name>Adit - Quartzville</name><description>3 source record(s) merged within 75m | src: MILO, USMIN</description><styleUrl>#s0</styleUrl><Point><coordinates>-122.309103,44.581465,0</coordinates></Point></Placemark><Placemark><name>Adit - Quartzville</name><description>2 source record(s) merged within 75m | src: MILO, USMIN</description><styleUrl>#s0</styleUrl><Point><coordinates>-122.313728,44.598792,0</coordinates></Point></Placemark><Placemark><name>Mine - Wakefield Claim Tunnel 1 and Cut No.2</name><description>1 source record(s) merged within 75m | src: MILO</description><styleUrl>#s0</styleUrl><Point><coordinates>-122.317151,44.605729,0</coordinates></Point></Placemark><Placemark><name>Mine - North Queen</name><description>1 source record(s) merged within 75m | src: MILO</description><styleUrl>#s0</styleUrl><Point><coordinates>-122.315094,44.609573,0</coordinates></Point></Placemark><Placemark><name>Mine - Albany Group, Red Heifer No.2 (Abe Lincoln claim)</name><description>4 source record(s) merged within 75m | src: MILO</description><styleUrl>#s0</styleUrl><Point><coordinates>-122.292888,44.602638,0</coordinates></Point></Placemark><Placemark><name>Mine - Hastings</name><description>2 source record(s) merged within 75m | src: MILO</description><styleUrl>#s0</styleUrl><Point><coordinates>-122.298666,44.604879,0</coordinates></Point></Placemark><Placemark><name>Mine - Peak and Dwarf</name><description>3 source record(s) merged within 75m | src: MILO, MRDS</description><styleUrl>#s0</styleUrl><Point><coordinates>-122.269482,44.606108,0</coordinates></Point></Placemark><Placemark><name>Mine - Hoot-En-Anne</name><description>1 source record(s) merged within 75m | src: MILO</description><styleUrl>#s0</styleUrl><Point><coordinates>-122.274816,44.607075,0</coordinates></Point></Placemark><Placemark><name>Mine - Houf Property</name><description>1 source record(s) merged within 75m | src: MILO</description><styleUrl>#s0</styleUrl><Point><coordinates>-122.365503,44.589105,0</coordinates></Point></Placemark><Placemark><name>Mine - gold mine</name><description>2 source record(s) merged within 75m | src: MILO, MRDS</description><styleUrl>#s0</styleUrl><Point><coordinates>-122.337868,44.601224,0</coordinates></Point></Placemark><Placemark><name>Mine - Lawler</name><description>1 source record(s) merged within 75m | src: MILO</description><styleUrl>#s0</styleUrl><Point><coordinates>-122.307593,44.591518,0</coordinates></Point></Placemark><Placemark><name>Mine - Quartzville</name><description>1 source record(s) merged within 75m | src: MILO</description><styleUrl>#s0</styleUrl><Point><coordinates>-122.315394,44.598315,0</coordinates></Point></Placemark><Placemark><name>Mine - Skookum claim</name><description>1 source record(s) merged within 75m | src: MILO</description><styleUrl>#s0</styleUrl><Point><coordinates>-122.298910,44.601621,0</coordinates></Point></Placemark><Placemark><name>Mine - Bic Mac</name><description>2 source record(s) merged within 75m | src: MILO, MRDS</description><styleUrl>#s0</styleUrl><Point><coordinates>-122.303962,44.596964,0</coordinates></Point></Placemark><Placemark><name>Mine - Doodlebug</name><description>3 source record(s) merged within 75m | src: MILO, MRDS</description><styleUrl>#s0</styleUrl><Point><coordinates>-122.302156,44.598828,0</coordinates></Point></Placemark><Placemark><name>Mine - Munro</name><description>1 source record(s) merged within 75m | src: MILO</description><styleUrl>#s0</styleUrl><Point><coordinates>-122.301757,44.601238,0</coordinates></Point></Placemark><Placemark><name>Mine - Albany (Mountain Queen Claim)</name><description>1 source record(s) merged within 75m | src: MILO</description><styleUrl>#s0</styleUrl><Point><coordinates>-122.296945,44.596718,0</coordinates></Point></Placemark><Placemark><name>Mine - Albany Group, Marion (Morning Star claim)</name><description>1 source record(s) merged within 75m | src: MILO</description><styleUrl>#s0</styleUrl><Point><coordinates>-122.295645,44.600406,0</coordinates></Point></Placemark><Placemark><name>Mine - Worlds Fair claim Disc. Cut No.1/Tunnel No.2</name><description>1 source record(s) merged within 75m | src: MILO</description><styleUrl>#s0</styleUrl><Point><coordinates>-122.299579,44.589976,0</coordinates></Point></Placemark><Placemark><name>Mine - Accident</name><description>2 source record(s) merged within 75m | src: MILO</description><styleUrl>#s0</styleUrl><Point><coordinates>-122.290430,44.588512,0</coordinates></Point></Placemark><Placemark><name>Mine - Riverside Claim (Riverside Group), discovery cut</name><description>1 source record(s) merged within 75m | src: MILO</description><styleUrl>#s0</styleUrl><Point><coordinates>-122.308080,44.578631,0</coordinates></Point></Placemark><Placemark><name>Mine - Relief Property</name><description>2 source record(s) merged within 75m | src: MILO</description><styleUrl>#s0</styleUrl><Point><coordinates>-122.303405,44.578821,0</coordinates></Point></Placemark><Placemark><name>Mine - Highland Chief</name><description>1 source record(s) merged within 75m | src: MILO</description><styleUrl>#s0</styleUrl><Point><coordinates>-122.305825,44.582461,0</coordinates></Point></Placemark><Placemark><name>Mine - Savage Group</name><description>1 source record(s) merged within 75m | src: MILO</description><styleUrl>#s0</styleUrl><Point><coordinates>-122.309049,44.564958,0</coordinates></Point></Placemark><Placemark><name>Mine - Winter claim</name><description>1 source record(s) merged within 75m | src: MILO</description><styleUrl>#s0</styleUrl><Point><coordinates>-122.293964,44.575622,0</coordinates></Point></Placemark><Placemark><name>Mine - Columbia</name><description>1 source record(s) merged within 75m | src: MILO</description><styleUrl>#s0</styleUrl><Point><coordinates>-122.304838,44.567413,0</coordinates></Point></Placemark><Placemark><name>Placer - Forty-Four Mines</name><description>2 source record(s) merged within 75m | src: MILO</description><styleUrl>#s0</styleUrl><Point><coordinates>-122.275910,44.554856,0</coordinates></Point></Placemark><Placemark><name>Mine - Paymaster claim</name><description>1 source record(s) merged within 75m | src: MILO</description><styleUrl>#s0</styleUrl><Point><coordinates>-122.283227,44.547849,0</coordinates></Point></Placemark><Placemark><name>Mine - Galena</name><description>1 source record(s) merged within 75m | src: MILO</description><styleUrl>#s0</styleUrl><Point><coordinates>-122.299124,44.542025,0</coordinates></Point></Placemark><Placemark><name>Mine - Wakefield Claim Disc. cut and tunnel No.1</name><description>1 source record(s) merged within 75m | src: MILO</description><styleUrl>#s0</styleUrl><Point><coordinates>-122.314140,44.604182,0</coordinates></Point></Placemark><Placemark><name>Mine - Lucille (Bell Claim) discovery cut</name><description>2 source record(s) merged within 75m | src: MILO</description><styleUrl>#s0</styleUrl><Point><coordinates>-122.312454,44.599735,0</coordinates></Point></Placemark><Placemark><name>Mine - gold mine</name><description>1 source record(s) merged within 75m | src: MILO</description><styleUrl>#s0</styleUrl><Point><coordinates>-122.166759,44.585964,0</coordinates></Point></Placemark><Placemark><name>Placer - Albany Group, Bonanza Claim (Tunnel No 2)</name><description>4 source record(s) merged within 75m | src: MILO</description><styleUrl>#s0</styleUrl><Point><coordinates>-122.296376,44.594875,0</coordinates></Point></Placemark><Placemark><name>Mine - Albany Group, Red Heifer No.1 (Abe Lincoln claim)</name><description>3 source record(s) merged within 75m | src: MILO</description><styleUrl>#s0</styleUrl><Point><coordinates>-122.291901,44.602027,0</coordinates></Point></Placemark><Placemark><name>Mine - Martha Claim prospect</name><description>1 source record(s) merged within 75m | src: MILO</description><styleUrl>#s0</styleUrl><Point><coordinates>-122.319098,44.602883,0</coordinates></Point></Placemark><Placemark><name>Mine - Betty Claim large open cut (Bob and Betty)</name><description>1 source record(s) merged within 75m | src: MILO</description><styleUrl>#s0</styleUrl><Point><coordinates>-122.293102,44.604474,0</coordinates></Point></Placemark><Placemark><name>Mine - Elk Tunnel</name><description>1 source record(s) merged within 75m | src: MILO</description><styleUrl>#s0</styleUrl><Point><coordinates>-122.305871,44.593315,0</coordinates></Point></Placemark><Placemark><name>Mine - Lawler Consolidated Group, Red Bull (Tunnel No.2)</name><description>1 source record(s) merged within 75m | src: MILO</description><styleUrl>#s0</styleUrl><Point><coordinates>-122.310277,44.590768,0</coordinates></Point></Placemark><Placemark><name>Mine - Lawler Consolidated Group, Red Blair Claim tunnel 1</name><description>2 source record(s) merged within 75m | src: MILO</description><styleUrl>#s0</styleUrl><Point><coordinates>-122.306716,44.587137,0</coordinates></Point></Placemark><Placemark><name>Mine - Lawler Consolidated Group, Gold Finch Claim prospect</name><description>1 source record(s) merged within 75m | src: MILO</description><styleUrl>#s0</styleUrl><Point><coordinates>-122.304955,44.585336,0</coordinates></Point></Placemark><Placemark><name>Mine - Lawler Consolidated Group, Gold Bug old tunnel</name><description>1 source record(s) merged within 75m | src: MILO</description><styleUrl>#s0</styleUrl><Point><coordinates>-122.304120,44.586957,0</coordinates></Point></Placemark><Placemark><name>Mine - Worlds Fair Group, Free Gold Claim 2 (tunnel No.3)</name><description>2 source record(s) merged within 75m | src: MILO</description><styleUrl>#s0</styleUrl><Point><coordinates>-122.299290,44.592096,0</coordinates></Point></Placemark><Placemark><name>Mine - Ruth Claim tunnel 1</name><description>8 source record(s) merged within 75m | src: MILO</description><styleUrl>#s0</styleUrl><Point><coordinates>-122.318905,44.604403,0</coordinates></Point></Placemark><Placemark><name>Mine - Ruth Claim tunnel 2</name><description>3 source record(s) merged within 75m | src: MILO</description><styleUrl>#s0</styleUrl><Point><coordinates>-122.314407,44.602963,0</coordinates></Point></Placemark><Placemark><name>Mine - Ruth Claim discovery cut</name><description>1 source record(s) merged within 75m | src: MILO</description><styleUrl>#s0</styleUrl><Point><coordinates>-122.314691,44.602262,0</coordinates></Point></Placemark><Placemark><name>Mine - Martha Claim cut 3</name><description>1 source record(s) merged within 75m | src: MILO</description><styleUrl>#s0</styleUrl><Point><coordinates>-122.320023,44.603833,0</coordinates></Point></Placemark><Placemark><name>Mine - Martha Claim cut 4</name><description>1 source record(s) merged within 75m | src: MILO</description><styleUrl>#s0</styleUrl><Point><coordinates>-122.323990,44.604663,0</coordinates></Point></Placemark><Placemark><name>Mine - Pine Squirl Claim, discovery cut</name><description>1 source record(s) merged within 75m | src: MILO</description><styleUrl>#s0</styleUrl><Point><coordinates>-122.322586,44.603035,0</coordinates></Point></Placemark><Placemark><name>Mine - Albany Group Marion (Morning Star claim), Tunnel No.2</name><description>2 source record(s) merged within 75m | src: MILO</description><styleUrl>#s0</styleUrl><Point><coordinates>-122.292456,44.597414,0</coordinates></Point></Placemark><Placemark><name>Mine - Albany Group (Morning Star claim), Cut No.2</name><description>1 source record(s) merged within 75m | src: MILO</description><styleUrl>#s0</styleUrl><Point><coordinates>-122.294029,44.599484,0</coordinates></Point></Placemark><Placemark><name>Mine - Albany Group (Abe Lincoln Claim), Cut No.5</name><description>3 source record(s) merged within 75m | src: MILO</description><styleUrl>#s0</styleUrl><Point><coordinates>-122.292311,44.599837,0</coordinates></Point></Placemark><Placemark><name>Mine - Albany Group (Morning Star claim), Tunnel No.2</name><description>1 source record(s) merged within 75m | src: MILO</description><styleUrl>#s0</styleUrl><Point><coordinates>-122.295229,44.599017,0</coordinates></Point></Placemark><Placemark><name>Mine - Albany Group (Queen of the Gulch Claim), Disc Cut No.1</name><description>1 source record(s) merged within 75m | src: MILO</description><styleUrl>#s0</styleUrl><Point><coordinates>-122.297035,44.598128,0</coordinates></Point></Placemark><Placemark><name>Mine - Albany Group (Mountain King Claim), Disc Cut and Tunnel No.1</name><description>1 source record(s) merged within 75m | src: MILO</description><styleUrl>#s0</styleUrl><Point><coordinates>-122.297876,44.597540,0</coordinates></Point></Placemark><Placemark><name>Mine - Albany (Mountain Queen Claim), Tunnel and Shaft No.2</name><description>1 source record(s) merged within 75m | src: MILO</description><styleUrl>#s0</styleUrl><Point><coordinates>-122.295697,44.596133,0</coordinates></Point></Placemark><Placemark><name>Mine - Albany (Mountain Queen Claim), Disc Cut No.1</name><description>1 source record(s) merged within 75m | src: MILO</description><styleUrl>#s0</styleUrl><Point><coordinates>-122.294261,44.595635,0</coordinates></Point></Placemark><Placemark><name>Mine - Albany (Murray Claim), Disc Cut No.1</name><description>1 source record(s) merged within 75m | src: MILO</description><styleUrl>#s0</styleUrl><Point><coordinates>-122.292501,44.594552,0</coordinates></Point></Placemark><Placemark><name>Mine - Bob Claim discovery cut (Bob and Betty)</name><description>2 source record(s) merged within 75m | src: MILO</description><styleUrl>#s0</styleUrl><Point><coordinates>-122.291457,44.603945,0</coordinates></Point></Placemark><Placemark><name>Mine - Bob Claim cut (Bob and Betty)</name><description>1 source record(s) merged within 75m | src: MILO</description><styleUrl>#s0</styleUrl><Point><coordinates>-122.289943,44.603017,0</coordinates></Point></Placemark><Placemark><name>Mine - Tillicum claim tunnel 3</name><description>1 source record(s) merged within 75m | src: MILO</description><styleUrl>#s0</styleUrl><Point><coordinates>-122.300840,44.593707,0</coordinates></Point></Placemark><Placemark><name>Mine - Mother Lode Claim Tunnel No.2/Disc. Cut No.1</name><description>1 source record(s) merged within 75m | src: MILO</description><styleUrl>#s0</styleUrl><Point><coordinates>-122.320614,44.608125,0</coordinates></Point></Placemark><Placemark><name>Mine - unnamed or NA</name><description>2 source record(s) merged within 75m | src: MILO</description><styleUrl>#s0</styleUrl><Point><coordinates>-122.319848,44.594666,0</coordinates></Point></Placemark><Placemark><name>Mine - unnamed or NA</name><description>3 source record(s) merged within 75m | src: MILO</description><styleUrl>#s0</styleUrl><Point><coordinates>-122.321647,44.597598,0</coordinates></Point></Placemark><Placemark><name>Mine - unnamed or NA</name><description>1 source record(s) merged within 75m | src: MILO</description><styleUrl>#s0</styleUrl><Point><coordinates>-122.324699,44.597006,0</coordinates></Point></Placemark><Placemark><name>Mine - unnamed or NA</name><description>1 source record(s) merged within 75m | src: MILO</description><styleUrl>#s0</styleUrl><Point><coordinates>-122.319274,44.600210,0</coordinates></Point></Placemark><Placemark><name>Mine - Lawler Consolidated Placer, Bed Rock Placer (prospect?)</name><description>1 source record(s) merged within 75m | src: MILO</description><styleUrl>#s0</styleUrl><Point><coordinates>-122.316836,44.591642,0</coordinates></Point></Placemark><Placemark><name>Mine - Lawler Consolidated Placer, Bed Rock Placer (prospect?)</name><description>1 source record(s) merged within 75m | src: MILO</description><styleUrl>#s0</styleUrl><Point><coordinates>-122.320659,44.592903,0</coordinates></Point></Placemark><Placemark><name>Mine - Albany (Murray Claim) cut or tunnel</name><description>1 source record(s) merged within 75m | src: MILO</description><styleUrl>#s0</styleUrl><Point><coordinates>-122.291148,44.593711,0</coordinates></Point></Placemark><Placemark><name>Mine - unnamed or NA</name><description>1 source record(s) merged within 75m | src: MILO</description><styleUrl>#s0</styleUrl><Point><coordinates>-122.289153,44.596048,0</coordinates></Point></Placemark><Placemark><name>Mine - unnamed or NA</name><description>1 source record(s) merged within 75m | src: MILO</description><styleUrl>#s0</styleUrl><Point><coordinates>-122.295030,44.590716,0</coordinates></Point></Placemark><Placemark><name>Mine - unnamed or NA</name><description>3 source record(s) merged within 75m | src: MILO</description><styleUrl>#s0</styleUrl><Point><coordinates>-122.293722,44.587282,0</coordinates></Point></Placemark><Placemark><name>Mine - unnamed or NA</name><description>1 source record(s) merged within 75m | src: MILO</description><styleUrl>#s0</styleUrl><Point><coordinates>-122.301291,44.581686,0</coordinates></Point></Placemark><Placemark><name>Mine - unnamed or NA</name><description>1 source record(s) merged within 75m | src: MILO</description><styleUrl>#s0</styleUrl><Point><coordinates>-122.321392,44.598272,0</coordinates></Point></Placemark><Placemark><name>Mine - unnamed or NA</name><description>2 source record(s) merged within 75m | src: MILO</description><styleUrl>#s0</styleUrl><Point><coordinates>-122.326454,44.597502,0</coordinates></Point></Placemark><Placemark><name>Mine - prospect</name><description>1 source record(s) merged within 75m | src: MILO</description><styleUrl>#s0</styleUrl><Point><coordinates>-122.324212,44.602383,0</coordinates></Point></Placemark><Placemark><name>Mine - unnamed or NA</name><description>1 source record(s) merged within 75m | src: MILO</description><styleUrl>#s0</styleUrl><Point><coordinates>-122.322711,44.601552,0</coordinates></Point></Placemark><Placemark><name>Mine - unnamed or NA</name><description>2 source record(s) merged within 75m | src: MILO</description><styleUrl>#s0</styleUrl><Point><coordinates>-122.301070,44.598063,0</coordinates></Point></Placemark><Placemark><name>Mine - unnamed or NA</name><description>1 source record(s) merged within 75m | src: MILO</description><styleUrl>#s0</styleUrl><Point><coordinates>-122.301212,44.598761,0</coordinates></Point></Placemark><Placemark><name>Mine - unnamed or NA</name><description>1 source record(s) merged within 75m | src: MILO</description><styleUrl>#s0</styleUrl><Point><coordinates>-122.304906,44.594722,0</coordinates></Point></Placemark><Placemark><name>Mine - unnamed or NA</name><description>1 source record(s) merged within 75m | src: MILO</description><styleUrl>#s0</styleUrl><Point><coordinates>-122.296651,44.604862,0</coordinates></Point></Placemark><Placemark><name>Mine - unnamed or NA</name><description>1 source record(s) merged within 75m | src: MILO</description><styleUrl>#s0</styleUrl><Point><coordinates>-122.282748,44.602927,0</coordinates></Point></Placemark><Placemark><name>Mine - prospect</name><description>5 source record(s) merged within 75m | src: MILO</description><styleUrl>#s0</styleUrl><Point><coordinates>-122.283341,44.559418,0</coordinates></Point></Placemark><Placemark><name>Mine - prospect</name><description>1 source record(s) merged within 75m | src: MILO</description><styleUrl>#s0</styleUrl><Point><coordinates>-122.279245,44.561938,0</coordinates></Point></Placemark><Placemark><name>Mine - prospect</name><description>1 source record(s) merged within 75m | src: MILO</description><styleUrl>#s0</styleUrl><Point><coordinates>-122.296999,44.574995,0</coordinates></Point></Placemark><Placemark><name>Mine - Houf Property</name><description>2 source record(s) merged within 75m | src: MRDS</description><styleUrl>#s0</styleUrl><Point><coordinates>-122.370580,44.588705,0</coordinates></Point></Placemark><Placemark><name>Pit - Quartzville</name><description>1 source record(s) merged within 75m | src: USMIN</description><styleUrl>#s0</styleUrl><Point><coordinates>-122.317550,44.605040,0</coordinates></Point></Placemark><Placemark><name>Pit - Quartzville</name><description>1 source record(s) merged within 75m | src: USMIN</description><styleUrl>#s0</styleUrl><Point><coordinates>-122.318191,44.603182,0</coordinates></Point></Placemark><Placemark><name>Pit - Quartzville</name><description>1 source record(s) merged within 75m | src: USMIN</description><styleUrl>#s0</styleUrl><Point><coordinates>-122.314437,44.605113,0</coordinates></Point></Placemark><Placemark><name>Pit - Quartzville</name><description>1 source record(s) merged within 75m | src: USMIN</description><styleUrl>#s0</styleUrl><Point><coordinates>-122.296906,44.595588,0</coordinates></Point></Placemark></Folder></Document></kml>